ANTTV-WPHL,"CAPTURING","resourceMpd":"http://cep.mos.hcvlny.cv.net/live/ANTTV-WPHL/MPD","streams":[{"name":"300k","state":"CAPTURING"},{"name":"625k","state":"CAPTURING"},{"name":"925k","state":"CAPTURING"},{"name":"1200k","state":"CAPTURING"}],"captureEngine":"10.249.35.166"}]}}
ARCH,"CAPTURING","resourceMpd":"http://cep.mos.hcvlny.cv.net/live/ARCH/MPD","streams":[{"name":"300k","state":"CAPTURING"},{"name":"625k","state":"CAPTURING"},{"name":"925k","state":"CAPTURING"},{"name":"1200k","state":"CAPTURING"}],"captureEngine":"10.249.35.179"}]}}
ASPIR,"CAPTURING","resourceMpd":"http://cep.mos.hcvlny.cv.net/live/ASPIR/MPD","streams":[{"name":"300k","state":"CAPTURING"},{"name":"625k","state":"CAPTURING"},{"name":"925k","state":"CAPTURING"},{"name":"1200k","state":"CAPTURING"}],"captureEngine":"10.249.35.201"}]}}
ANTTV-WTIC,"CAPTURING","resourceMpd":"http://cep.mos.hcvlny.cv.net/live/ANTTV-WTIC/MPD","streams":[{"name":"300k","state":"CAPTURING"},{"name":"625k","state":"CAPTURING"},{"name":"925k","state":"CAPTURING"},{"name":"1200k","state":"CAPTURING"}],"captureEngine":"10.249.35.160"}]}}
ART,"CAPTURING","resourceMpd":"http://cep.mos.hcvlny.cv.net/live/ART/MPD","streams":[{"name":"300k","state":"CAPTURING"},{"name":"625k","state":"CAPTURING"},{"name":"1200k","state":"CAPTURING"},{"name":"925k","state":"CAPTURING"}],"captureEngine":"10.249.35.195"}]}}
ANTTV-WPIX,"CAPTURING","resourceMpd":"http://cep.mos.hcvlny.cv.net/live/ANTTV-WPIX/MPD","streams":[{"name":"300k","state":"CAPTURING"},{"name":"625k","state":"CAPTURING"},{"name":"925k","state":"CAPTURING"},{"name":"1200k","state":"CAPTURING"}],"captureEngine":"10.249.35.164"}]}}
ANT3,"CAPTURING","resourceMpd":"http://cep.mos.hcvlny.cv.net/live/ANT3/MPD","streams":[{"name":"300k","state":"CAPTURING"},{"name":"625k","state":"CAPTURING"},{"name":"925k","state":"CAPTURING"},{"name":"1200k","state":"CAPTURING"}],"captureEngine":"10.249.35.158"}]}}
AZTCA,"CAPTURING","resourceMpd":"http://cep.mos.hcvlny.cv.net/live/AZTCA/MPD","streams":[{"name":"300k","state":"CAPTURING"},{"name":"625k","state":"CAPTURING"},{"name":"925k","state":"CAPTURING"},{"name":"1200k","state":"CAPTURING"}],"captureEngine":"10.249.35.196"}]}}
AFRO-PLUS,"CAPTURING","resourceMpd":"http://cep.mos.hcvlny.cv.net/live/AFRO-PLUS/MPD","streams":[{"name":"300k","state":"CAPTURING"},{"name":"625k","state":"CAPTURING"},{"name":"925k","state":"CAPTURING"},{"name":"1200k","state":"CAPTURING"}],"captureEngine":"10.249.35.185"}]}}
ANT,"CAPTURING","resourceMpd":"http://cep.mos.hcvlny.cv.net/live/ANT/MPD","streams":[{"name":"300k","state":"CAPTURING"},{"name":"625k","state":"CAPTURING"},{"name":"925k","state":"CAPTURING"},{"name":"1200k","state":"CAPTURING"}],"captureEngine":"10.249.35.181"}]}}
42AE,"CAPTURING","resourceMpd":"http://cep.mos.hcvlny.cv.net/live/42AE/MPD","streams":[{"name":"300k","state":"CAPTURING"},{"name":"625k","state":"CAPTURING"},{"name":"925k","state":"CAPTURING"},{"name":"1200k","state":"CAPTURING"}],"captureEngine":"10.249.35.156"}]}}
WWSIH,"CAPTURING","resourceMpd":"http://cep.mos.hcvlny.cv.net/live/WWSIH/MPD","streams":[{"name":"450k","state":"CAPTURING"},{"name":"600k","state":"CAPTURING"},{"name":"1000k","state":"CAPTURING"},{"name":"1500k","state":"CAPTURING"},{"name":"2200k","state":"CAPTURING"},{"name":"4000k","state":"CAPTURING"}],"captureEngine":"10.249.35.186"}]}}
21WLD,"CAPTURING","resourceMpd":"http://cep.mos.hcvlny.cv.net/live/21WLD/MPD","streams":[{"name":"300k","state":"CAPTURING"},{"name":"625k","state":"CAPTURING"},{"name":"925k","state":"CAPTURING"},{"name":"1200k","state":"CAPTURING"}],"captureEngine":"10.249.35.198"}]}}
21CRT,"CAPTURING","resourceMpd":"http://cep.mos.hcvlny.cv.net/live/21CRT/MPD","streams":[{"name":"300k","state":"CAPTURING"},{"name":"625k","state":"CAPTURING"},{"name":"1200k","state":"CAPTURING"},{"name":"925k","state":"CAPTURING"}],"captureEngine":"10.249.35.168"}]}}
ADLT,"CAPTURING","resourceMpd":"http://cep.mos.hcvlny.cv.net/live/ADLT/MPD","streams":[{"name":"300k","state":"CAPTURING"},{"name":"625k","state":"CAPTURING"},{"name":"925k","state":"CAPTURING"},{"name":"1200k","state":"CAPTURING"}],"captureEngine":"10.249.35.196"}]}}
YESHD,"FAILED","reason":"Unknown:Indexer failed to process packets : Audio configured in stream but no audio received. Unable to initialize Indexer","streams":[{"name":"450k","state":"CANCELED"},{"name":"600k","state":"CANCELED"},{"name":"1000k","state":"CANCELED"},{"name":"1500k","state":"CANCELED"},{"name":"2200k","state":"CANCELED"},{"name":"4000k","state":"FAILED","reason":"Unknown:Indexer failed to process packets : Audio configured in stream but no audio received. Unable to initialize Indexer"}],"captureEngine":"10.249.35.201"}]}}
13KDS,"CAPTURING","resourceMpd":"http://cep.mos.hcvlny.cv.net/live/13KDS/MPD","streams":[{"name":"300k","state":"CAPTURING"},{"name":"625k","state":"CAPTURING"},{"name":"925k","state":"CAPTURING"},{"name":"1200k","state":"CAPTURING"}],"captureEngine":"10.249.35.165"}]}}
WVITH,"CAPTURING","resourceMpd":"http://cep.mos.hcvlny.cv.net/live/WVITH/MPD","streams":[{"name":"450k","state":"CAPTURING"},{"name":"600k","state":"CAPTURING"},{"name":"1000k","state":"CAPTURING"},{"name":"1500k","state":"CAPTURING"},{"name":"2200k","state":"CAPTURING"},{"name":"4000k","state":"CAPTURING"}],"captureEngine":"10.249.35.171"}]}}
WXTVH,"CAPTURING","resourceMpd":"http://cep.mos.hcvlny.cv.net/live/WXTVH/MPD","streams":[{"name":"450k","state":"CAPTURING"},{"name":"600k","state":"CAPTURING"},{"name":"1000k","state":"CAPTURING"},{"name":"1500k","state":"CAPTURING"},{"name":"2200k","state":"CAPTURING"},{"name":"4000k","state":"CAPTURING"}],"captureEngine":"10.249.35.160"}]}}
YESHD-LITCH,"CAPTURING","resourceMpd":"http://cep.mos.hcvlny.cv.net/live/YESHD-LITCH/MPD","streams":[{"name":"450k","state":"CAPTURING"},{"name":"600k","state":"CAPTURING"},{"name":"1000k","state":"CAPTURING"},{"name":"1500k","state":"CAPTURING"},{"name":"2200k","state":"CAPTURING"},{"name":"4000k","state":"CAPTURING"}],"captureEngine":"10.249.35.175"}]}}
WPXNH,"CAPTURING","resourceMpd":"http://cep.mos.hcvlny.cv.net/live/WPXNH/MPD","streams":[{"name":"450k","state":"CAPTURING"},{"name":"600k","state":"CAPTURING"},{"name":"1000k","state":"CAPTURING"},{"name":"1500k","state":"CAPTURING"},{"name":"2200k","state":"CAPTURING"},{"name":"4000k","state":"CAPTURING"}],"captureEngine":"10.249.35.182"}]}}
WTXFH,"CAPTURING","resourceMpd":"http://cep.mos.hcvlny.cv.net/live/WTXFH/MPD","streams":[{"name":"450k","state":"CAPTURING"},{"name":"600k","state":"CAPTURING"},{"name":"1000k","state":"CAPTURING"},{"name":"1500k","state":"CAPTURING"},{"name":"2200k","state":"CAPTURING"},{"name":"4000k","state":"CAPTURING"}],"captureEngine":"10.249.35.159"}]}}
WUVNH,"CAPTURING","resourceMpd":"http://cep.mos.hcvlny.cv.net/live/WUVNH/MPD","streams":[{"name":"450k","state":"CAPTURING"},{"name":"600k","state":"CAPTURING"},{"name":"1000k","state":"CAPTURING"},{"name":"1500k","state":"CAPTURING"},{"name":"2200k","state":"CAPTURING"},{"name":"4000k","state":"CAPTURING"}],"captureEngine":"10.249.35.161"}]}}
WPIXH-SPLIT,"CAPTURING","resourceMpd":"http://cep.mos.hcvlny.cv.net/live/WPIXH-SPLIT/MPD","streams":[{"name":"450k","state":"CAPTURING"},{"name":"600k","state":"CAPTURING"},{"name":"1500k","state":"CAPTURING"},{"name":"1000k","state":"CAPTURING"},{"name":"2200k","state":"CAPTURING"},{"name":"4000k","state":"CAPTURING"}],"captureEngine":"10.249.35.173"}]}}
WUVPH,"CAPTURING","resourceMpd":"http://cep.mos.hcvlny.cv.net/live/WUVPH/MPD","streams":[{"name":"450k","state":"CAPTURING"},{"name":"600k","state":"CAPTURING"},{"name":"1000k","state":"CAPTURING"},{"name":"1500k","state":"CAPTURING"},{"name":"2200k","state":"CAPTURING"},{"name":"4000k","state":"CAPTURING"}],"captureEngine":"10.249.35.178"}]}}
WNYJH,"FAILED","reason":"IngestFailure:IOM_DATA_TIMEOUT","streams":[{"name":"450k","state":"FAILED","reason":"IngestFailure:IOM_DATA_TIMEOUT"},{"name":"600k","state":"FAILED","reason":"Capture IPC Error"},{"name":"1000k","state":"FAILED","reason":"Capture IPC Error"},{"name":"1500k","state":"FAILED","reason":"Capture IPC Error"},{"name":"2200k","state":"FAILED","reason":"IngestFailure:IOM_DATA_TIMEOUT"},{"name":"4000k","state":"FAILED","reason":"IngestFailure:IOM_DATA_TIMEOUT"}],"captureEngine":"10.249.35.193"}]}}
WNJUH-RAW,"CAPTURING","resourceMpd":"http://cep.mos.hcvlny.cv.net/live/WNJUH-RAW/MPD","streams":[{"name":"450k","state":"CAPTURING"},{"name":"600k","state":"CAPTURING"},{"name":"1000k","state":"CAPTURING"},{"name":"1500k","state":"CAPTURING"},{"name":"2200k","state":"CAPTURING"},{"name":"4000k","state":"CAPTURING"}],"captureEngine":"10.249.35.162"}]}}
WPIXH-RAW,"FAILED","reason":"IngestFailure:IOM_DATA_TIMEOUT","streams":[{"name":"450k","state":"FAILED","reason":"IngestFailure:IOM_DATA_TIMEOUT"},{"name":"600k","state":"CANCELED"},{"name":"1000k","state":"FAILED","reason":"Capture IPC Error"},{"name":"1500k","state":"CANCELED"},{"name":"2200k","state":"FAILED","reason":"IngestFailure:IOM_DATA_TIMEOUT"},{"name":"4000k","state":"CANCELED"}],"captureEngine":"10.249.35.165"}]}}
WPPXH,"FAILED","reason":"Unknown:Indexer failed to process packets : Audio configured in stream but no audio received. Unable to initialize Indexer","streams":[{"name":"450k","state":"CANCELED"},{"name":"600k","state":"CANCELED"},{"name":"1000k","state":"CANCELED"},{"name":"1500k","state":"CANCELED"},{"name":"4000k","state":"FAILED","reason":"Unknown:Indexer failed to process packets : Audio configured in stream but no audio received. Unable to initialize Indexer"},{"name":"2200k","state":"CANCELED"}],"captureEngine":"10.249.35.175"}]}}
WPIXH,"CAPTURING","resourceMpd":"http://cep.mos.hcvlny.cv.net/live/WPIXH/MPD","streams":[{"name":"450k","state":"CAPTURING"},{"name":"600k","state":"CAPTURING"},{"name":"1000k","state":"CAPTURING"},{"name":"1500k","state":"CAPTURING"},{"name":"2200k","state":"CAPTURING"},{"name":"4000k","state":"CAPTURING"}],"captureEngine":"10.249.35.189"}]}}
WNJUH,"CAPTURING","resourceMpd":"http://cep.mos.hcvlny.cv.net/live/WNJUH/MPD","streams":[{"name":"450k","state":"CAPTURING"},{"name":"600k","state":"CAPTURING"},{"name":"1000k","state":"CAPTURING"},{"name":"1500k","state":"CAPTURING"},{"name":"2200k","state":"CAPTURING"},{"name":"4000k","state":"CAPTURING"}],"captureEngine":"10.249.35.184"}]}}
WLNYH-SPLIT,"FAILED","reason":"Capture IPC Error","streams":[{"name":"450k","state":"FAILED","reason":"Capture IPC Error"},{"name":"600k","state":"FAILED","reason":"IngestFailure:IOM_DATA_TIMEOUT"},{"name":"1000k","state":"CANCELED"},{"name":"1500k","state":"CANCELED"},{"name":"2200k","state":"CANCELED"},{"name":"4000k","state":"CANCELED"}],"captureEngine":"10.249.35.160"}]}}
WILDH,"FAILED","reason":"Unknown:Indexer failed to process packets : Audio configured in stream but no audio received. Unable to initialize Indexer","streams":[{"name":"450k","state":"CANCELED"},{"name":"600k","state":"CANCELED"},{"name":"1000k","state":"CANCELED"},{"name":"1500k","state":"CANCELED"},{"name":"2200k","state":"CANCELED"},{"name":"4000k","state":"FAILED","reason":"Unknown:Indexer failed to process packets : Audio configured in stream but no audio received. Unable to initialize Indexer"}],"captureEngine":"10.249.35.186"}]}}
WLNYH-RAW,"FAILED","reason":"IngestFailure:IOM_DATA_TIMEOUT","streams":[{"name":"450k","state":"FAILED","reason":"IngestFailure:IOM_DATA_TIMEOUT"},{"name":"600k","state":"FAILED","reason":"Capture IPC Error"},{"name":"1000k","state":"CANCELED"},{"name":"1500k","state":"CANCELED"},{"name":"2200k","state":"CANCELED"},{"name":"4000k","state":"CANCELED"}],"captureEngine":"10.249.35.177"}]}}
WLNYH,"CAPTURING","resourceMpd":"http://cep.mos.hcvlny.cv.net/live/WLNYH/MPD","streams":[{"name":"450k","state":"CAPTURING"},{"name":"600k","state":"CAPTURING"},{"name":"1000k","state":"CAPTURING"},{"name":"1500k","state":"CAPTURING"},{"name":"2200k","state":"CAPTURING"},{"name":"4000k","state":"CAPTURING"}],"captureEngine":"10.249.35.197"}]}}
WJLPH,"FAILED","reason":"IngestFailure:IOM_DATA_TIMEOUT","streams":[{"name":"450k","state":"FAILED","reason":"IngestFailure:IOM_DATA_TIMEOUT"},{"name":"600k","state":"FAILED","reason":"Capture IPC Error"},{"name":"1000k","state":"CANCELED"},{"name":"1500k","state":"CANCELED"},{"name":"2200k","state":"CANCELED"},{"name":"4000k","state":"CANCELED"}],"captureEngine":"10.249.35.186"}]}}
WFMZH,"FAILED","reason":"IngestFailure:IOM_DATA_TIMEOUT","streams":[{"name":"450k","state":"FAILED","reason":"IngestFailure:IOM_DATA_TIMEOUT"},{"name":"600k","state":"FAILED","reason":"IngestFailure:IOM_DATA_TIMEOUT"},{"name":"1000k","state":"FAILED","reason":"IngestFailure:IOM_DATA_TIMEOUT"},{"name":"1500k","state":"FAILED","reason":"IngestFailure:IOM_DATA_TIMEOUT"},{"name":"2200k","state":"FAILED","reason":"Capture IPC Error"},{"name":"4000k","state":"CANCELED"}],"captureEngine":"10.249.35.180"}]}}
WHPXH,"CAPTURING","resourceMpd":"http://cep.mos.hcvlny.cv.net/live/WHPXH/MPD","streams":[{"name":"450k","state":"CAPTURING"},{"name":"600k","state":"CAPTURING"},{"name":"1000k","state":"CAPTURING"},{"name":"1500k","state":"CAPTURING"},{"name":"2200k","state":"CAPTURING"},{"name":"4000k","state":"CAPTURING"}],"captureEngine":"10.249.35.198"}]}}
WFSB,"FAILED","reason":"IngestFailure:IOM_DATA_TIMEOUT","streams":[{"name":"450k","state":"CANCELED"},{"name":"600k","state":"FAILED","reason":"IngestFailure:IOM_DATA_TIMEOUT"},{"name":"1000k","state":"CANCELED"},{"name":"1500k","state":"CANCELED"},{"name":"2200k","state":"CANCELED"},{"name":"4000k","state":"CANCELED"}],"captureEngine":"10.249.35.170"}]}}
WEHD,"FAILED","reason":"IngestFailure:IOM_DATA_TIMEOUT","streams":[{"name":"450k","state":"FAILED","reason":"IngestFailure:IOM_DATA_TIMEOUT"},{"name":"600k","state":"FAILED","reason":"Capture IPC Error"},{"name":"1000k","state":"CANCELED"},{"name":"1500k","state":"CANCELED"},{"name":"2200k","state":"CANCELED"},{"name":"4000k","state":"CANCELED"}],"captureEngine":"10.249.35.186"}]}}
WGNHD,"FAILED","reason":"Capture IPC Error","streams":[{"name":"450k","state":"FAILED","reason":"Capture IPC Error"},{"name":"600k","state":"FAILED","reason":"Capture IPC Error"},{"name":"1000k","state":"FAILED","reason":"Unknown:Indexer failed to process packets : No Video EBPs found in input Transport stream"},{"name":"1500k","state":"FAILED","reason":"Unknown:Indexer failed to process packets : No Video EBPs found in input Transport stream"},{"name":"2200k","state":"FAILED","reason":"Capture IPC Error"},{"name":"4000k","state":"FAILED","reason":"Capture IPC Error"}],"captureEngine":"10.249.35.157"}]}}
WEDWH,"CAPTURING","resourceMpd":"http://cep.mos.hcvlny.cv.net/live/WEDWH/MPD","streams":[{"name":"450k","state":"CAPTURING"},{"name":"600k","state":"CAPTURING"},{"name":"1000k","state":"CAPTURING"},{"name":"2200k","state":"CAPTURING"},{"name":"1500k","state":"CAPTURING"},{"name":"4000k","state":"CAPTURING"}],"captureEngine":"10.249.35.200"}]}}
WEAHD-WALL-SEA,"FAILED","reason":"IngestFailure:IOM_DATA_TIMEOUT","streams":[{"name":"450k","state":"FAILED","reason":"IngestFailure:IOM_DATA_TIMEOUT"},{"name":"600k","state":"CANCELED"},{"name":"1000k","state":"CANCELED"},{"name":"1500k","state":"CANCELED"},{"name":"2200k","state":"CANCELED"},{"name":"4000k","state":"CANCELED"}],"captureEngine":"10.249.35.159"}]}}
WEAHD-WAPP-DUTCH,"FAILED","reason":"IngestFailure:IOM_DATA_TIMEOUT","streams":[{"name":"450k","state":"CANCELED"},{"name":"600k","state":"FAILED","reason":"IngestFailure:IOM_DATA_TIMEOUT"},{"name":"1000k","state":"CANCELED"},{"name":"1500k","state":"CANCELED"},{"name":"2200k","state":"CANCELED"},{"name":"4000k","state":"CANCELED"}],"captureEngine":"10.249.35.172"}]}}
WEAHD-WC,"FAILED","reason":"IngestFailure:IOM_DATA_TIMEOUT","streams":[{"name":"450k","state":"FAILED","reason":"IngestFailure:IOM_DATA_TIMEOUT"},{"name":"1000k","state":"CANCELED"},{"name":"600k","state":"CANCELED"},{"name":"1500k","state":"CANCELED"},{"name":"4000k","state":"CANCELED"},{"name":"2200k","state":"CANCELED"}],"captureEngine":"10.249.35.164"}]}}
WEAHD-ORANGE,"FAILED","reason":"IngestFailure:IOM_DATA_TIMEOUT","streams":[{"name":"450k","state":"FAILED","reason":"IngestFailure:IOM_DATA_TIMEOUT"},{"name":"600k","state":"CANCELED"},{"name":"1000k","state":"CANCELED"},{"name":"1500k","state":"CANCELED"},{"name":"2200k","state":"CANCELED"},{"name":"4000k","state":"CANCELED"}],"captureEngine":"10.249.35.174"}]}}
WEAHD-ROCKL,"FAILED","reason":"IngestFailure:IOM_DATA_TIMEOUT","streams":[{"name":"450k","state":"FAILED","reason":"IngestFailure:IOM_DATA_TIMEOUT"},{"name":"600k","state":"CANCELED"},{"name":"1000k","state":"CANCELED"},{"name":"1500k","state":"CANCELED"},{"name":"2200k","state":"CANCELED"},{"name":"4000k","state":"CANCELED"}],"captureEngine":"10.249.35.165"}]}}
WEAHD-RARITAN,"FAILED","reason":"Capture IPC Error","streams":[{"name":"450k","state":"FAILED","reason":"Capture IPC Error"},{"name":"600k","state":"FAILED","reason":"IngestFailure:IOM_DATA_TIMEOUT"},{"name":"1000k","state":"FAILED","reason":"IngestFailure:IOM_DATA_TIMEOUT"},{"name":"1500k","state":"CANCELED"},{"name":"2200k","state":"CANCELED"},{"name":"4000k","state":"CANCELED"}],"captureEngine":"10.249.35.156"}]}}
WEAHD-OAKE-NJNE,"CAPTURING","resourceMpd":"http://cep.mos.hcvlny.cv.net/live/WEAHD-OAKE-NJNE/MPD","streams":[{"name":"450k","state":"CAPTURING"},{"name":"600k","state":"CAPTURING"},{"name":"1000k","state":"CAPTURING"},{"name":"1500k","state":"CAPTURING"},{"name":"2200k","state":"CAPTURING"},{"name":"4000k","state":"CAPTURING"}],"captureEngine":"10.249.35.181"}]}}
WEAHD-NOR-STAM,"CAPTURING","resourceMpd":"http://cep.mos.hcvlny.cv.net/live/WEAHD-NOR-STAM/MPD","streams":[{"name":"450k","state":"CAPTURING"},{"name":"600k","state":"CAPTURING"},{"name":"1000k","state":"CAPTURING"},{"name":"1500k","state":"CAPTURING"},{"name":"2200k","state":"CAPTURING"},{"name":"4000k","state":"CAPTURING"}],"captureEngine":"10.249.35.169"}]}}
WEAHD-NYC,"CAPTURING","resourceMpd":"http://cep.mos.hcvlny.cv.net/live/WEAHD-NYC/MPD","streams":[{"name":"450k","state":"CAPTURING"},{"name":"600k","state":"CAPTURING"},{"name":"1000k","state":"CAPTURING"},{"name":"1500k","state":"CAPTURING"},{"name":"2200k","state":"CAPTURING"},{"name":"4000k","state":"CAPTURING"}],"captureEngine":"10.249.35.166"}]}}
WEAHD-MATAM-GREENV,"CAPTURING","resourceMpd":"http://cep.mos.hcvlny.cv.net/live/WEAHD-MATAM-GREENV/MPD","streams":[{"name":"450k","state":"CAPTURING"},{"name":"600k","state":"CAPTURING"},{"name":"1000k","state":"CAPTURING"},{"name":"1500k","state":"CAPTURING"},{"name":"2200k","state":"CAPTURING"},{"name":"4000k","state":"CAPTURING"}],"captureEngine":"10.249.35.185"}]}}
WEAHD-HAUP-RIVERH,"FAILED","reason":"Unknown:Indexer failed to process packets : No PMT in the input Transport stream","streams":[{"name":"450k","state":"CANCELED"},{"name":"600k","state":"CANCELED"},{"name":"1000k","state":"CANCELED"},{"name":"2200k","state":"CANCELED"},{"name":"1500k","state":"CANCELED"},{"name":"4000k","state":"FAILED","reason":"Unknown:Indexer failed to process packets : No PMT in the input Transport stream"}],"captureEngine":"10.249.35.188"}]}}
WEAHD-MORRIS-OAK,"CAPTURING","resourceMpd":"http://cep.mos.hcvlny.cv.net/live/WEAHD-MORRIS-OAK/MPD","streams":[{"name":"450k","state":"CAPTURING"},{"name":"600k","state":"CAPTURING"},{"name":"1000k","state":"CAPTURING"},{"name":"1500k","state":"CAPTURING"},{"name":"2200k","state":"CAPTURING"},{"name":"4000k","state":"CAPTURING"}],"captureEngine":"10.249.35.181"}]}}
WEAHD-LITCH,"CAPTURING","resourceMpd":"http://cep.mos.hcvlny.cv.net/live/WEAHD-LITCH/MPD","streams":[{"name":"600k","state":"CAPTURING"},{"name":"450k","state":"CAPTURING"},{"name":"1000k","state":"CAPTURING"},{"name":"1500k","state":"CAPTURING"},{"name":"2200k","state":"CAPTURING"},{"name":"4000k","state":"CAPTURING"}],"captureEngine":"10.249.35.194"}]}}
WEAHD-WOODBURY,"CAPTURING","resourceMpd":"http://cep.mos.hcvlny.cv.net/live/WEAHD-WOODBURY/MPD","streams":[{"name":"450k","state":"CAPTURING"},{"name":"600k","state":"CAPTURING"},{"name":"1000k","state":"CAPTURING"},{"name":"1500k","state":"CAPTURING"},{"name":"2200k","state":"CAPTURING"},{"name":"4000k","state":"CAPTURING"}],"captureEngine":"10.249.35.189"}]}}
WEAHD-HAMIL,"CAPTURING","resourceMpd":"http://cep.mos.hcvlny.cv.net/live/WEAHD-HAMIL/MPD","streams":[{"name":"450k","state":"CAPTURING"},{"name":"600k","state":"CAPTURING"},{"name":"1000k","state":"CAPTURING"},{"name":"1500k","state":"CAPTURING"},{"name":"2200k","state":"CAPTURING"},{"name":"4000k","state":"CAPTURING"}],"captureEngine":"10.249.35.182"}]}}
WEAHD-JACKSON,"CAPTURING","resourceMpd":"http://cep.mos.hcvlny.cv.net/live/WEAHD-JACKSON/MPD","streams":[{"name":"600k","state":"CAPTURING"},{"name":"450k","state":"CAPTURING"},{"name":"1000k","state":"CAPTURING"},{"name":"2200k","state":"CAPTURING"},{"name":"1500k","state":"CAPTURING"},{"name":"4000k","state":"CAPTURING"}],"captureEngine":"10.249.35.163"}]}}
WEAHD-BROOKH,"CAPTURING","resourceMpd":"http://cep.mos.hcvlny.cv.net/live/WEAHD-BROOKH/MPD","streams":[{"name":"450k","state":"CAPTURING"},{"name":"600k","state":"CAPTURING"},{"name":"1000k","state":"CAPTURING"},{"name":"1500k","state":"CAPTURING"},{"name":"2200k","state":"CAPTURING"},{"name":"4000k","state":"CAPTURING"}],"captureEngine":"10.249.35.158"}]}}
WEAHD-BPORT-MILF,"CAPTURING","resourceMpd":"http://cep.mos.hcvlny.cv.net/live/WEAHD-BPORT-MILF/MPD","streams":[{"name":"450k","state":"CAPTURING"},{"name":"600k","state":"CAPTURING"},{"name":"1000k","state":"CAPTURING"},{"name":"1500k","state":"CAPTURING"},{"name":"2200k","state":"CAPTURING"},{"name":"4000k","state":"CAPTURING"}],"captureEngine":"10.249.35.199"}]}}
VH1HD,"FAILED","reason":"Unknown:Indexer failed to process packets : Audio configured in stream but no audio received. Unable to initialize Indexer","streams":[{"name":"450k","state":"CANCELED"},{"name":"600k","state":"CANCELED"},{"name":"1000k","state":"CANCELED"},{"name":"1500k","state":"CANCELED"},{"name":"2200k","state":"CANCELED"},{"name":"4000k","state":"FAILED","reason":"Unknown:Indexer failed to process packets : Audio configured in stream but no audio received. Unable to initialize Indexer"}],"captureEngine":"10.249.35.167"}]}}
UNIHD,"CAPTURING","resourceMpd":"http://cep.mos.hcvlny.cv.net/live/UNIHD/MPD","streams":[{"name":"450k","state":"CAPTURING"},{"name":"600k","state":"CAPTURING"},{"name":"1000k","state":"CAPTURING"},{"name":"1500k","state":"CAPTURING"},{"name":"2200k","state":"CAPTURING"},{"name":"4000k","state":"CAPTURING"}],"captureEngine":"10.249.35.166"}]}}
VELHD,"FAILED","reason":"Unknown:Indexer failed to process packets : No Video EBPs found in input Transport stream","streams":[{"name":"450k","state":"FAILED","reason":"Unknown:Indexer failed to process packets : No Video EBPs found in input Transport stream"},{"name":"600k","state":"FAILED","reason":"Capture IPC Error"},{"name":"1000k","state":"FAILED","reason":"Capture IPC Error"},{"name":"1500k","state":"CANCELED"},{"name":"2200k","state":"CANCELED"},{"name":"4000k","state":"CANCELED"}],"captureEngine":"10.249.35.199"}]}}
UNDHD,"FAILED","reason":"Unknown:Indexer failed to process packets : Audio configured in stream but no audio received. Unable to initialize Indexer","streams":[{"name":"450k","state":"CANCELED"},{"name":"600k","state":"CANCELED"},{"name":"1000k","state":"CANCELED"},{"name":"1500k","state":"CANCELED"},{"name":"2200k","state":"CANCELED"},{"name":"4000k","state":"FAILED","reason":"Unknown:Indexer failed to process packets : Audio configured in stream but no audio received. Unable to initialize Indexer"}],"captureEngine":"10.249.35.161"}]}}
USAHD,"FAILED","reason":"Unknown:Indexer failed to process packets : Audio configured in stream but no audio received. Unable to initialize Indexer","streams":[{"name":"450k","state":"CANCELED"},{"name":"600k","state":"CANCELED"},{"name":"1000k","state":"CANCELED"},{"name":"1500k","state":"CANCELED"},{"name":"2200k","state":"CANCELED"},{"name":"4000k","state":"FAILED","reason":"Unknown:Indexer failed to process packets : Audio configured in stream but no audio received. Unable to initialize Indexer"}],"captureEngine":"10.249.35.197"}]}}
TRVLH,"FAILED","reason":"Unknown:Indexer failed to process packets : Audio configured in stream but no audio received. Unable to initialize Indexer","streams":[{"name":"450k","state":"CANCELED"},{"name":"600k","state":"CANCELED"},{"name":"1000k","state":"CANCELED"},{"name":"1500k","state":"CANCELED"},{"name":"2200k","state":"CANCELED"},{"name":"4000k","state":"FAILED","reason":"Unknown:Indexer failed to process packets : Audio configured in stream but no audio received. Unable to initialize Indexer"}],"captureEngine":"10.249.35.181"}]}}
TVLDH,"CAPTURING","resourceMpd":"http://cep.mos.hcvlny.cv.net/live/TVLDH/MPD","streams":[{"name":"450k","state":"CAPTURING"},{"name":"600k","state":"CAPTURING"},{"name":"1000k","state":"CAPTURING"},{"name":"1500k","state":"CAPTURING"},{"name":"2200k","state":"CAPTURING"},{"name":"4000k","state":"CAPTURING"}],"captureEngine":"10.249.35.165"}]}}
UHD,"FAILED","reason":"Unknown:Indexer failed to process packets : Audio configured in stream but no audio received. Unable to initialize Indexer","streams":[{"name":"450k","state":"CANCELED"},{"name":"600k","state":"CANCELED"},{"name":"1000k","state":"CANCELED"},{"name":"1500k","state":"CANCELED"},{"name":"2200k","state":"CANCELED"},{"name":"4000k","state":"FAILED","reason":"Unknown:Indexer failed to process packets : Audio configured in stream but no audio received. Unable to initialize Indexer"}],"captureEngine":"10.249.35.185"}]}}
truHD,"CAPTURING","resourceMpd":"http://cep.mos.hcvlny.cv.net/live/truHD/MPD","streams":[{"name":"450k","state":"CAPTURING"},{"name":"600k","state":"CAPTURING"},{"name":"1000k","state":"CAPTURING"},{"name":"1500k","state":"CAPTURING"},{"name":"2200k","state":"CAPTURING"},{"name":"4000k","state":"CAPTURING"}],"captureEngine":"10.249.35.197"}]}}
TNTHD,"FAILED","reason":"Unknown:Indexer failed to process packets : Audio configured in stream but no audio received. Unable to initialize Indexer","streams":[{"name":"450k","state":"CANCELED"},{"name":"600k","state":"CANCELED"},{"name":"1000k","state":"CANCELED"},{"name":"1500k","state":"CANCELED"},{"name":"2200k","state":"CANCELED"},{"name":"4000k","state":"FAILED","reason":"Unknown:Indexer failed to process packets : Audio configured in stream but no audio received. Unable to initialize Indexer"}],"captureEngine":"10.249.35.195"}]}}
TMxwH,"FAILED","reason":"Unknown:Indexer failed to process packets : Audio configured in stream but no audio received. Unable to initialize Indexer","streams":[{"name":"450k","state":"CANCELED"},{"name":"600k","state":"CANCELED"},{"name":"1000k","state":"CANCELED"},{"name":"1500k","state":"CANCELED"},{"name":"2200k","state":"CANCELED"},{"name":"4000k","state":"FAILED","reason":"Unknown:Indexer failed to process packets : Audio configured in stream but no audio received. Unable to initialize Indexer"}],"captureEngine":"10.249.35.171"}]}}
TOONH,"FAILED","reason":"Unknown:Indexer failed to process packets : Audio configured in stream but no audio received. Unable to initialize Indexer","streams":[{"name":"450k","state":"CANCELED"},{"name":"600k","state":"CANCELED"},{"name":"1000k","state":"CANCELED"},{"name":"1500k","state":"CANCELED"},{"name":"2200k","state":"CANCELED"},{"name":"4000k","state":"FAILED","reason":"Unknown:Indexer failed to process packets : Audio configured in stream but no audio received. Unable to initialize Indexer"}],"captureEngine":"10.249.35.196"}]}}
TMCxH,"FAILED","reason":"IngestFailure:IOM_DATA_TIMEOUT","streams":[{"name":"450k","state":"FAILED","reason":"IngestFailure:IOM_DATA_TIMEOUT"},{"name":"600k","state":"FAILED","reason":"Capture IPC Error"},{"name":"1000k","state":"FAILED","reason":"IngestFailure:IOM_DATA_TIMEOUT"},{"name":"1500k","state":"CANCELED"},{"name":"2200k","state":"CANCELED"},{"name":"4000k","state":"CANCELED"}],"captureEngine":"10.249.35.187"}]}}
TLCHD,"FAILED","reason":"Unknown:Indexer failed to process packets : Audio configured in stream but no audio received. Unable to initialize Indexer","streams":[{"name":"450k","state":"CANCELED"},{"name":"600k","state":"CANCELED"},{"name":"1000k","state":"CANCELED"},{"name":"1500k","state":"CANCELED"},{"name":"2200k","state":"CANCELED"},{"name":"4000k","state":"FAILED","reason":"Unknown:Indexer failed to process packets : Audio configured in stream but no audio received. Unable to initialize Indexer"}],"captureEngine":"10.249.35.180"}]}}
DAYST,"FAILED","reason":"IngestFailure:IOM_DATA_TIMEOUT","streams":[{"name":"300k","state":"FAILED","reason":"IngestFailure:IOM_DATA_TIMEOUT"},{"name":"625k","state":"CANCELED"},{"name":"925k","state":"CANCELED"},{"name":"1200k","state":"CANCELED"}],"captureEngine":"10.249.35.157"}]}}
TMCwH,"FAILED","reason":"Unknown:Indexer failed to process packets : Audio configured in stream but no audio received. Unable to initialize Indexer","streams":[{"name":"450k","state":"CANCELED"},{"name":"600k","state":"CANCELED"},{"name":"1000k","state":"CANCELED"},{"name":"1500k","state":"CANCELED"},{"name":"2200k","state":"CANCELED"},{"name":"4000k","state":"FAILED","reason":"Unknown:Indexer failed to process packets : Audio configured in stream but no audio received. Unable to initialize Indexer"}],"captureEngine":"10.249.35.189"}]}}
TMCHD,"CAPTURING","resourceMpd":"http://cep.mos.hcvlny.cv.net/live/TMCHD/MPD","streams":[{"name":"450k","state":"CAPTURING"},{"name":"600k","state":"CAPTURING"},{"name":"1000k","state":"CAPTURING"},{"name":"1500k","state":"CAPTURING"},{"name":"2200k","state":"CAPTURING"},{"name":"4000k","state":"CAPTURING"}],"captureEngine":"10.249.35.161"}]}}
DECAD-NY,"CAPTURING","resourceMpd":"http://cep.mos.hcvlny.cv.net/live/DECAD-NY/MPD","streams":[{"name":"300k","state":"CAPTURING"},{"name":"625k","state":"CAPTURING"},{"name":"925k","state":"CAPTURING"},{"name":"1200k","state":"CAPTURING"}],"captureEngine":"10.249.35.177"}]}}
BETS,"CAPTURING","resourceMpd":"http://cep.mos.hcvlny.cv.net/live/BETS/MPD","streams":[{"name":"300k","state":"CAPTURING"},{"name":"625k","state":"CAPTURING"},{"name":"925k","state":"CAPTURING"},{"name":"1200k","state":"CAPTURING"}],"captureEngine":"10.249.35.187"}]}}
TMAXH,"FAILED","reason":"Unknown:Indexer failed to process packets : Audio configured in stream but no audio received. Unable to initialize Indexer","streams":[{"name":"450k","state":"CANCELED"},{"name":"600k","state":"CANCELED"},{"name":"1000k","state":"CANCELED"},{"name":"1500k","state":"CANCELED"},{"name":"2200k","state":"CANCELED"},{"name":"4000k","state":"FAILED","reason":"Unknown:Indexer failed to process packets : Audio configured in stream but no audio received. Unable to initialize Indexer"}],"captureEngine":"10.249.35.201"}]}}
ATRES,"CAPTURING","resourceMpd":"http://cep.mos.hcvlny.cv.net/live/ATRES/MPD","streams":[{"name":"300k","state":"CAPTURING"},{"name":"625k","state":"CAPTURING"},{"name":"1200k","state":"CAPTURING"},{"name":"925k","state":"CAPTURING"}],"captureEngine":"10.249.35.178"}]}}
BBCW,"CAPTURING","resourceMpd":"http://cep.mos.hcvlny.cv.net/live/BBCW/MPD","streams":[{"name":"300k","state":"CAPTURING"},{"name":"625k","state":"CAPTURING"},{"name":"925k","state":"CAPTURING"},{"name":"1200k","state":"CAPTURING"}],"captureEngine":"10.249.35.176"}]}}
TBSHD-LITCH-MILF,"FAILED","reason":"Unknown:Indexer failed to process packets : No Video EBPs found in input Transport stream","streams":[{"name":"450k","state":"FAILED","reason":"Unknown:Indexer failed to process packets : No Video EBPs found in input Transport stream"},{"name":"600k","state":"CANCELED"},{"name":"1000k","state":"FAILED","reason":"Capture IPC Error"},{"name":"1500k","state":"CANCELED"},{"name":"2200k","state":"CANCELED"},{"name":"4000k","state":"CANCELED"}],"captureEngine":"10.249.35.161"}]}}
TCMHD,"FAILED","reason":"Unknown:Indexer failed to process packets : Audio configured in stream but no audio received. Unable to initialize Indexer","streams":[{"name":"450k","state":"CANCELED"},{"name":"600k","state":"CANCELED"},{"name":"1000k","state":"CANCELED"},{"name":"1500k","state":"CANCELED"},{"name":"2200k","state":"CANCELED"},{"name":"4000k","state":"FAILED","reason":"Unknown:Indexer failed to process packets : Audio configured in stream but no audio received. Unable to initialize Indexer"}],"captureEngine":"10.249.35.186"}]}}
TBSHD-NJS,"FAILED","reason":"Unknown:Indexer failed to process packets : Audio configured in stream but no audio received. Unable to initialize Indexer","streams":[{"name":"450k","state":"CANCELED"},{"name":"600k","state":"CANCELED"},{"name":"1000k","state":"CANCELED"},{"name":"1500k","state":"CANCELED"},{"name":"2200k","state":"CANCELED"},{"name":"4000k","state":"FAILED","reason":"Unknown:Indexer failed to process packets : Audio configured in stream but no audio received. Unable to initialize Indexer"}],"captureEngine":"10.249.35.175"}]}}
TBSHD,"FAILED","reason":"Unknown:Indexer failed to process packets : Audio configured in stream but no audio received. Unable to initialize Indexer","streams":[{"name":"450k","state":"CANCELED"},{"name":"600k","state":"CANCELED"},{"name":"1000k","state":"CANCELED"},{"name":"1500k","state":"CANCELED"},{"name":"2200k","state":"CANCELED"},{"name":"4000k","state":"FAILED","reason":"Unknown:Indexer failed to process packets : Audio configured in stream but no audio received. Unable to initialize Indexer"}],"captureEngine":"10.249.35.196"}]}}
TBSHD-PIKE,"FAILED","reason":"Unknown:Indexer failed to process packets : Audio configured in stream but no audio received. Unable to initialize Indexer","streams":[{"name":"450k","state":"CANCELED"},{"name":"600k","state":"CANCELED"},{"name":"1000k","state":"CANCELED"},{"name":"1500k","state":"CANCELED"},{"name":"2200k","state":"CANCELED"},{"name":"4000k","state":"FAILED","reason":"Unknown:Indexer failed to process packets : Audio configured in stream but no audio received. Unable to initialize Indexer"}],"captureEngine":"10.249.35.164"}]}}
SyfyH,"FAILED","reason":"IngestFailure:IOM_DATA_TIMEOUT","streams":[{"name":"600k","state":"FAILED","reason":"IngestFailure:IOM_DATA_TIMEOUT"},{"name":"450k","state":"FAILED","reason":"IngestFailure:IOM_DATA_TIMEOUT"},{"name":"1000k","state":"CANCELED"},{"name":"2200k","state":"CANCELED"},{"name":"1500k","state":"CANCELED"},{"name":"4000k","state":"CANCELED"}],"captureEngine":"10.249.35.191"}]}}
STZwH,"CAPTURING","resourceMpd":"http://cep.mos.hcvlny.cv.net/live/STZwH/MPD","streams":[{"name":"450k","state":"CAPTURING"},{"name":"600k","state":"CAPTURING"},{"name":"1000k","state":"CAPTURING"},{"name":"1500k","state":"CAPTURING"},{"name":"2200k","state":"CAPTURING"},{"name":"4000k","state":"CAPTURING"}],"captureEngine":"10.249.35.192"}]}}
SUNHD,"CAPTURING","resourceMpd":"http://cep.mos.hcvlny.cv.net/live/SUNHD/MPD","streams":[{"name":"450k","state":"CAPTURING"},{"name":"600k","state":"CAPTURING"},{"name":"1000k","state":"CAPTURING"},{"name":"1500k","state":"CAPTURING"},{"name":"2200k","state":"CAPTURING"},{"name":"4000k","state":"CAPTURING"}],"captureEngine":"10.249.35.172"}]}}
STEHD,"FAILED","reason":"IngestFailure:IOM_DATA_TIMEOUT","streams":[{"name":"450k","state":"FAILED","reason":"IngestFailure:IOM_DATA_TIMEOUT"},{"name":"600k","state":"FAILED","reason":"Capture IPC Error"},{"name":"1000k","state":"FAILED","reason":"Capture IPC Error"},{"name":"1500k","state":"CANCELED"},{"name":"2200k","state":"FAILED","reason":"Capture IPC Error"},{"name":"4000k","state":"CANCELED"}],"captureEngine":"10.249.35.197"}]}}
STZHD,"FAILED","reason":"IngestFailure:IOM_DATA_TIMEOUT","streams":[{"name":"450k","state":"FAILED","reason":"IngestFailure:IOM_DATA_TIMEOUT"},{"name":"600k","state":"FAILED","reason":"Capture IPC Error"},{"name":"1000k","state":"CANCELED"},{"name":"1500k","state":"FAILED","reason":"IngestFailure:IOM_DATA_TIMEOUT"},{"name":"2200k","state":"CANCELED"},{"name":"4000k","state":"CANCELED"}],"captureEngine":"10.249.35.162"}]}}
STZEH,"FAILED","reason":"IngestFailure:IOM_DATA_TIMEOUT","streams":[{"name":"450k","state":"CANCELED"},{"name":"600k","state":"FAILED","reason":"IngestFailure:IOM_DATA_TIMEOUT"},{"name":"1000k","state":"CANCELED"},{"name":"1500k","state":"CANCELED"},{"name":"2200k","state":"CANCELED"},{"name":"4000k","state":"CANCELED"}],"captureEngine":"10.249.35.187"}]}}
SPTH2,"FAILED","reason":"IngestFailure:IOM_DATA_TIMEOUT","streams":[{"name":"450k","state":"FAILED","reason":"IngestFailure:IOM_DATA_TIMEOUT"},{"name":"600k","state":"CANCELED"},{"name":"1000k","state":"CANCELED"},{"name":"1500k","state":"CANCELED"},{"name":"2200k","state":"CANCELED"},{"name":"4000k","state":"CANCELED"}],"captureEngine":"10.249.35.173"}]}}
STZCH,"FAILED","reason":"IngestFailure:IOM_DATA_TIMEOUT","streams":[{"name":"450k","state":"FAILED","reason":"IngestFailure:IOM_DATA_TIMEOUT"},{"name":"600k","state":"CANCELED"},{"name":"1000k","state":"CANCELED"},{"name":"1500k","state":"CANCELED"},{"name":"2200k","state":"CANCELED"},{"name":"4000k","state":"CANCELED"}],"captureEngine":"10.249.35.162"}]}}
SPTH2-HAMIL,"FAILED","reason":"IngestFailure:IOM_DATA_TIMEOUT","streams":[{"name":"450k","state":"FAILED","reason":"IngestFailure:IOM_DATA_TIMEOUT"},{"name":"600k","state":"FAILED","reason":"Capture IPC Error"},{"name":"1000k","state":"CANCELED"},{"name":"1500k","state":"CANCELED"},{"name":"2200k","state":"FAILED","reason":"IngestFailure:IOM_DATA_TIMEOUT"},{"name":"4000k","state":"CANCELED"}],"captureEngine":"10.249.35.192"}]}}
STKHD,"CAPTURING","resourceMpd":"http://cep.mos.hcvlny.cv.net/live/STKHD/MPD","streams":[{"name":"450k","state":"CAPTURING"},{"name":"600k","state":"CAPTURING"},{"name":"1000k","state":"CAPTURING"},{"name":"1500k","state":"CAPTURING"},{"name":"2200k","state":"CAPTURING"},{"name":"4000k","state":"CAPTURING"}],"captureEngine":"10.249.35.190"}]}}
SPTH2-LITCH-MILF,"FAILED","reason":"IngestFailure:IOM_DATA_TIMEOUT","streams":[{"name":"450k","state":"FAILED","reason":"IngestFailure:IOM_DATA_TIMEOUT"},{"name":"600k","state":"FAILED","reason":"Capture IPC Error"},{"name":"1000k","state":"FAILED","reason":"Capture IPC Error"},{"name":"1500k","state":"FAILED","reason":"Capture IPC Error"},{"name":"2200k","state":"CANCELED"},{"name":"4000k","state":"FAILED","reason":"Capture IPC Error"}],"captureEngine":"10.249.35.193"}]}}
SPTH1,"FAILED","reason":"IngestFailure:IOM_DATA_TIMEOUT","streams":[{"name":"450k","state":"FAILED","reason":"Capture IPC Error"},{"name":"600k","state":"FAILED","reason":"IngestFailure:IOM_DATA_TIMEOUT"},{"name":"1000k","state":"FAILED","reason":"Capture IPC Error"},{"name":"1500k","state":"FAILED","reason":"Capture IPC Error"},{"name":"2200k","state":"CANCELED"},{"name":"4000k","state":"CANCELED"}],"captureEngine":"10.249.35.187"}]}}
SPT9H-NJS,"CAPTURING","resourceMpd":"http://cep.mos.hcvlny.cv.net/live/SPT9H-NJS/MPD","streams":[{"name":"450k","state":"CAPTURING"},{"name":"600k","state":"CAPTURING"},{"name":"1000k","state":"CAPTURING"},{"name":"1500k","state":"CAPTURING"},{"name":"2200k","state":"CAPTURING"},{"name":"4000k","state":"CAPTURING"}],"captureEngine":"10.249.35.180"}]}}
SPT8H-NJS,"CAPTURING","resourceMpd":"http://cep.mos.hcvlny.cv.net/live/SPT8H-NJS/MPD","streams":[{"name":"450k","state":"CAPTURING"},{"name":"600k","state":"CAPTURING"},{"name":"1000k","state":"CAPTURING"},{"name":"4000k","state":"CAPTURING"},{"name":"2200k","state":"CAPTURING"},{"name":"1500k","state":"CAPTURING"}],"captureEngine":"10.249.35.160"}]}}
SPTH1-LITCH,"CAPTURING","resourceMpd":"http://cep.mos.hcvlny.cv.net/live/SPTH1-LITCH/MPD","streams":[{"name":"450k","state":"CAPTURING"},{"name":"600k","state":"CAPTURING"},{"name":"1000k","state":"CAPTURING"},{"name":"1500k","state":"CAPTURING"},{"name":"2200k","state":"CAPTURING"},{"name":"4000k","state":"CAPTURING"}],"captureEngine":"10.249.35.173"}]}}
SPT9H,"CAPTURING","resourceMpd":"http://cep.mos.hcvlny.cv.net/live/SPT9H/MPD","streams":[{"name":"450k","state":"CAPTURING"},{"name":"600k","state":"CAPTURING"},{"name":"1000k","state":"CAPTURING"},{"name":"1500k","state":"CAPTURING"},{"name":"2200k","state":"CAPTURING"},{"name":"4000k","state":"CAPTURING"}],"captureEngine":"10.249.35.179"}]}}
SPT8H,"FAILED","reason":"IngestFailure:IOM_DATA_TIMEOUT","streams":[{"name":"600k","state":"FAILED","reason":"IngestFailure:IOM_DATA_TIMEOUT"},{"name":"4000k","state":"FAILED","reason":"IngestFailure:IOM_DATA_TIMEOUT"},{"name":"1000k","state":"CANCELED"},{"name":"450k","state":"CANCELED"},{"name":"1500k","state":"FAILED","reason":"Capture IPC Error"},{"name":"2200k","state":"CANCELED"}],"captureEngine":"10.249.35.156"}]}}
SPT7H-NJS,"CAPTURING","resourceMpd":"http://cep.mos.hcvlny.cv.net/live/SPT7H-NJS/MPD","streams":[{"name":"450k","state":"CAPTURING"},{"name":"600k","state":"CAPTURING"},{"name":"1000k","state":"CAPTURING"},{"name":"1500k","state":"CAPTURING"},{"name":"2200k","state":"CAPTURING"},{"name":"4000k","state":"CAPTURING"}],"captureEngine":"10.249.35.175"}]}}
SPT7H,"CAPTURING","resourceMpd":"http://cep.mos.hcvlny.cv.net/live/SPT7H/MPD","streams":[{"name":"450k","state":"CAPTURING"},{"name":"600k","state":"CAPTURING"},{"name":"1000k","state":"CAPTURING"},{"name":"1500k","state":"CAPTURING"},{"name":"2200k","state":"CAPTURING"},{"name":"4000k","state":"CAPTURING"}],"captureEngine":"10.249.35.178"}]}}
SPT6H-NJS,"CAPTURING","resourceMpd":"http://cep.mos.hcvlny.cv.net/live/SPT6H-NJS/MPD","streams":[{"name":"450k","state":"CAPTURING"},{"name":"600k","state":"CAPTURING"},{"name":"1500k","state":"CAPTURING"},{"name":"1000k","state":"CAPTURING"},{"name":"2200k","state":"CAPTURING"},{"name":"4000k","state":"CAPTURING"}],"captureEngine":"10.249.35.156"}]}}
SPT6H,"CAPTURING","resourceMpd":"http://cep.mos.hcvlny.cv.net/live/SPT6H/MPD","streams":[{"name":"600k","state":"CAPTURING"},{"name":"1000k","state":"CAPTURING"},{"name":"1500k","state":"CAPTURING"},{"name":"450k","state":"CAPTURING"},{"name":"2200k","state":"CAPTURING"},{"name":"4000k","state":"CAPTURING"}],"captureEngine":"10.249.35.169"}]}}
SPT5H-NJS,"CAPTURING","resourceMpd":"http://cep.mos.hcvlny.cv.net/live/SPT5H-NJS/MPD","streams":[{"name":"450k","state":"CAPTURING"},{"name":"600k","state":"CAPTURING"},{"name":"1000k","state":"CAPTURING"},{"name":"1500k","state":"CAPTURING"},{"name":"2200k","state":"CAPTURING"},{"name":"4000k","state":"CAPTURING"}],"captureEngine":"10.249.35.176"}]}}
SPT4H-NJS,"FAILED","reason":"IngestFailure:IOM_DATA_TIMEOUT","streams":[{"name":"450k","state":"CANCELED"},{"name":"600k","state":"FAILED","reason":"IngestFailure:IOM_DATA_TIMEOUT"},{"name":"1000k","state":"CANCELED"},{"name":"1500k","state":"CANCELED"},{"name":"2200k","state":"CANCELED"},{"name":"4000k","state":"CANCELED"}],"captureEngine":"10.249.35.188"}]}}
SPT5H,"CAPTURING","resourceMpd":"http://cep.mos.hcvlny.cv.net/live/SPT5H/MPD","streams":[{"name":"450k","state":"CAPTURING"},{"name":"600k","state":"CAPTURING"},{"name":"1000k","state":"CAPTURING"},{"name":"1500k","state":"CAPTURING"},{"name":"2200k","state":"CAPTURING"},{"name":"4000k","state":"CAPTURING"}],"captureEngine":"10.249.35.196"}]}}
SPT3H,"CAPTURING","resourceMpd":"http://cep.mos.hcvlny.cv.net/live/SPT3H/MPD","streams":[{"name":"450k","state":"CAPTURING"},{"name":"600k","state":"CAPTURING"},{"name":"1000k","state":"CAPTURING"},{"name":"1500k","state":"CAPTURING"},{"name":"2200k","state":"CAPTURING"},{"name":"4000k","state":"CAPTURING"}],"captureEngine":"10.249.35.175"}]}}
SPT3H-NJS,"CAPTURING","resourceMpd":"http://cep.mos.hcvlny.cv.net/live/SPT3H-NJS/MPD","streams":[{"name":"450k","state":"CAPTURING"},{"name":"600k","state":"CAPTURING"},{"name":"1000k","state":"CAPTURING"},{"name":"1500k","state":"CAPTURING"},{"name":"2200k","state":"CAPTURING"},{"name":"4000k","state":"CAPTURING"}],"captureEngine":"10.249.35.163"}]}}
SPT4H,"CAPTURING","resourceMpd":"http://cep.mos.hcvlny.cv.net/live/SPT4H/MPD","streams":[{"name":"450k","state":"CAPTURING"},{"name":"600k","state":"CAPTURING"},{"name":"1000k","state":"CAPTURING"},{"name":"1500k","state":"CAPTURING"},{"name":"2200k","state":"CAPTURING"},{"name":"4000k","state":"CAPTURING"}],"captureEngine":"10.249.35.180"}]}}
SPT2H-NJS,"CAPTURING","resourceMpd":"http://cep.mos.hcvlny.cv.net/live/SPT2H-NJS/MPD","streams":[{"name":"450k","state":"CAPTURING"},{"name":"600k","state":"CAPTURING"},{"name":"1000k","state":"CAPTURING"},{"name":"1500k","state":"CAPTURING"},{"name":"2200k","state":"CAPTURING"},{"name":"4000k","state":"CAPTURING"}],"captureEngine":"10.249.35.190"}]}}
SPT2H,"CAPTURING","resourceMpd":"http://cep.mos.hcvlny.cv.net/live/SPT2H/MPD","streams":[{"name":"450k","state":"CAPTURING"},{"name":"600k","state":"CAPTURING"},{"name":"1000k","state":"CAPTURING"},{"name":"1500k","state":"CAPTURING"},{"name":"2200k","state":"CAPTURING"},{"name":"4000k","state":"CAPTURING"}],"captureEngine":"10.249.35.172"}]}}
SPT1H-NJS,"CAPTURING","resourceMpd":"http://cep.mos.hcvlny.cv.net/live/SPT1H-NJS/MPD","streams":[{"name":"450k","state":"CAPTURING"},{"name":"600k","state":"CAPTURING"},{"name":"1000k","state":"CAPTURING"},{"name":"1500k","state":"CAPTURING"},{"name":"2200k","state":"CAPTURING"},{"name":"4000k","state":"CAPTURING"}],"captureEngine":"10.249.35.201"}]}}
SPKHD,"CAPTURING","resourceMpd":"http://cep.mos.hcvlny.cv.net/live/SPKHD/MPD","streams":[{"name":"450k","state":"CAPTURING"},{"name":"600k","state":"CAPTURING"},{"name":"1000k","state":"CAPTURING"},{"name":"1500k","state":"CAPTURING"},{"name":"2200k","state":"CAPTURING"},{"name":"4000k","state":"CAPTURING"}],"captureEngine":"10.249.35.169"}]}}
SPT1H,"FAILED","reason":"IngestFailure:IOM_DATA_TIMEOUT","streams":[{"name":"450k","state":"FAILED","reason":"IngestFailure:IOM_DATA_TIMEOUT"},{"name":"600k","state":"CANCELED"},{"name":"1000k","state":"CANCELED"},{"name":"1500k","state":"FAILED","reason":"IngestFailure:IOM_DATA_TIMEOUT"},{"name":"2200k","state":"CANCELED"},{"name":"4000k","state":"CANCELED"}],"captureEngine":"10.249.35.180"}]}}
SP9HD-NJS,"CAPTURING","resourceMpd":"http://cep.mos.hcvlny.cv.net/live/SP9HD-NJS/MPD","streams":[{"name":"450k","state":"CAPTURING"},{"name":"600k","state":"CAPTURING"},{"name":"1000k","state":"CAPTURING"},{"name":"1500k","state":"CAPTURING"},{"name":"2200k","state":"CAPTURING"},{"name":"4000k","state":"CAPTURING"}],"captureEngine":"10.249.35.196"}]}}
SP9HD,"CAPTURING","resourceMpd":"http://cep.mos.hcvlny.cv.net/live/SP9HD/MPD","streams":[{"name":"450k","state":"CAPTURING"},{"name":"600k","state":"CAPTURING"},{"name":"1000k","state":"CAPTURING"},{"name":"1500k","state":"CAPTURING"},{"name":"2200k","state":"CAPTURING"},{"name":"4000k","state":"CAPTURING"}],"captureEngine":"10.249.35.200"}]}}
SP9HD-CTNORTH,"FAILED","reason":"IngestFailure:IOM_DATA_TIMEOUT","streams":[{"name":"450k","state":"CANCELED"},{"name":"600k","state":"FAILED","reason":"IngestFailure:IOM_DATA_TIMEOUT"},{"name":"1000k","state":"CANCELED"},{"name":"1500k","state":"FAILED","reason":"Capture IPC Error"},{"name":"2200k","state":"CANCELED"},{"name":"4000k","state":"FAILED","reason":"IngestFailure:IOM_DATA_TIMEOUT"}],"captureEngine":"10.249.35.164"}]}}
SP8HD-NJS,"FAILED","reason":"Unknown:Indexer failed to process packets : No PMT in the input Transport stream","streams":[{"name":"450k","state":"CANCELED"},{"name":"600k","state":"FAILED","reason":"Unknown:Indexer failed to process packets : No PMT in the input Transport stream"},{"name":"1000k","state":"CANCELED"},{"name":"1500k","state":"CANCELED"},{"name":"2200k","state":"FAILED","reason":"Capture IPC Error"},{"name":"4000k","state":"CANCELED"}],"captureEngine":"10.249.35.180"}]}}
SP8HD-CTNORTH,"CAPTURING","resourceMpd":"http://cep.mos.hcvlny.cv.net/live/SP8HD-CTNORTH/MPD","streams":[{"name":"450k","state":"CAPTURING"},{"name":"600k","state":"CAPTURING"},{"name":"1000k","state":"CAPTURING"},{"name":"1500k","state":"CAPTURING"},{"name":"2200k","state":"CAPTURING"},{"name":"4000k","state":"CAPTURING"}],"captureEngine":"10.249.35.172"}]}}
SP7HD-NJS,"CAPTURING","resourceMpd":"http://cep.mos.hcvlny.cv.net/live/SP7HD-NJS/MPD","streams":[{"name":"450k","state":"CAPTURING"},{"name":"600k","state":"CAPTURING"},{"name":"1000k","state":"CAPTURING"},{"name":"1500k","state":"CAPTURING"},{"name":"2200k","state":"CAPTURING"},{"name":"4000k","state":"CAPTURING"}],"captureEngine":"10.249.35.158"}]}}
SP7HD,"CAPTURING","resourceMpd":"http://cep.mos.hcvlny.cv.net/live/SP7HD/MPD","streams":[{"name":"450k","state":"CAPTURING"},{"name":"600k","state":"CAPTURING"},{"name":"1000k","state":"CAPTURING"},{"name":"2200k","state":"CAPTURING"},{"name":"1500k","state":"CAPTURING"},{"name":"4000k","state":"CAPTURING"}],"captureEngine":"10.249.35.181"}]}}
SP6HD-NJS,"CAPTURING","resourceMpd":"http://cep.mos.hcvlny.cv.net/live/SP6HD-NJS/MPD","streams":[{"name":"450k","state":"CAPTURING"},{"name":"600k","state":"CAPTURING"},{"name":"1000k","state":"CAPTURING"},{"name":"1500k","state":"CAPTURING"},{"name":"2200k","state":"CAPTURING"},{"name":"4000k","state":"CAPTURING"}],"captureEngine":"10.249.35.193"}]}}
SP8HD,"CAPTURING","resourceMpd":"http://cep.mos.hcvlny.cv.net/live/SP8HD/MPD","streams":[{"name":"450k","state":"CAPTURING"},{"name":"600k","state":"CAPTURING"},{"name":"1000k","state":"CAPTURING"},{"name":"1500k","state":"CAPTURING"},{"name":"2200k","state":"CAPTURING"},{"name":"4000k","state":"CAPTURING"}],"captureEngine":"10.249.35.178"}]}}
SP7HD-CTNORTH,"CAPTURING","resourceMpd":"http://cep.mos.hcvlny.cv.net/live/SP7HD-CTNORTH/MPD","streams":[{"name":"450k","state":"CAPTURING"},{"name":"600k","state":"CAPTURING"},{"name":"1000k","state":"CAPTURING"},{"name":"1500k","state":"CAPTURING"},{"name":"2200k","state":"CAPTURING"},{"name":"4000k","state":"CAPTURING"}],"captureEngine":"10.249.35.164"}]}}
SP6HD,"FAILED","reason":"IngestFailure:IOM_DATA_TIMEOUT","streams":[{"name":"450k","state":"FAILED","reason":"IngestFailure:IOM_DATA_TIMEOUT"},{"name":"1000k","state":"FAILED","reason":"Capture IPC Error"},{"name":"600k","state":"CANCELED"},{"name":"1500k","state":"CANCELED"},{"name":"2200k","state":"CANCELED"},{"name":"4000k","state":"CANCELED"}],"captureEngine":"10.249.35.189"}]}}
SP6HD-CTNORTH,"CAPTURING","resourceMpd":"http://cep.mos.hcvlny.cv.net/live/SP6HD-CTNORTH/MPD","streams":[{"name":"450k","state":"CAPTURING"},{"name":"600k","state":"CAPTURING"},{"name":"1000k","state":"CAPTURING"},{"name":"1500k","state":"CAPTURING"},{"name":"2200k","state":"CAPTURING"},{"name":"4000k","state":"CAPTURING"}],"captureEngine":"10.249.35.177"}]}}
SP4HD-NJS,"CAPTURING","resourceMpd":"http://cep.mos.hcvlny.cv.net/live/SP4HD-NJS/MPD","streams":[{"name":"450k","state":"CAPTURING"},{"name":"600k","state":"CAPTURING"},{"name":"1000k","state":"CAPTURING"},{"name":"1500k","state":"CAPTURING"},{"name":"2200k","state":"CAPTURING"},{"name":"4000k","state":"CAPTURING"}],"captureEngine":"10.249.35.170"}]}}
SP5HD-NJS,"CAPTURING","resourceMpd":"http://cep.mos.hcvlny.cv.net/live/SP5HD-NJS/MPD","streams":[{"name":"450k","state":"CAPTURING"},{"name":"600k","state":"CAPTURING"},{"name":"1000k","state":"CAPTURING"},{"name":"1500k","state":"CAPTURING"},{"name":"2200k","state":"CAPTURING"},{"name":"4000k","state":"CAPTURING"}],"captureEngine":"10.249.35.165"}]}}
SP5HD,"CAPTURING","resourceMpd":"http://cep.mos.hcvlny.cv.net/live/SP5HD/MPD","streams":[{"name":"450k","state":"CAPTURING"},{"name":"600k","state":"CAPTURING"},{"name":"1500k","state":"CAPTURING"},{"name":"1000k","state":"CAPTURING"},{"name":"2200k","state":"CAPTURING"},{"name":"4000k","state":"CAPTURING"}],"captureEngine":"10.249.35.157"}]}}
SP4HD-CTNORTH,"CAPTURING","resourceMpd":"http://cep.mos.hcvlny.cv.net/live/SP4HD-CTNORTH/MPD","streams":[{"name":"600k","state":"CAPTURING"},{"name":"450k","state":"CAPTURING"},{"name":"1500k","state":"CAPTURING"},{"name":"1000k","state":"CAPTURING"},{"name":"2200k","state":"CAPTURING"},{"name":"4000k","state":"CAPTURING"}],"captureEngine":"10.249.35.179"}]}}
SP5HD-CTNORTH,"CAPTURING","resourceMpd":"http://cep.mos.hcvlny.cv.net/live/SP5HD-CTNORTH/MPD","streams":[{"name":"450k","state":"CAPTURING"},{"name":"600k","state":"CAPTURING"},{"name":"1000k","state":"CAPTURING"},{"name":"1500k","state":"CAPTURING"},{"name":"2200k","state":"CAPTURING"},{"name":"4000k","state":"CAPTURING"}],"captureEngine":"10.249.35.156"}]}}
SP3HD-CTNORTH,"CAPTURING","resourceMpd":"http://cep.mos.hcvlny.cv.net/live/SP3HD-CTNORTH/MPD","streams":[{"name":"450k","state":"CAPTURING"},{"name":"600k","state":"CAPTURING"},{"name":"4000k","state":"CAPTURING"},{"name":"1000k","state":"CAPTURING"},{"name":"2200k","state":"CAPTURING"},{"name":"1500k","state":"CAPTURING"}],"captureEngine":"10.249.35.173"}]}}
SP4HD,"CAPTURING","resourceMpd":"http://cep.mos.hcvlny.cv.net/live/SP4HD/MPD","streams":[{"name":"450k","state":"CAPTURING"},{"name":"600k","state":"CAPTURING"},{"name":"1000k","state":"CAPTURING"},{"name":"1500k","state":"CAPTURING"},{"name":"2200k","state":"CAPTURING"},{"name":"4000k","state":"CAPTURING"}],"captureEngine":"10.249.35.187"}]}}
SP3HD-NJS,"CAPTURING","resourceMpd":"http://cep.mos.hcvlny.cv.net/live/SP3HD-NJS/MPD","streams":[{"name":"450k","state":"CAPTURING"},{"name":"600k","state":"CAPTURING"},{"name":"1000k","state":"CAPTURING"},{"name":"1500k","state":"CAPTURING"},{"name":"2200k","state":"CAPTURING"},{"name":"4000k","state":"CAPTURING"}],"captureEngine":"10.249.35.188"}]}}
SP3HD,"CAPTURING","resourceMpd":"http://cep.mos.hcvlny.cv.net/live/SP3HD/MPD","streams":[{"name":"450k","state":"CAPTURING"},{"name":"600k","state":"CAPTURING"},{"name":"1000k","state":"CAPTURING"},{"name":"1500k","state":"CAPTURING"},{"name":"2200k","state":"CAPTURING"},{"name":"4000k","state":"CAPTURING"}],"captureEngine":"10.249.35.182"}]}}
SP2HD-NJS,"CAPTURING","resourceMpd":"http://cep.mos.hcvlny.cv.net/live/SP2HD-NJS/MPD","streams":[{"name":"450k","state":"CAPTURING"},{"name":"600k","state":"CAPTURING"},{"name":"1000k","state":"CAPTURING"},{"name":"1500k","state":"CAPTURING"},{"name":"2200k","state":"CAPTURING"},{"name":"4000k","state":"CAPTURING"}],"captureEngine":"10.249.35.176"}]}}
SP1HD-NJS,"CAPTURING","resourceMpd":"http://cep.mos.hcvlny.cv.net/live/SP1HD-NJS/MPD","streams":[{"name":"450k","state":"CAPTURING"},{"name":"600k","state":"CAPTURING"},{"name":"1000k","state":"CAPTURING"},{"name":"1500k","state":"CAPTURING"},{"name":"2200k","state":"CAPTURING"},{"name":"4000k","state":"CAPTURING"}],"captureEngine":"10.249.35.174"}]}}
SP2HD,"CAPTURING","resourceMpd":"http://cep.mos.hcvlny.cv.net/live/SP2HD/MPD","streams":[{"name":"450k","state":"CAPTURING"},{"name":"600k","state":"CAPTURING"},{"name":"1000k","state":"CAPTURING"},{"name":"1500k","state":"CAPTURING"},{"name":"2200k","state":"CAPTURING"},{"name":"4000k","state":"CAPTURING"}],"captureEngine":"10.249.35.167"}]}}
SP2HD-CTNORTH,"CAPTURING","resourceMpd":"http://cep.mos.hcvlny.cv.net/live/SP2HD-CTNORTH/MPD","streams":[{"name":"450k","state":"CAPTURING"},{"name":"600k","state":"CAPTURING"},{"name":"1000k","state":"CAPTURING"},{"name":"1500k","state":"CAPTURING"},{"name":"2200k","state":"CAPTURING"},{"name":"4000k","state":"CAPTURING"}],"captureEngine":"10.249.35.168"}]}}
SP1HD-CTNORTH,"CAPTURING","resourceMpd":"http://cep.mos.hcvlny.cv.net/live/SP1HD-CTNORTH/MPD","streams":[{"name":"450k","state":"CAPTURING"},{"name":"600k","state":"CAPTURING"},{"name":"1000k","state":"CAPTURING"},{"name":"1500k","state":"CAPTURING"},{"name":"2200k","state":"CAPTURING"},{"name":"4000k","state":"CAPTURING"}],"captureEngine":"10.249.35.183"}]}}
SNYHD-FFLD,"CAPTURING","resourceMpd":"http://cep.mos.hcvlny.cv.net/live/SNYHD-FFLD/MPD","streams":[{"name":"450k","state":"CAPTURING"},{"name":"600k","state":"CAPTURING"},{"name":"1000k","state":"CAPTURING"},{"name":"1500k","state":"CAPTURING"},{"name":"2200k","state":"CAPTURING"},{"name":"4000k","state":"CAPTURING"}],"captureEngine":"10.249.35.199"}]}}
SP1HD,"CAPTURING","resourceMpd":"http://cep.mos.hcvlny.cv.net/live/SP1HD/MPD","streams":[{"name":"450k","state":"CAPTURING"},{"name":"600k","state":"CAPTURING"},{"name":"1000k","state":"CAPTURING"},{"name":"1500k","state":"CAPTURING"},{"name":"2200k","state":"CAPTURING"},{"name":"4000k","state":"CAPTURING"}],"captureEngine":"10.249.35.195"}]}}
SNYHD-LITCH-MILF,"CAPTURING","resourceMpd":"http://cep.mos.hcvlny.cv.net/live/SNYHD-LITCH-MILF/MPD","streams":[{"name":"450k","state":"CAPTURING"},{"name":"600k","state":"CAPTURING"},{"name":"1000k","state":"CAPTURING"},{"name":"1500k","state":"CAPTURING"},{"name":"2200k","state":"CAPTURING"},{"name":"4000k","state":"CAPTURING"}],"captureEngine":"10.249.35.187"}]}}
SNYHD,"CAPTURING","resourceMpd":"http://cep.mos.hcvlny.cv.net/live/SNYHD/MPD","streams":[{"name":"450k","state":"CAPTURING"},{"name":"600k","state":"CAPTURING"},{"name":"1000k","state":"CAPTURING"},{"name":"1500k","state":"CAPTURING"},{"name":"2200k","state":"CAPTURING"},{"name":"4000k","state":"CAPTURING"}],"captureEngine":"10.249.35.166"}]}}
SHOXH,"FAILED","reason":"IngestFailure:IOM_DATA_TIMEOUT","streams":[{"name":"450k","state":"FAILED","reason":"IngestFailure:IOM_DATA_TIMEOUT"},{"name":"600k","state":"FAILED","reason":"IngestFailure:IOM_DATA_TIMEOUT"},{"name":"1000k","state":"FAILED","reason":"IngestFailure:IOM_DATA_TIMEOUT"},{"name":"1500k","state":"CANCELED"},{"name":"2200k","state":"CANCELED"},{"name":"4000k","state":"CANCELED"}],"captureEngine":"10.249.35.174"}]}}
SMTHD,"CAPTURING","resourceMpd":"http://cep.mos.hcvlny.cv.net/live/SMTHD/MPD","streams":[{"name":"450k","state":"CAPTURING"},{"name":"600k","state":"CAPTURING"},{"name":"1000k","state":"CAPTURING"},{"name":"1500k","state":"CAPTURING"},{"name":"2200k","state":"CAPTURING"},{"name":"4000k","state":"CAPTURING"}],"captureEngine":"10.249.35.185"}]}}
SHOwH,"FAILED","reason":"IngestFailure:IOM_DATA_TIMEOUT","streams":[{"name":"450k","state":"FAILED","reason":"IngestFailure:IOM_DATA_TIMEOUT"},{"name":"600k","state":"FAILED","reason":"IngestFailure:IOM_DATA_TIMEOUT"},{"name":"1000k","state":"CANCELED"},{"name":"1500k","state":"CANCELED"},{"name":"2200k","state":"CANCELED"},{"name":"4000k","state":"CANCELED"}],"captureEngine":"10.249.35.175"}]}}
SHOHD,"FAILED","reason":"IngestFailure:IOM_DATA_TIMEOUT","streams":[{"name":"450k","state":"FAILED","reason":"IngestFailure:IOM_DATA_TIMEOUT"},{"name":"600k","state":"CANCELED"},{"name":"1000k","state":"FAILED","reason":"IngestFailure:IOM_DATA_TIMEOUT"},{"name":"2200k","state":"CANCELED"},{"name":"1500k","state":"CANCELED"},{"name":"4000k","state":"CANCELED"}],"captureEngine":"10.249.35.190"}]}}
SHO2H,"CAPTURING","resourceMpd":"http://cep.mos.hcvlny.cv.net/live/SHO2H/MPD","streams":[{"name":"450k","state":"CAPTURING"},{"name":"600k","state":"CAPTURING"},{"name":"1000k","state":"CAPTURING"},{"name":"1500k","state":"CAPTURING"},{"name":"2200k","state":"CAPTURING"},{"name":"4000k","state":"CAPTURING"}],"captureEngine":"10.249.35.194"}]}}
SH2wH,"FAILED","reason":"IngestFailure:IOM_DATA_TIMEOUT","streams":[{"name":"450k","state":"FAILED","reason":"IngestFailure:IOM_DATA_TIMEOUT"},{"name":"600k","state":"FAILED","reason":"Capture IPC Error"},{"name":"1000k","state":"CANCELED"},{"name":"1500k","state":"FAILED","reason":"IngestFailure:IOM_DATA_TIMEOUT"},{"name":"2200k","state":"FAILED","reason":"IngestFailure:IOM_DATA_TIMEOUT"},{"name":"4000k","state":"CANCELED"}],"captureEngine":"10.249.35.187"}]}}
SHOCH,"CAPTURING","resourceMpd":"http://cep.mos.hcvlny.cv.net/live/SHOCH/MPD","streams":[{"name":"450k","state":"CAPTURING"},{"name":"600k","state":"CAPTURING"},{"name":"1000k","state":"CAPTURING"},{"name":"1500k","state":"CAPTURING"},{"name":"2200k","state":"CAPTURING"},{"name":"4000k","state":"CAPTURING"}],"captureEngine":"10.249.35.192"}]}}
SHCwH,"CAPTURING","resourceMpd":"http://cep.mos.hcvlny.cv.net/live/SHCwH/MPD","streams":[{"name":"450k","state":"CAPTURING"},{"name":"600k","state":"CAPTURING"},{"name":"1000k","state":"CAPTURING"},{"name":"1500k","state":"CAPTURING"},{"name":"2200k","state":"CAPTURING"},{"name":"4000k","state":"CAPTURING"}],"captureEngine":"10.249.35.184"}]}}
SCIHD,"CAPTURING","resourceMpd":"http://cep.mos.hcvlny.cv.net/live/SCIHD/MPD","streams":[{"name":"450k","state":"CAPTURING"},{"name":"600k","state":"CAPTURING"},{"name":"1000k","state":"CAPTURING"},{"name":"1500k","state":"CAPTURING"},{"name":"2200k","state":"CAPTURING"},{"name":"4000k","state":"CAPTURING"}],"captureEngine":"10.249.35.189"}]}}
REELH-2,REELH-2
RDZHD,"CAPTURING","resourceMpd":"http://cep.mos.hcvlny.cv.net/live/RDZHD/MPD","streams":[{"name":"450k","state":"CAPTURING"},{"name":"600k","state":"CAPTURING"},{"name":"1000k","state":"CAPTURING"},{"name":"1500k","state":"CAPTURING"},{"name":"2200k","state":"CAPTURING"},{"name":"4000k","state":"CAPTURING"}],"captureEngine":"10.249.35.176"}]}}
QVCHD,"CAPTURING","resourceMpd":"http://cep.mos.hcvlny.cv.net/live/QVCHD/MPD","streams":[{"name":"450k","state":"CAPTURING"},{"name":"600k","state":"CAPTURING"},{"name":"1000k","state":"CAPTURING"},{"name":"1500k","state":"CAPTURING"},{"name":"2200k","state":"CAPTURING"},{"name":"4000k","state":"CAPTURING"}],"captureEngine":"10.249.35.179"}]}}
PALHD,"CAPTURING","resourceMpd":"http://cep.mos.hcvlny.cv.net/live/PALHD/MPD","streams":[{"name":"450k","state":"CAPTURING"},{"name":"600k","state":"CAPTURING"},{"name":"1000k","state":"CAPTURING"},{"name":"1500k","state":"CAPTURING"},{"name":"2200k","state":"CAPTURING"},{"name":"4000k","state":"CAPTURING"}],"captureEngine":"10.249.35.199"}]}}
POPHD,"CAPTURING","resourceMpd":"http://cep.mos.hcvlny.cv.net/live/POPHD/MPD","streams":[{"name":"450k","state":"CAPTURING"},{"name":"600k","state":"CAPTURING"},{"name":"1000k","state":"CAPTURING"},{"name":"1500k","state":"CAPTURING"},{"name":"2200k","state":"CAPTURING"},{"name":"4000k","state":"CAPTURING"}],"captureEngine":"10.249.35.163"}]}}
PVIHD,"CAPTURING","resourceMpd":"http://cep.mos.hcvlny.cv.net/live/PVIHD/MPD","streams":[{"name":"450k","state":"CAPTURING"},{"name":"600k","state":"CAPTURING"},{"name":"1000k","state":"CAPTURING"},{"name":"1500k","state":"CAPTURING"},{"name":"2200k","state":"CAPTURING"},{"name":"4000k","state":"CAPTURING"}],"captureEngine":"10.249.35.168"}]}}
OXYGH,"CAPTURING","resourceMpd":"http://cep.mos.hcvlny.cv.net/live/OXYGH/MPD","streams":[{"name":"450k","state":"CAPTURING"},{"name":"600k","state":"CAPTURING"},{"name":"1000k","state":"CAPTURING"},{"name":"1500k","state":"CAPTURING"},{"name":"2200k","state":"CAPTURING"},{"name":"4000k","state":"CAPTURING"}],"captureEngine":"10.249.35.160"}]}}
OPTHD,"CAPTURING","resourceMpd":"http://cep.mos.hcvlny.cv.net/live/OPTHD/MPD","streams":[{"name":"450k","state":"CAPTURING"},{"name":"600k","state":"CAPTURING"},{"name":"1000k","state":"CAPTURING"},{"name":"1500k","state":"CAPTURING"},{"name":"2200k","state":"CAPTURING"},{"name":"4000k","state":"CAPTURING"}],"captureEngine":"10.249.35.196"}]}}
OWNHD,"FAILED","reason":"IngestFailure:IOM_DATA_TIMEOUT","streams":[{"name":"450k","state":"CANCELED"},{"name":"600k","state":"CANCELED"},{"name":"1000k","state":"CANCELED"},{"name":"1500k","state":"CANCELED"},{"name":"2200k","state":"CANCELED"},{"name":"4000k","state":"FAILED","reason":"IngestFailure:IOM_DATA_TIMEOUT"}],"captureEngine":"10.249.35.179"}]}}
OUTHD,"FAILED","reason":"IngestFailure:IOM_DATA_TIMEOUT","streams":[{"name":"450k","state":"FAILED","reason":"IngestFailure:IOM_DATA_TIMEOUT"},{"name":"600k","state":"FAILED","reason":"Capture IPC Error"},{"name":"1000k","state":"FAILED","reason":"Capture IPC Error"},{"name":"1500k","state":"CANCELED"},{"name":"2200k","state":"CANCELED"},{"name":"4000k","state":"CANCELED"}],"captureEngine":"10.249.35.191"}]}}
OMAXH,"CAPTURING","resourceMpd":"http://cep.mos.hcvlny.cv.net/live/OMAXH/MPD","streams":[{"name":"450k","state":"CAPTURING"},{"name":"600k","state":"CAPTURING"},{"name":"1000k","state":"CAPTURING"},{"name":"1500k","state":"CAPTURING"},{"name":"2200k","state":"CAPTURING"},{"name":"4000k","state":"CAPTURING"}],"captureEngine":"10.249.35.186"}]}}
NYCHD,"CAPTURING","resourceMpd":"http://cep.mos.hcvlny.cv.net/live/NYCHD/MPD","streams":[{"name":"450k","state":"CAPTURING"},{"name":"600k","state":"CAPTURING"},{"name":"1000k","state":"CAPTURING"},{"name":"1500k","state":"CAPTURING"},{"name":"2200k","state":"CAPTURING"},{"name":"4000k","state":"CAPTURING"}],"captureEngine":"10.249.35.161"}]}}
NJTVH-RAW,"CAPTURING","resourceMpd":"http://cep.mos.hcvlny.cv.net/live/NJTVH-RAW/MPD","streams":[{"name":"450k","state":"CAPTURING"},{"name":"600k","state":"CAPTURING"},{"name":"1000k","state":"CAPTURING"},{"name":"1500k","state":"CAPTURING"},{"name":"2200k","state":"CAPTURING"},{"name":"4000k","state":"CAPTURING"}],"captureEngine":"10.249.35.161"}]}}
NICHD,"CAPTURING","resourceMpd":"http://cep.mos.hcvlny.cv.net/live/NICHD/MPD","streams":[{"name":"450k","state":"CAPTURING"},{"name":"600k","state":"CAPTURING"},{"name":"1000k","state":"CAPTURING"},{"name":"1500k","state":"CAPTURING"},{"name":"2200k","state":"CAPTURING"},{"name":"4000k","state":"CAPTURING"}],"captureEngine":"10.249.35.171"}]}}
NJTVH,"CAPTURING","resourceMpd":"http://cep.mos.hcvlny.cv.net/live/NJTVH/MPD","streams":[{"name":"450k","state":"CAPTURING"},{"name":"600k","state":"CAPTURING"},{"name":"1500k","state":"CAPTURING"},{"name":"1000k","state":"CAPTURING"},{"name":"2200k","state":"CAPTURING"},{"name":"4000k","state":"CAPTURING"}],"captureEngine":"10.249.35.165"}]}}
NFLHD,"CAPTURING","resourceMpd":"http://cep.mos.hcvlny.cv.net/live/NFLHD/MPD","streams":[{"name":"450k","state":"CAPTURING"},{"name":"600k","state":"CAPTURING"},{"name":"1000k","state":"CAPTURING"},{"name":"1500k","state":"CAPTURING"},{"name":"2200k","state":"CAPTURING"},{"name":"4000k","state":"CAPTURING"}],"captureEngine":"10.249.35.198"}]}}
NGCHD,"CAPTURING","resourceMpd":"http://cep.mos.hcvlny.cv.net/live/NGCHD/MPD","streams":[{"name":"450k","state":"CAPTURING"},{"name":"600k","state":"CAPTURING"},{"name":"1000k","state":"CAPTURING"},{"name":"1500k","state":"CAPTURING"},{"name":"2200k","state":"CAPTURING"},{"name":"4000k","state":"CAPTURING"}],"captureEngine":"10.249.35.175"}]}}
NHLHD,"CAPTURING","resourceMpd":"http://cep.mos.hcvlny.cv.net/live/NHLHD/MPD","streams":[{"name":"450k","state":"CAPTURING"},{"name":"2200k","state":"CAPTURING"},{"name":"600k","state":"CAPTURING"},{"name":"1000k","state":"CAPTURING"},{"name":"1500k","state":"CAPTURING"},{"name":"4000k","state":"CAPTURING"}],"captureEngine":"10.249.35.162"}]}}
NFLHD-CTNORTH,"CAPTURING","resourceMpd":"http://cep.mos.hcvlny.cv.net/live/NFLHD-CTNORTH/MPD","streams":[{"name":"450k","state":"CAPTURING"},{"name":"600k","state":"CAPTURING"},{"name":"1000k","state":"CAPTURING"},{"name":"1500k","state":"CAPTURING"},{"name":"2200k","state":"CAPTURING"},{"name":"4000k","state":"CAPTURING"}],"captureEngine":"10.249.35.188"}]}}
NFLHD-NJS,"FAILED","reason":"IngestFailure:IOM_DATA_TIMEOUT","streams":[{"name":"450k","state":"FAILED","reason":"IngestFailure:IOM_DATA_TIMEOUT"},{"name":"600k","state":"CANCELED"},{"name":"1000k","state":"CANCELED"},{"name":"1500k","state":"CANCELED"},{"name":"2200k","state":"CANCELED"},{"name":"4000k","state":"CANCELED"}],"captureEngine":"10.249.35.186"}]}}
NESNH,"FAILED","reason":"IngestFailure:IOM_DATA_TIMEOUT","streams":[{"name":"450k","state":"FAILED","reason":"IngestFailure:IOM_DATA_TIMEOUT"},{"name":"600k","state":"CANCELED"},{"name":"1000k","state":"CANCELED"},{"name":"1500k","state":"CANCELED"},{"name":"2200k","state":"CANCELED"},{"name":"4000k","state":"CANCELED"}],"captureEngine":"10.249.35.200"}]}}
NBCHD-RAW,"FAILED","reason":"IngestFailure:IOM_DATA_TIMEOUT","streams":[{"name":"450k","state":"FAILED","reason":"IngestFailure:IOM_DATA_TIMEOUT"},{"name":"600k","state":"FAILED","reason":"Capture IPC Error"},{"name":"1000k","state":"FAILED","reason":"Capture IPC Error"},{"name":"1500k","state":"FAILED","reason":"Capture IPC Error"},{"name":"2200k","state":"FAILED","reason":"IngestFailure:IOM_DATA_TIMEOUT"},{"name":"4000k","state":"FAILED","reason":"Capture IPC Error"}],"captureEngine":"10.249.35.196"}]}}
NBCSH,"CAPTURING","resourceMpd":"http://cep.mos.hcvlny.cv.net/live/NBCSH/MPD","streams":[{"name":"450k","state":"CAPTURING"},{"name":"600k","state":"CAPTURING"},{"name":"1000k","state":"CAPTURING"},{"name":"1500k","state":"CAPTURING"},{"name":"2200k","state":"CAPTURING"},{"name":"4000k","state":"CAPTURING"}],"captureEngine":"10.249.35.159"}]}}
NBCHD-SPLIT,"FAILED","reason":"Unknown:Indexer failed to process packets : Not able to estimate bit-rate for input Transport stream","streams":[{"name":"450k","state":"CANCELED"},{"name":"600k","state":"CANCELED"},{"name":"1000k","state":"CANCELED"},{"name":"1500k","state":"CANCELED"},{"name":"2200k","state":"CANCELED"},{"name":"4000k","state":"FAILED","reason":"Unknown:Indexer failed to process packets : Not able to estimate bit-rate for input Transport stream"}],"captureEngine":"10.249.35.164"}]}}
NBAHD,"CAPTURING","resourceMpd":"http://cep.mos.hcvlny.cv.net/live/NBAHD/MPD","streams":[{"name":"450k","state":"CAPTURING"},{"name":"600k","state":"CAPTURING"},{"name":"1000k","state":"CAPTURING"},{"name":"1500k","state":"CAPTURING"},{"name":"2200k","state":"CAPTURING"},{"name":"4000k","state":"CAPTURING"}],"captureEngine":"10.249.35.197"}]}}
NBAHD-PHILLY,"CAPTURING","resourceMpd":"http://cep.mos.hcvlny.cv.net/live/NBAHD-PHILLY/MPD","streams":[{"name":"450k","state":"CAPTURING"},{"name":"600k","state":"CAPTURING"},{"name":"1000k","state":"CAPTURING"},{"name":"1500k","state":"CAPTURING"},{"name":"2200k","state":"CAPTURING"},{"name":"4000k","state":"CAPTURING"}],"captureEngine":"10.249.35.191"}]}}
NBCHD,"FAILED","reason":"IngestFailure:IOM_DATA_TIMEOUT","streams":[{"name":"450k","state":"FAILED","reason":"IngestFailure:IOM_DATA_TIMEOUT"},{"name":"600k","state":"FAILED","reason":"Capture IPC Error"},{"name":"1000k","state":"CANCELED"},{"name":"1500k","state":"CANCELED"},{"name":"2200k","state":"CANCELED"},{"name":"4000k","state":"CANCELED"}],"captureEngine":"10.249.35.199"}]}}
N12LH-WEST,"CAPTURING","resourceMpd":"http://cep.mos.hcvlny.cv.net/live/N12LH-WEST/MPD","streams":[{"name":"450k","state":"CAPTURING"},{"name":"600k","state":"CAPTURING"},{"name":"1000k","state":"CAPTURING"},{"name":"1500k","state":"CAPTURING"},{"name":"2200k","state":"CAPTURING"},{"name":"4000k","state":"CAPTURING"}],"captureEngine":"10.249.35.191"}]}}
N12CH-WEST,"CAPTURING","resourceMpd":"http://cep.mos.hcvlny.cv.net/live/N12CH-WEST/MPD","streams":[{"name":"450k","state":"CAPTURING"},{"name":"600k","state":"CAPTURING"},{"name":"1000k","state":"CAPTURING"},{"name":"1500k","state":"CAPTURING"},{"name":"2200k","state":"CAPTURING"},{"name":"4000k","state":"CAPTURING"}],"captureEngine":"10.249.35.157"}]}}
N12CH-EAST,"CAPTURING","resourceMpd":"http://cep.mos.hcvlny.cv.net/live/N12CH-EAST/MPD","streams":[{"name":"450k","state":"CAPTURING"},{"name":"600k","state":"CAPTURING"},{"name":"1000k","state":"CAPTURING"},{"name":"2200k","state":"CAPTURING"},{"name":"1500k","state":"CAPTURING"},{"name":"4000k","state":"CAPTURING"}],"captureEngine":"10.249.35.167"}]}}
My17H,"FAILED","reason":"IngestFailure:IOM_DATA_TIMEOUT","streams":[{"name":"450k","state":"FAILED","reason":"IngestFailure:IOM_DATA_TIMEOUT"},{"name":"600k","state":"CANCELED"},{"name":"1000k","state":"CANCELED"},{"name":"1500k","state":"CANCELED"},{"name":"2200k","state":"CANCELED"},{"name":"4000k","state":"CANCELED"}],"captureEngine":"10.249.35.190"}]}}
N12LH-EAST,"CAPTURING","resourceMpd":"http://cep.mos.hcvlny.cv.net/live/N12LH-EAST/MPD","streams":[{"name":"450k","state":"CAPTURING"},{"name":"600k","state":"CAPTURING"},{"name":"1000k","state":"CAPTURING"},{"name":"1500k","state":"CAPTURING"},{"name":"2200k","state":"CAPTURING"},{"name":"4000k","state":"CAPTURING"}],"captureEngine":"10.249.35.173"}]}}
My9HD-RAW,"FAILED","reason":"IngestFailure:IOM_DATA_TIMEOUT","streams":[{"name":"450k","state":"CANCELED"},{"name":"600k","state":"FAILED","reason":"IngestFailure:IOM_DATA_TIMEOUT"},{"name":"1000k","state":"CANCELED"},{"name":"1500k","state":"FAILED","reason":"Capture IPC Error"},{"name":"2200k","state":"CANCELED"},{"name":"4000k","state":"CANCELED"}],"captureEngine":"10.249.35.174"}]}}
My9HD-BOSTON,"CAPTURING","resourceMpd":"http://cep.mos.hcvlny.cv.net/live/My9HD-BOSTON/MPD","streams":[{"name":"450k","state":"CAPTURING"},{"name":"600k","state":"CAPTURING"},{"name":"1000k","state":"CAPTURING"},{"name":"1500k","state":"CAPTURING"},{"name":"2200k","state":"CAPTURING"},{"name":"4000k","state":"CAPTURING"}],"captureEngine":"10.249.35.194"}]}}
MTVHD,"FAILED","reason":"Unknown:Indexer failed to process packets : Not able to estimate bit-rate for input Transport stream","streams":[{"name":"450k","state":"CANCELED"},{"name":"600k","state":"CANCELED"},{"name":"1000k","state":"CANCELED"},{"name":"1500k","state":"CANCELED"},{"name":"2200k","state":"CANCELED"},{"name":"4000k","state":"FAILED","reason":"Unknown:Indexer failed to process packets : Not able to estimate bit-rate for input Transport stream"}],"captureEngine":"10.249.35.189"}]}}
MTV2H,"FAILED","reason":"Capture IPC Error","streams":[{"name":"450k","state":"FAILED","reason":"Capture IPC Error"},{"name":"600k","state":"FAILED","reason":"IngestFailure:IOM_DATA_TIMEOUT"},{"name":"1000k","state":"FAILED","reason":"Capture IPC Error"},{"name":"1500k","state":"FAILED","reason":"Capture IPC Error"},{"name":"2200k","state":"CANCELED"},{"name":"4000k","state":"CANCELED"}],"captureEngine":"10.249.35.182"}]}}
My9HD,"CAPTURING","resourceMpd":"http://cep.mos.hcvlny.cv.net/live/My9HD/MPD","streams":[{"name":"450k","state":"CAPTURING"},{"name":"600k","state":"CAPTURING"},{"name":"1000k","state":"CAPTURING"},{"name":"1500k","state":"CAPTURING"},{"name":"2200k","state":"CAPTURING"},{"name":"4000k","state":"CAPTURING"}],"captureEngine":"10.249.35.192"}]}}
MSGHD,"CAPTURING","resourceMpd":"http://cep.mos.hcvlny.cv.net/live/MSGHD/MPD","streams":[{"name":"450k","state":"CAPTURING"},{"name":"600k","state":"CAPTURING"},{"name":"1000k","state":"CAPTURING"},{"name":"1500k","state":"CAPTURING"},{"name":"2200k","state":"CAPTURING"},{"name":"4000k","state":"CAPTURING"}],"captureEngine":"10.249.35.200"}]}}
MSG-PLUS-H,"CAPTURING","resourceMpd":"http://cep.mos.hcvlny.cv.net/live/MSG-PLUS-H/MPD","streams":[{"name":"450k","state":"CAPTURING"},{"name":"1000k","state":"CAPTURING"},{"name":"600k","state":"CAPTURING"},{"name":"1500k","state":"CAPTURING"},{"name":"2200k","state":"CAPTURING"},{"name":"4000k","state":"CAPTURING"}],"captureEngine":"10.249.35.184"}]}}
MLBHD-LITCH-MILF,"CAPTURING","resourceMpd":"http://cep.mos.hcvlny.cv.net/live/MLBHD-LITCH-MILF/MPD","streams":[{"name":"450k","state":"CAPTURING"},{"name":"600k","state":"CAPTURING"},{"name":"1000k","state":"CAPTURING"},{"name":"1500k","state":"CAPTURING"},{"name":"2200k","state":"CAPTURING"},{"name":"4000k","state":"CAPTURING"}],"captureEngine":"10.249.35.170"}]}}
MMAXH,"CAPTURING","resourceMpd":"http://cep.mos.hcvlny.cv.net/live/MMAXH/MPD","streams":[{"name":"450k","state":"CAPTURING"},{"name":"600k","state":"CAPTURING"},{"name":"1000k","state":"CAPTURING"},{"name":"1500k","state":"CAPTURING"},{"name":"2200k","state":"CAPTURING"},{"name":"4000k","state":"CAPTURING"}],"captureEngine":"10.249.35.180"}]}}
MOVMH,"CAPTURING","resourceMpd":"http://cep.mos.hcvlny.cv.net/live/MOVMH/MPD","streams":[{"name":"450k","state":"CAPTURING"},{"name":"600k","state":"CAPTURING"},{"name":"1000k","state":"CAPTURING"},{"name":"1500k","state":"CAPTURING"},{"name":"2200k","state":"CAPTURING"},{"name":"4000k","state":"CAPTURING"}],"captureEngine":"10.249.35.177"}]}}
MNBCH,"CAPTURING","resourceMpd":"http://cep.mos.hcvlny.cv.net/live/MNBCH/MPD","streams":[{"name":"450k","state":"CAPTURING"},{"name":"600k","state":"CAPTURING"},{"name":"1000k","state":"CAPTURING"},{"name":"1500k","state":"CAPTURING"},{"name":"2200k","state":"CAPTURING"},{"name":"4000k","state":"CAPTURING"}],"captureEngine":"10.249.35.190"}]}}
MAXWH,"CAPTURING","resourceMpd":"http://cep.mos.hcvlny.cv.net/live/MAXWH/MPD","streams":[{"name":"450k","state":"CAPTURING"},{"name":"600k","state":"CAPTURING"},{"name":"1000k","state":"CAPTURING"},{"name":"1500k","state":"CAPTURING"},{"name":"2200k","state":"CAPTURING"},{"name":"4000k","state":"CAPTURING"}],"captureEngine":"10.249.35.201"}]}}
MLBHD,"FAILED","reason":"Capture IPC Error","streams":[{"name":"450k","state":"FAILED","reason":"Capture IPC Error"},{"name":"2200k","state":"FAILED","reason":"Capture IPC Error"},{"name":"600k","state":"FAILED","reason":"Capture IPC Error"},{"name":"1000k","state":"FAILED","reason":"IngestFailure:IOM_DATA_TIMEOUT"},{"name":"1500k","state":"FAILED","reason":"Capture IPC Error"},{"name":"4000k","state":"FAILED","reason":"Capture IPC Error"}],"captureEngine":"10.249.35.167"}]}}
MAXHD,"CAPTURING","resourceMpd":"http://cep.mos.hcvlny.cv.net/live/MAXHD/MPD","streams":[{"name":"450k","state":"CAPTURING"},{"name":"600k","state":"CAPTURING"},{"name":"1000k","state":"CAPTURING"},{"name":"1500k","state":"CAPTURING"},{"name":"2200k","state":"CAPTURING"},{"name":"4000k","state":"CAPTURING"}],"captureEngine":"10.249.35.200"}]}}
MLBHD-HAMIL,"CAPTURING","resourceMpd":"http://cep.mos.hcvlny.cv.net/live/MLBHD-HAMIL/MPD","streams":[{"name":"450k","state":"CAPTURING"},{"name":"600k","state":"CAPTURING"},{"name":"1000k","state":"CAPTURING"},{"name":"1500k","state":"CAPTURING"},{"name":"2200k","state":"CAPTURING"},{"name":"4000k","state":"CAPTURING"}],"captureEngine":"10.249.35.156"}]}}
MAXLH,"CAPTURING","resourceMpd":"http://cep.mos.hcvlny.cv.net/live/MAXLH/MPD","streams":[{"name":"450k","state":"CAPTURING"},{"name":"600k","state":"CAPTURING"},{"name":"1000k","state":"CAPTURING"},{"name":"1500k","state":"CAPTURING"},{"name":"2200k","state":"CAPTURING"},{"name":"4000k","state":"CAPTURING"}],"captureEngine":"10.249.35.159"}]}}
MAX5H,"CAPTURING","resourceMpd":"http://cep.mos.hcvlny.cv.net/live/MAX5H/MPD","streams":[{"name":"450k","state":"CAPTURING"},{"name":"600k","state":"CAPTURING"},{"name":"1000k","state":"CAPTURING"},{"name":"1500k","state":"CAPTURING"},{"name":"2200k","state":"CAPTURING"},{"name":"4000k","state":"CAPTURING"}],"captureEngine":"10.249.35.163"}]}}
LifeH,"FAILED","reason":"IngestFailure:IOM_DATA_TIMEOUT","streams":[{"name":"450k","state":"CANCELED"},{"name":"600k","state":"FAILED","reason":"IngestFailure:IOM_DATA_TIMEOUT"},{"name":"1000k","state":"CANCELED"},{"name":"1500k","state":"FAILED","reason":"Capture IPC Error"},{"name":"2200k","state":"CANCELED"},{"name":"4000k","state":"CANCELED"}],"captureEngine":"10.249.35.181"}]}}
KJWPH,"CAPTURING","resourceMpd":"http://cep.mos.hcvlny.cv.net/live/KJWPH/MPD","streams":[{"name":"450k","state":"CAPTURING"},{"name":"600k","state":"CAPTURING"},{"name":"1000k","state":"CAPTURING"},{"name":"1500k","state":"CAPTURING"},{"name":"2200k","state":"CAPTURING"},{"name":"4000k","state":"CAPTURING"}],"captureEngine":"10.249.35.160"}]}}
LIVEW,"CAPTURING","resourceMpd":"http://cep.mos.hcvlny.cv.net/live/LIVEW/MPD","streams":[{"name":"450k","state":"CAPTURING"},{"name":"600k","state":"CAPTURING"},{"name":"1000k","state":"CAPTURING"},{"name":"1500k","state":"CAPTURING"},{"name":"2200k","state":"CAPTURING"},{"name":"4000k","state":"CAPTURING"}],"captureEngine":"10.249.35.171"}]}}
KYWHD,"FAILED","reason":"IngestFailure:IOM_DATA_TIMEOUT","streams":[{"name":"450k","state":"FAILED","reason":"IngestFailure:IOM_DATA_TIMEOUT"},{"name":"600k","state":"FAILED","reason":"IngestFailure:IOM_DATA_TIMEOUT"},{"name":"1000k","state":"CANCELED"},{"name":"1500k","state":"CANCELED"},{"name":"2200k","state":"CANCELED"},{"name":"4000k","state":"CANCELED"}],"captureEngine":"10.249.35.182"}]}}
HMMHD,"CAPTURING","resourceMpd":"http://cep.mos.hcvlny.cv.net/live/HMMHD/MPD","streams":[{"name":"450k","state":"CAPTURING"},{"name":"600k","state":"CAPTURING"},{"name":"1000k","state":"CAPTURING"},{"name":"1500k","state":"CAPTURING"},{"name":"2200k","state":"CAPTURING"},{"name":"4000k","state":"CAPTURING"}],"captureEngine":"10.249.35.156"}]}}
IFCHD,"FAILED","reason":"IngestFailure:IOM_DATA_TIMEOUT","streams":[{"name":"450k","state":"CANCELED"},{"name":"600k","state":"FAILED","reason":"IngestFailure:IOM_DATA_TIMEOUT"},{"name":"1000k","state":"CANCELED"},{"name":"1500k","state":"FAILED","reason":"IngestFailure:IOM_DATA_TIMEOUT"},{"name":"2200k","state":"CANCELED"},{"name":"4000k","state":"CANCELED"}],"captureEngine":"10.249.35.167"}]}}
HG-HD,"FAILED","reason":"IngestFailure:IOM_DATA_TIMEOUT","streams":[{"name":"450k","state":"FAILED","reason":"IngestFailure:IOM_DATA_TIMEOUT"},{"name":"600k","state":"FAILED","reason":"Capture IPC Error"},{"name":"1000k","state":"FAILED","reason":"Capture IPC Error"},{"name":"1500k","state":"CANCELED"},{"name":"2200k","state":"FAILED","reason":"Capture IPC Error"},{"name":"4000k","state":"CANCELED"}],"captureEngine":"10.249.35.174"}]}}
IDHD,"CAPTURING","resourceMpd":"http://cep.mos.hcvlny.cv.net/live/IDHD/MPD","streams":[{"name":"450k","state":"CAPTURING"},{"name":"600k","state":"CAPTURING"},{"name":"1000k","state":"CAPTURING"},{"name":"1500k","state":"CAPTURING"},{"name":"2200k","state":"CAPTURING"},{"name":"4000k","state":"CAPTURING"}],"captureEngine":"10.249.35.169"}]}}
HSWHD,"CAPTURING","resourceMpd":"http://cep.mos.hcvlny.cv.net/live/HSWHD/MPD","streams":[{"name":"450k","state":"CAPTURING"},{"name":"600k","state":"CAPTURING"},{"name":"1000k","state":"CAPTURING"},{"name":"1500k","state":"CAPTURING"},{"name":"2200k","state":"CAPTURING"},{"name":"4000k","state":"CAPTURING"}],"captureEngine":"10.249.35.196"}]}}
HFWHD,"FAILED","reason":"IngestFailure:IOM_DATA_TIMEOUT","streams":[{"name":"450k","state":"FAILED","reason":"IngestFailure:IOM_DATA_TIMEOUT"},{"name":"600k","state":"CANCELED"},{"name":"1000k","state":"CANCELED"},{"name":"1500k","state":"CANCELED"},{"name":"2200k","state":"CANCELED"},{"name":"4000k","state":"CANCELED"}],"captureEngine":"10.249.35.185"}]}}
HDPPV,"CAPTURING","resourceMpd":"http://cep.mos.hcvlny.cv.net/live/HDPPV/MPD","streams":[{"name":"450k","state":"CAPTURING"},{"name":"600k","state":"CAPTURING"},{"name":"1000k","state":"CAPTURING"},{"name":"1500k","state":"CAPTURING"},{"name":"2200k","state":"CAPTURING"},{"name":"4000k","state":"CAPTURING"}],"captureEngine":"10.249.35.167"}]}}
HBOZH,"FAILED","reason":"IngestFailure:IOM_DATA_TIMEOUT","streams":[{"name":"450k","state":"FAILED","reason":"Capture IPC Error"},{"name":"600k","state":"FAILED","reason":"IngestFailure:IOM_DATA_TIMEOUT"},{"name":"1000k","state":"CANCELED"},{"name":"1500k","state":"CANCELED"},{"name":"2200k","state":"CANCELED"},{"name":"4000k","state":"CANCELED"}],"captureEngine":"10.249.35.198"}]}}
HCHD,"FAILED","reason":"IngestFailure:IOM_DATA_TIMEOUT","streams":[{"name":"450k","state":"FAILED","reason":"IngestFailure:IOM_DATA_TIMEOUT"},{"name":"600k","state":"FAILED","reason":"IngestFailure:IOM_DATA_TIMEOUT"},{"name":"1000k","state":"FAILED","reason":"IngestFailure:IOM_DATA_TIMEOUT"},{"name":"1500k","state":"CANCELED"},{"name":"2200k","state":"CANCELED"},{"name":"4000k","state":"CANCELED"}],"captureEngine":"10.249.35.164"}]}}
HBOWH,"FAILED","reason":"IngestFailure:IOM_DATA_TIMEOUT","streams":[{"name":"450k","state":"CANCELED"},{"name":"600k","state":"FAILED","reason":"IngestFailure:IOM_DATA_TIMEOUT"},{"name":"1000k","state":"CANCELED"},{"name":"1500k","state":"CANCELED"},{"name":"2200k","state":"CANCELED"},{"name":"4000k","state":"CANCELED"}],"captureEngine":"10.249.35.167"}]}}
HBOSH,"FAILED","reason":"IngestFailure:IOM_DATA_TIMEOUT","streams":[{"name":"450k","state":"FAILED","reason":"IngestFailure:IOM_DATA_TIMEOUT"},{"name":"600k","state":"CANCELED"},{"name":"1000k","state":"CANCELED"},{"name":"1500k","state":"CANCELED"},{"name":"2200k","state":"CANCELED"},{"name":"4000k","state":"CANCELED"}],"captureEngine":"10.249.35.161"}]}}
H2WHD,"FAILED","reason":"IngestFailure:IOM_DATA_TIMEOUT","streams":[{"name":"450k","state":"FAILED","reason":"IngestFailure:IOM_DATA_TIMEOUT"},{"name":"600k","state":"FAILED","reason":"Capture IPC Error"},{"name":"1500k","state":"FAILED","reason":"Capture IPC Error"},{"name":"1000k","state":"FAILED","reason":"Capture IPC Error"},{"name":"2200k","state":"CANCELED"},{"name":"4000k","state":"CANCELED"}],"captureEngine":"10.249.35.171"}]}}
HBOHD,"FAILED","reason":"IngestFailure:IOM_DATA_TIMEOUT","streams":[{"name":"450k","state":"FAILED","reason":"IngestFailure:IOM_DATA_TIMEOUT"},{"name":"600k","state":"FAILED","reason":"Capture IPC Error"},{"name":"1000k","state":"FAILED","reason":"Capture IPC Error"},{"name":"1500k","state":"FAILED","reason":"Capture IPC Error"},{"name":"2200k","state":"CANCELED"},{"name":"4000k","state":"CANCELED"}],"captureEngine":"10.249.35.163"}]}}
HBOFH,"FAILED","reason":"IngestFailure:IOM_DATA_TIMEOUT","streams":[{"name":"450k","state":"FAILED","reason":"IngestFailure:IOM_DATA_TIMEOUT"},{"name":"600k","state":"CANCELED"},{"name":"1000k","state":"CANCELED"},{"name":"1500k","state":"CANCELED"},{"name":"2200k","state":"CANCELED"},{"name":"4000k","state":"CANCELED"}],"captureEngine":"10.249.35.181"}]}}
HBOLH,"FAILED","reason":"IngestFailure:IOM_DATA_TIMEOUT","streams":[{"name":"600k","state":"FAILED","reason":"Capture IPC Error"},{"name":"450k","state":"FAILED","reason":"IngestFailure:IOM_DATA_TIMEOUT"},{"name":"1000k","state":"CANCELED"},{"name":"1500k","state":"CANCELED"},{"name":"2200k","state":"CANCELED"},{"name":"4000k","state":"CANCELED"}],"captureEngine":"10.249.35.169"}]}}
GOLFH,"CAPTURING","resourceMpd":"http://cep.mos.hcvlny.cv.net/live/GOLFH/MPD","streams":[{"name":"450k","state":"CAPTURING"},{"name":"600k","state":"CAPTURING"},{"name":"1000k","state":"CAPTURING"},{"name":"1500k","state":"CAPTURING"},{"name":"2200k","state":"CAPTURING"},{"name":"4000k","state":"CAPTURING"}],"captureEngine":"10.249.35.192"}]}}
HBO2H,"FAILED","reason":"IngestFailure:IOM_DATA_TIMEOUT","streams":[{"name":"450k","state":"FAILED","reason":"IngestFailure:IOM_DATA_TIMEOUT"},{"name":"600k","state":"FAILED","reason":"Capture IPC Error"},{"name":"1000k","state":"FAILED","reason":"Capture IPC Error"},{"name":"1500k","state":"CANCELED"},{"name":"2200k","state":"CANCELED"},{"name":"4000k","state":"CANCELED"}],"captureEngine":"10.249.35.197"}]}}
GLBHD,"CAPTURING","resourceMpd":"http://cep.mos.hcvlny.cv.net/live/GLBHD/MPD","streams":[{"name":"450k","state":"CAPTURING"},{"name":"600k","state":"CAPTURING"},{"name":"1000k","state":"CAPTURING"},{"name":"1500k","state":"CAPTURING"},{"name":"2200k","state":"CAPTURING"},{"name":"4000k","state":"CAPTURING"}],"captureEngine":"10.249.35.189"}]}}
H2HD,"CAPTURING","resourceMpd":"http://cep.mos.hcvlny.cv.net/live/H2HD/MPD","streams":[{"name":"450k","state":"CAPTURING"},{"name":"600k","state":"CAPTURING"},{"name":"1000k","state":"CAPTURING"},{"name":"1500k","state":"CAPTURING"},{"name":"2200k","state":"CAPTURING"},{"name":"4000k","state":"CAPTURING"}],"captureEngine":"10.249.35.173"}]}}
HBOCH,"FAILED","reason":"IngestFailure:IOM_DATA_TIMEOUT","streams":[{"name":"450k","state":"CANCELED"},{"name":"600k","state":"FAILED","reason":"IngestFailure:IOM_DATA_TIMEOUT"},{"name":"1000k","state":"CANCELED"},{"name":"1500k","state":"CANCELED"},{"name":"2200k","state":"CANCELED"},{"name":"4000k","state":"CANCELED"}],"captureEngine":"10.249.35.186"}]}}
GALHD,"CAPTURING","resourceMpd":"http://cep.mos.hcvlny.cv.net/live/GALHD/MPD","streams":[{"name":"450k","state":"CAPTURING"},{"name":"600k","state":"CAPTURING"},{"name":"1000k","state":"CAPTURING"},{"name":"1500k","state":"CAPTURING"},{"name":"2200k","state":"CAPTURING"},{"name":"4000k","state":"CAPTURING"}],"captureEngine":"10.249.35.190"}]}}
FXXHD,"CAPTURING","resourceMpd":"http://cep.mos.hcvlny.cv.net/live/FXXHD/MPD","streams":[{"name":"450k","state":"CAPTURING"},{"name":"2200k","state":"CAPTURING"},{"name":"600k","state":"CAPTURING"},{"name":"1000k","state":"CAPTURING"},{"name":"1500k","state":"CAPTURING"},{"name":"4000k","state":"CAPTURING"}],"captureEngine":"10.249.35.175"}]}}
FYIHD,"CAPTURING","resourceMpd":"http://cep.mos.hcvlny.cv.net/live/FYIHD/MPD","streams":[{"name":"450k","state":"CAPTURING"},{"name":"600k","state":"CAPTURING"},{"name":"1000k","state":"CAPTURING"},{"name":"1500k","state":"CAPTURING"},{"name":"2200k","state":"CAPTURING"},{"name":"4000k","state":"CAPTURING"}],"captureEngine":"10.249.35.170"}]}}
FXHD,"CAPTURING","resourceMpd":"http://cep.mos.hcvlny.cv.net/live/FXHD/MPD","streams":[{"name":"450k","state":"CAPTURING"},{"name":"600k","state":"CAPTURING"},{"name":"1000k","state":"CAPTURING"},{"name":"1500k","state":"CAPTURING"},{"name":"2200k","state":"CAPTURING"},{"name":"4000k","state":"CAPTURING"}],"captureEngine":"10.249.35.182"}]}}
FUSNH,"CAPTURING","resourceMpd":"http://cep.mos.hcvlny.cv.net/live/FUSNH/MPD","streams":[{"name":"450k","state":"CAPTURING"},{"name":"600k","state":"CAPTURING"},{"name":"1000k","state":"CAPTURING"},{"name":"1500k","state":"CAPTURING"},{"name":"2200k","state":"CAPTURING"},{"name":"4000k","state":"CAPTURING"}],"captureEngine":"10.249.35.182"}]}}
FuseH,"CAPTURING","resourceMpd":"http://cep.mos.hcvlny.cv.net/live/FuseH/MPD","streams":[{"name":"450k","state":"CAPTURING"},{"name":"600k","state":"CAPTURING"},{"name":"1000k","state":"CAPTURING"},{"name":"1500k","state":"CAPTURING"},{"name":"2200k","state":"CAPTURING"},{"name":"4000k","state":"CAPTURING"}],"captureEngine":"10.249.35.197"}]}}
FSPHD,"FAILED","reason":"IngestFailure:IOM_DATA_TIMEOUT","streams":[{"name":"450k","state":"CANCELED"},{"name":"600k","state":"FAILED","reason":"IngestFailure:IOM_DATA_TIMEOUT"},{"name":"1000k","state":"CANCELED"},{"name":"1500k","state":"CANCELED"},{"name":"2200k","state":"CANCELED"},{"name":"4000k","state":"CANCELED"}],"captureEngine":"10.249.35.191"}]}}
FSBHD-FFLD,"CAPTURING","resourceMpd":"http://cep.mos.hcvlny.cv.net/live/FSBHD-FFLD/MPD","streams":[{"name":"450k","state":"CAPTURING"},{"name":"600k","state":"CAPTURING"},{"name":"1000k","state":"CAPTURING"},{"name":"1500k","state":"CAPTURING"},{"name":"2200k","state":"CAPTURING"},{"name":"4000k","state":"CAPTURING"}],"captureEngine":"10.249.35.186"}]}}
FSBHD-NHAVEN,"CAPTURING","resourceMpd":"http://cep.mos.hcvlny.cv.net/live/FSBHD-NHAVEN/MPD","streams":[{"name":"450k","state":"CAPTURING"},{"name":"600k","state":"CAPTURING"},{"name":"1000k","state":"CAPTURING"},{"name":"1500k","state":"CAPTURING"},{"name":"2200k","state":"CAPTURING"},{"name":"4000k","state":"CAPTURING"}],"captureEngine":"10.249.35.174"}]}}
FS1HD,"CAPTURING","resourceMpd":"http://cep.mos.hcvlny.cv.net/live/FS1HD/MPD","streams":[{"name":"450k","state":"CAPTURING"},{"name":"600k","state":"CAPTURING"},{"name":"1000k","state":"CAPTURING"},{"name":"1500k","state":"CAPTURING"},{"name":"2200k","state":"CAPTURING"},{"name":"4000k","state":"CAPTURING"}],"captureEngine":"10.249.35.201"}]}}
FOXLH,"FAILED","reason":"Capture IPC Error","streams":[{"name":"450k","state":"FAILED","reason":"Capture IPC Error"},{"name":"600k","state":"FAILED","reason":"Unknown:Indexer failed to process packets : No Video EBPs found in input Transport stream"},{"name":"1000k","state":"FAILED","reason":"Capture IPC Error"},{"name":"1500k","state":"FAILED","reason":"Capture IPC Error"},{"name":"2200k","state":"FAILED","reason":"Capture IPC Error"},{"name":"4000k","state":"FAILED","reason":"Capture IPC Error"}],"captureEngine":"10.249.35.196"}]}}
FOXHD,"CAPTURING","resourceMpd":"http://cep.mos.hcvlny.cv.net/live/FOXHD/MPD","streams":[{"name":"450k","state":"CAPTURING"},{"name":"600k","state":"CAPTURING"},{"name":"1000k","state":"CAPTURING"},{"name":"1500k","state":"CAPTURING"},{"name":"2200k","state":"CAPTURING"},{"name":"4000k","state":"CAPTURING"}],"captureEngine":"10.249.35.177"}]}}
FRFHD,"CAPTURING","resourceMpd":"http://cep.mos.hcvlny.cv.net/live/FRFHD/MPD","streams":[{"name":"450k","state":"CAPTURING"},{"name":"600k","state":"CAPTURING"},{"name":"1000k","state":"CAPTURING"},{"name":"1500k","state":"CAPTURING"},{"name":"2200k","state":"CAPTURING"},{"name":"4000k","state":"CAPTURING"}],"captureEngine":"10.249.35.179"}]}}
FOXD-RAW,"CAPTURING","resourceMpd":"http://cep.mos.hcvlny.cv.net/live/FOXD-RAW/MPD","streams":[{"name":"450k","state":"CAPTURING"},{"name":"600k","state":"CAPTURING"},{"name":"1000k","state":"CAPTURING"},{"name":"1500k","state":"CAPTURING"},{"name":"2200k","state":"CAPTURING"},{"name":"4000k","state":"CAPTURING"}],"captureEngine":"10.249.35.194"}]}}
FDHD,"CAPTURING","resourceMpd":"http://cep.mos.hcvlny.cv.net/live/FDHD/MPD","streams":[{"name":"450k","state":"CAPTURING"},{"name":"600k","state":"CAPTURING"},{"name":"1000k","state":"CAPTURING"},{"name":"1500k","state":"CAPTURING"},{"name":"2200k","state":"CAPTURING"},{"name":"4000k","state":"CAPTURING"}],"captureEngine":"10.249.35.193"}]}}
FOXD,"FAILED","reason":"IngestFailure:IOM_DATA_TIMEOUT","streams":[{"name":"450k","state":"CANCELED"},{"name":"600k","state":"CANCELED"},{"name":"1000k","state":"FAILED","reason":"IngestFailure:IOM_DATA_TIMEOUT"},{"name":"1500k","state":"CANCELED"},{"name":"2200k","state":"CANCELED"},{"name":"4000k","state":"CANCELED"}],"captureEngine":"10.249.35.196"}]}}
ESQHD,"CAPTURING","resourceMpd":"http://cep.mos.hcvlny.cv.net/live/ESQHD/MPD","streams":[{"name":"450k","state":"CAPTURING"},{"name":"600k","state":"CAPTURING"},{"name":"1000k","state":"CAPTURING"},{"name":"1500k","state":"CAPTURING"},{"name":"2200k","state":"CAPTURING"},{"name":"4000k","state":"CAPTURING"}],"captureEngine":"10.249.35.164"}]}}
FNCHD,"FAILED","reason":"IngestFailure:IOM_DATA_TIMEOUT","streams":[{"name":"450k","state":"FAILED","reason":"IngestFailure:IOM_DATA_TIMEOUT"},{"name":"600k","state":"CANCELED"},{"name":"1000k","state":"CANCELED"},{"name":"1500k","state":"CANCELED"},{"name":"2200k","state":"CANCELED"},{"name":"4000k","state":"CANCELED"}],"captureEngine":"10.249.35.179"}]}}
FBNHD,"CAPTURING","resourceMpd":"http://cep.mos.hcvlny.cv.net/live/FBNHD/MPD","streams":[{"name":"450k","state":"CAPTURING"},{"name":"600k","state":"CAPTURING"},{"name":"1000k","state":"CAPTURING"},{"name":"1500k","state":"CAPTURING"},{"name":"2200k","state":"CAPTURING"},{"name":"4000k","state":"CAPTURING"}],"captureEngine":"10.249.35.169"}]}}
ESPUH,"FAILED","reason":"Unknown:Indexer failed to process packets : Audio configured in stream but no audio received. Unable to initialize Indexer","streams":[{"name":"450k","state":"CANCELED"},{"name":"600k","state":"CANCELED"},{"name":"1000k","state":"CANCELED"},{"name":"1500k","state":"CANCELED"},{"name":"2200k","state":"CANCELED"},{"name":"4000k","state":"FAILED","reason":"Unknown:Indexer failed to process packets : Audio configured in stream but no audio received. Unable to initialize Indexer"}],"captureEngine":"10.249.35.167"}]}}
ESPNH-FFLD,"FAILED","reason":"IngestFailure:IOM_DATA_TIMEOUT","streams":[{"name":"450k","state":"FAILED","reason":"IngestFailure:IOM_DATA_TIMEOUT"},{"name":"600k","state":"FAILED","reason":"Capture IPC Error"},{"name":"1500k","state":"FAILED","reason":"Capture IPC Error"},{"name":"1000k","state":"FAILED","reason":"Capture IPC Error"},{"name":"2200k","state":"FAILED","reason":"IngestFailure:IOM_DATA_TIMEOUT"},{"name":"4000k","state":"CANCELED"}],"captureEngine":"10.249.35.157"}]}}
ESPNH-NJS,"FAILED","reason":"IngestFailure:IOM_DATA_TIMEOUT","streams":[{"name":"450k","state":"FAILED","reason":"IngestFailure:IOM_DATA_TIMEOUT"},{"name":"600k","state":"FAILED","reason":"Capture IPC Error"},{"name":"1000k","state":"FAILED","reason":"Capture IPC Error"},{"name":"1500k","state":"FAILED","reason":"Capture IPC Error"},{"name":"2200k","state":"FAILED","reason":"Capture IPC Error"},{"name":"4000k","state":"FAILED","reason":"Capture IPC Error"}],"captureEngine":"10.249.35.180"}]}}
ESPNH-HAMIL,"FAILED","reason":"Unknown:Indexer failed to process packets : No Video EBPs found in input Transport stream","streams":[{"name":"450k","state":"FAILED","reason":"Unknown:Indexer failed to process packets : No Video EBPs found in input Transport stream"},{"name":"600k","state":"CANCELED"},{"name":"1000k","state":"FAILED","reason":"Unknown:Indexer failed to process packets : No Video EBPs found in input Transport stream"},{"name":"1500k","state":"CANCELED"},{"name":"2200k","state":"CANCELED"},{"name":"4000k","state":"CANCELED"}],"captureEngine":"10.249.35.160"}]}}
ESPNH-MILF-LITCH,"FAILED","reason":"Capture IPC Error","streams":[{"name":"450k","state":"FAILED","reason":"Capture IPC Error"},{"name":"600k","state":"FAILED","reason":"Unknown:Indexer failed to process packets : No Video EBPs found in input Transport stream"},{"name":"1000k","state":"FAILED","reason":"Capture IPC Error"},{"name":"1500k","state":"FAILED","reason":"Capture IPC Error"},{"name":"2200k","state":"FAILED","reason":"Capture IPC Error"},{"name":"4000k","state":"FAILED","reason":"Capture IPC Error"}],"captureEngine":"10.249.35.196"}]}}
ESPNH-MAIN,"FAILED","reason":"IngestFailure:IOM_DATA_TIMEOUT","streams":[{"name":"450k","state":"FAILED","reason":"IngestFailure:IOM_DATA_TIMEOUT"},{"name":"600k","state":"CANCELED"},{"name":"1000k","state":"CANCELED"},{"name":"1500k","state":"CANCELED"},{"name":"2200k","state":"CANCELED"},{"name":"4000k","state":"CANCELED"}],"captureEngine":"10.249.35.158"}]}}
ESPNH-NJN,"FAILED","reason":"Capture IPC Error","streams":[{"name":"450k","state":"FAILED","reason":"Capture IPC Error"},{"name":"600k","state":"FAILED","reason":"Unknown:Indexer failed to process packets : No Video EBPs found in input Transport stream"},{"name":"2200k","state":"FAILED","reason":"Capture IPC Error"},{"name":"1500k","state":"FAILED","reason":"Capture IPC Error"},{"name":"1000k","state":"FAILED","reason":"Capture IPC Error"},{"name":"4000k","state":"FAILED","reason":"Capture IPC Error"}],"captureEngine":"10.249.35.192"}]}}
ESPNH-PIKE,"FAILED","reason":"Capture IPC Error","streams":[{"name":"450k","state":"FAILED","reason":"Capture IPC Error"},{"name":"1000k","state":"FAILED","reason":"Capture IPC Error"},{"name":"600k","state":"FAILED","reason":"Capture IPC Error"},{"name":"1500k","state":"FAILED","reason":"Unknown:Indexer failed to process packets : No Video EBPs found in input Transport stream"},{"name":"2200k","state":"FAILED","reason":"Capture IPC Error"},{"name":"4000k","state":"FAILED","reason":"Capture IPC Error"}],"captureEngine":"10.249.35.193"}]}}
ESP2H-HAMIL,"FAILED","reason":"IngestFailure:IOM_DATA_TIMEOUT","streams":[{"name":"600k","state":"FAILED","reason":"Capture IPC Error"},{"name":"450k","state":"FAILED","reason":"IngestFailure:IOM_DATA_TIMEOUT"},{"name":"1000k","state":"FAILED","reason":"Capture IPC Error"},{"name":"1500k","state":"FAILED","reason":"Capture IPC Error"},{"name":"2200k","state":"FAILED","reason":"Capture IPC Error"},{"name":"4000k","state":"FAILED","reason":"IngestFailure:IOM_DATA_TIMEOUT"}],"captureEngine":"10.249.35.177"}]}}
ESP2H-FFLD,"FAILED","reason":"IngestFailure:IOM_DATA_TIMEOUT","streams":[{"name":"450k","state":"FAILED","reason":"IngestFailure:IOM_DATA_TIMEOUT"},{"name":"600k","state":"FAILED","reason":"Capture IPC Error"},{"name":"1000k","state":"FAILED","reason":"Capture IPC Error"},{"name":"1500k","state":"CANCELED"},{"name":"2200k","state":"CANCELED"},{"name":"4000k","state":"CANCELED"}],"captureEngine":"10.249.35.172"}]}}
ESP2H-NJN,"FAILED","reason":"Unknown:Indexer failed to process packets : Audio configured in stream but no audio received. Unable to initialize Indexer","streams":[{"name":"450k","state":"CANCELED"},{"name":"600k","state":"CANCELED"},{"name":"1000k","state":"CANCELED"},{"name":"1500k","state":"CANCELED"},{"name":"2200k","state":"CANCELED"},{"name":"4000k","state":"FAILED","reason":"Unknown:Indexer failed to process packets : Audio configured in stream but no audio received. Unable to initialize Indexer"}],"captureEngine":"10.249.35.181"}]}}
ESP2H-MILF-LITCH,"FAILED","reason":"Unknown:Indexer failed to process packets : Audio configured in stream but no audio received. Unable to initialize Indexer","streams":[{"name":"450k","state":"CANCELED"},{"name":"600k","state":"CANCELED"},{"name":"1000k","state":"CANCELED"},{"name":"1500k","state":"CANCELED"},{"name":"2200k","state":"CANCELED"},{"name":"4000k","state":"FAILED","reason":"Unknown:Indexer failed to process packets : Audio configured in stream but no audio received. Unable to initialize Indexer"}],"captureEngine":"10.249.35.162"}]}}
ESP2H-NJS,"FAILED","reason":"Unknown:Indexer failed to process packets : Audio configured in stream but no audio received. Unable to initialize Indexer","streams":[{"name":"450k","state":"CANCELED"},{"name":"600k","state":"CANCELED"},{"name":"1000k","state":"CANCELED"},{"name":"1500k","state":"CANCELED"},{"name":"2200k","state":"CANCELED"},{"name":"4000k","state":"FAILED","reason":"Unknown:Indexer failed to process packets : Audio configured in stream but no audio received. Unable to initialize Indexer"}],"captureEngine":"10.249.35.177"}]}}
ESP2H-PIKE,"FAILED","reason":"Unknown:Indexer failed to process packets : Audio configured in stream but no audio received. Unable to initialize Indexer","streams":[{"name":"450k","state":"CANCELED"},{"name":"600k","state":"CANCELED"},{"name":"1000k","state":"CANCELED"},{"name":"1500k","state":"CANCELED"},{"name":"2200k","state":"CANCELED"},{"name":"4000k","state":"FAILED","reason":"Unknown:Indexer failed to process packets : Audio configured in stream but no audio received. Unable to initialize Indexer"}],"captureEngine":"10.249.35.183"}]}}
EPLH1,"FAILED","reason":"IngestFailure:IOM_DATA_TIMEOUT","streams":[{"name":"450k","state":"FAILED","reason":"IngestFailure:IOM_DATA_TIMEOUT"},{"name":"600k","state":"CANCELED"},{"name":"1000k","state":"CANCELED"},{"name":"2200k","state":"CANCELED"},{"name":"1500k","state":"CANCELED"},{"name":"4000k","state":"CANCELED"}],"captureEngine":"10.249.35.188"}]}}
ESP2H-MAIN,"FAILED","reason":"Unknown:Indexer failed to process packets : Audio configured in stream but no audio received. Unable to initialize Indexer","streams":[{"name":"450k","state":"CANCELED"},{"name":"1500k","state":"CANCELED"},{"name":"2200k","state":"CANCELED"},{"name":"600k","state":"CANCELED"},{"name":"1000k","state":"CANCELED"},{"name":"4000k","state":"FAILED","reason":"Unknown:Indexer failed to process packets : Audio configured in stream but no audio received. Unable to initialize Indexer"}],"captureEngine":"10.249.35.167"}]}}
E-HD,"CAPTURING","resourceMpd":"http://cep.mos.hcvlny.cv.net/live/E-HD/MPD","streams":[{"name":"600k","state":"CAPTURING"},{"name":"450k","state":"CAPTURING"},{"name":"1000k","state":"CAPTURING"},{"name":"2200k","state":"CAPTURING"},{"name":"1500k","state":"CAPTURING"},{"name":"4000k","state":"CAPTURING"}],"captureEngine":"10.249.35.187"}]}}
ESNWH,"CAPTURING","resourceMpd":"http://cep.mos.hcvlny.cv.net/live/ESNWH/MPD","streams":[{"name":"450k","state":"CAPTURING"},{"name":"600k","state":"CAPTURING"},{"name":"1000k","state":"CAPTURING"},{"name":"1500k","state":"CAPTURING"},{"name":"2200k","state":"CAPTURING"},{"name":"4000k","state":"CAPTURING"}],"captureEngine":"10.249.35.186"}]}}
DXDHD,"CAPTURING","resourceMpd":"http://cep.mos.hcvlny.cv.net/live/DXDHD/MPD","streams":[{"name":"450k","state":"CAPTURING"},{"name":"600k","state":"CAPTURING"},{"name":"1000k","state":"CAPTURING"},{"name":"1500k","state":"CAPTURING"},{"name":"2200k","state":"CAPTURING"},{"name":"4000k","state":"CAPTURING"}],"captureEngine":"10.249.35.170"}]}}
DSNJH,"CAPTURING","resourceMpd":"http://cep.mos.hcvlny.cv.net/live/DSNJH/MPD","streams":[{"name":"600k","state":"CAPTURING"},{"name":"450k","state":"CAPTURING"},{"name":"1000k","state":"CAPTURING"},{"name":"1500k","state":"CAPTURING"},{"name":"2200k","state":"CAPTURING"},{"name":"4000k","state":"CAPTURING"}],"captureEngine":"10.249.35.161"}]}}
DISHD,"CAPTURING","resourceMpd":"http://cep.mos.hcvlny.cv.net/live/DISHD/MPD","streams":[{"name":"450k","state":"CAPTURING"},{"name":"600k","state":"CAPTURING"},{"name":"1000k","state":"CAPTURING"},{"name":"1500k","state":"CAPTURING"},{"name":"2200k","state":"CAPTURING"},{"name":"4000k","state":"CAPTURING"}],"captureEngine":"10.249.35.189"}]}}
DSCHD,"CAPTURING","resourceMpd":"http://cep.mos.hcvlny.cv.net/live/DSCHD/MPD","streams":[{"name":"450k","state":"CAPTURING"},{"name":"600k","state":"CAPTURING"},{"name":"1000k","state":"CAPTURING"},{"name":"1500k","state":"CAPTURING"},{"name":"2200k","state":"CAPTURING"},{"name":"4000k","state":"CAPTURING"}],"captureEngine":"10.249.35.197"}]}}
DIYHD,"FAILED","reason":"Unknown:Indexer failed to process packets : Audio configured in stream but no audio received. Unable to initialize Indexer","streams":[{"name":"450k","state":"CANCELED"},{"name":"600k","state":"CANCELED"},{"name":"1000k","state":"CANCELED"},{"name":"1500k","state":"CANCELED"},{"name":"2200k","state":"CANCELED"},{"name":"4000k","state":"FAILED","reason":"Unknown:Indexer failed to process packets : Audio configured in stream but no audio received. Unable to initialize Indexer"}],"captureEngine":"10.249.35.195"}]}}
CW57H,"CAPTURING","resourceMpd":"http://cep.mos.hcvlny.cv.net/live/CW57H/MPD","streams":[{"name":"450k","state":"CAPTURING"},{"name":"600k","state":"CAPTURING"},{"name":"1000k","state":"CAPTURING"},{"name":"1500k","state":"CAPTURING"},{"name":"2200k","state":"CAPTURING"},{"name":"4000k","state":"CAPTURING"}],"captureEngine":"10.249.35.162"}]}}
COZIH-HAMILTON,"FAILED","reason":"IngestFailure:IOM_DATA_TIMEOUT","streams":[{"name":"450k","state":"CANCELED"},{"name":"600k","state":"CANCELED"},{"name":"1000k","state":"CANCELED"},{"name":"1500k","state":"FAILED","reason":"IngestFailure:IOM_DATA_TIMEOUT"},{"name":"4000k","state":"CANCELED"},{"name":"2200k","state":"CANCELED"}],"captureEngine":"10.249.35.183"}]}}
DESTH,"CAPTURING","resourceMpd":"http://cep.mos.hcvlny.cv.net/live/DESTH/MPD","streams":[{"name":"450k","state":"CAPTURING"},{"name":"600k","state":"CAPTURING"},{"name":"1000k","state":"CAPTURING"},{"name":"1500k","state":"CAPTURING"},{"name":"2200k","state":"CAPTURING"},{"name":"4000k","state":"CAPTURING"}],"captureEngine":"10.249.35.184"}]}}
CSNHD,"CAPTURING","resourceMpd":"http://cep.mos.hcvlny.cv.net/live/CSNHD/MPD","streams":[{"name":"450k","state":"CAPTURING"},{"name":"600k","state":"CAPTURING"},{"name":"1000k","state":"CAPTURING"},{"name":"1500k","state":"CAPTURING"},{"name":"2200k","state":"CAPTURING"},{"name":"4000k","state":"CAPTURING"}],"captureEngine":"10.249.35.183"}]}}
COZIH-LITCH,"FAILED","reason":"IngestFailure:IOM_DATA_TIMEOUT","streams":[{"name":"450k","state":"FAILED","reason":"IngestFailure:IOM_DATA_TIMEOUT"},{"name":"600k","state":"FAILED","reason":"Capture IPC Error"},{"name":"1000k","state":"FAILED","reason":"IngestFailure:IOM_DATA_TIMEOUT"},{"name":"1500k","state":"CANCELED"},{"name":"2200k","state":"CANCELED"},{"name":"4000k","state":"CANCELED"}],"captureEngine":"10.249.35.181"}]}}
CNNHD,"CAPTURING","resourceMpd":"http://cep.mos.hcvlny.cv.net/live/CNNHD/MPD","streams":[{"name":"450k","state":"CAPTURING"},{"name":"600k","state":"CAPTURING"},{"name":"1000k","state":"CAPTURING"},{"name":"1500k","state":"CAPTURING"},{"name":"2200k","state":"CAPTURING"},{"name":"4000k","state":"CAPTURING"}],"captureEngine":"10.249.35.158"}]}}
COOKH,"CAPTURING","resourceMpd":"http://cep.mos.hcvlny.cv.net/live/COOKH/MPD","streams":[{"name":"450k","state":"CAPTURING"},{"name":"600k","state":"CAPTURING"},{"name":"1500k","state":"CAPTURING"},{"name":"1000k","state":"CAPTURING"},{"name":"2200k","state":"CAPTURING"},{"name":"4000k","state":"CAPTURING"}],"captureEngine":"10.249.35.183"}]}}
NICKM,"CAPTURING","resourceMpd":"http://cep.mos.hcvlny.cv.net/live/NICKM/MPD","streams":[{"name":"300k","state":"CAPTURING"},{"name":"625k","state":"CAPTURING"},{"name":"925k","state":"CAPTURING"},{"name":"1200k","state":"CAPTURING"}],"captureEngine":"10.249.35.181"}]}}
COMHD,"FAILED","reason":"IngestFailure:IOM_DATA_TIMEOUT","streams":[{"name":"450k","state":"CANCELED"},{"name":"600k","state":"FAILED","reason":"IngestFailure:IOM_DATA_TIMEOUT"},{"name":"1000k","state":"CANCELED"},{"name":"1500k","state":"CANCELED"},{"name":"2200k","state":"CANCELED"},{"name":"4000k","state":"CANCELED"}],"captureEngine":"10.249.35.157"}]}}
CNBCH,"CAPTURING","resourceMpd":"http://cep.mos.hcvlny.cv.net/live/CNBCH/MPD","streams":[{"name":"450k","state":"CAPTURING"},{"name":"600k","state":"CAPTURING"},{"name":"1000k","state":"CAPTURING"},{"name":"1500k","state":"CAPTURING"},{"name":"2200k","state":"CAPTURING"},{"name":"4000k","state":"CAPTURING"}],"captureEngine":"10.249.35.181"}]}}
C-AND-IHD,"CAPTURING","resourceMpd":"http://cep.mos.hcvlny.cv.net/live/C-AND-IHD/MPD","streams":[{"name":"450k","state":"CAPTURING"},{"name":"600k","state":"CAPTURING"},{"name":"1000k","state":"CAPTURING"},{"name":"1500k","state":"CAPTURING"},{"name":"2200k","state":"CAPTURING"},{"name":"4000k","state":"CAPTURING"}],"captureEngine":"10.249.35.172"}]}}
CMTHD,"CAPTURING","resourceMpd":"http://cep.mos.hcvlny.cv.net/live/CMTHD/MPD","streams":[{"name":"450k","state":"CAPTURING"},{"name":"600k","state":"CAPTURING"},{"name":"1000k","state":"CAPTURING"},{"name":"1500k","state":"CAPTURING"},{"name":"2200k","state":"CAPTURING"},{"name":"4000k","state":"CAPTURING"}],"captureEngine":"10.249.35.171"}]}}
CBSSH,"CAPTURING","resourceMpd":"http://cep.mos.hcvlny.cv.net/live/CBSSH/MPD","streams":[{"name":"450k","state":"CAPTURING"},{"name":"600k","state":"CAPTURING"},{"name":"1000k","state":"CAPTURING"},{"name":"1500k","state":"CAPTURING"},{"name":"2200k","state":"CAPTURING"},{"name":"4000k","state":"CAPTURING"}],"captureEngine":"10.249.35.177"}]}}
CBSHD-RAW,"FAILED","reason":"IngestFailure:IOM_DATA_TIMEOUT","streams":[{"name":"450k","state":"FAILED","reason":"IngestFailure:IOM_DATA_TIMEOUT"},{"name":"600k","state":"FAILED","reason":"Capture IPC Error"},{"name":"1000k","state":"FAILED","reason":"IngestFailure:IOM_DATA_TIMEOUT"},{"name":"1500k","state":"CANCELED"},{"name":"2200k","state":"CANCELED"},{"name":"4000k","state":"CANCELED"}],"captureEngine":"10.249.35.199"}]}}
CBSHD-SPLIT,"CAPTURING","resourceMpd":"http://cep.mos.hcvlny.cv.net/live/CBSHD-SPLIT/MPD","streams":[{"name":"450k","state":"CAPTURING"},{"name":"600k","state":"CAPTURING"},{"name":"1000k","state":"CAPTURING"},{"name":"1500k","state":"CAPTURING"},{"name":"2200k","state":"CAPTURING"},{"name":"4000k","state":"CAPTURING"}],"captureEngine":"10.249.35.200"}]}}
BravH,"CAPTURING","resourceMpd":"http://cep.mos.hcvlny.cv.net/live/BravH/MPD","streams":[{"name":"450k","state":"CAPTURING"},{"name":"600k","state":"CAPTURING"},{"name":"1000k","state":"CAPTURING"},{"name":"1500k","state":"CAPTURING"},{"name":"2200k","state":"CAPTURING"},{"name":"4000k","state":"CAPTURING"}],"captureEngine":"10.249.35.176"}]}}
CAUHD,"FAILED","reason":"IngestFailure:IOM_DATA_TIMEOUT","streams":[{"name":"450k","state":"FAILED","reason":"IngestFailure:IOM_DATA_TIMEOUT"},{"name":"600k","state":"FAILED","reason":"IngestFailure:IOM_DATA_TIMEOUT"},{"name":"1000k","state":"FAILED","reason":"IngestFailure:IOM_DATA_TIMEOUT"},{"name":"1500k","state":"FAILED","reason":"Capture IPC Error"},{"name":"2200k","state":"CANCELED"},{"name":"4000k","state":"CANCELED"}],"captureEngine":"10.249.35.160"}]}}
CBSHD,"CAPTURING","resourceMpd":"http://cep.mos.hcvlny.cv.net/live/CBSHD/MPD","streams":[{"name":"450k","state":"CAPTURING"},{"name":"600k","state":"CAPTURING"},{"name":"1500k","state":"CAPTURING"},{"name":"1000k","state":"CAPTURING"},{"name":"2200k","state":"CAPTURING"},{"name":"4000k","state":"CAPTURING"}],"captureEngine":"10.249.35.166"}]}}
BNSPH,"CAPTURING","resourceMpd":"http://cep.mos.hcvlny.cv.net/live/BNSPH/MPD","streams":[{"name":"450k","state":"CAPTURING"},{"name":"600k","state":"CAPTURING"},{"name":"1000k","state":"CAPTURING"},{"name":"1500k","state":"CAPTURING"},{"name":"2200k","state":"CAPTURING"},{"name":"4000k","state":"CAPTURING"}],"captureEngine":"10.249.35.180"}]}}
BTVHD,"CAPTURING","resourceMpd":"http://cep.mos.hcvlny.cv.net/live/BTVHD/MPD","streams":[{"name":"450k","state":"CAPTURING"},{"name":"600k","state":"CAPTURING"},{"name":"1000k","state":"CAPTURING"},{"name":"1500k","state":"CAPTURING"},{"name":"2200k","state":"CAPTURING"},{"name":"4000k","state":"CAPTURING"}],"captureEngine":"10.249.35.176"}]}}
BNESH,"CAPTURING","resourceMpd":"http://cep.mos.hcvlny.cv.net/live/BNESH/MPD","streams":[{"name":"450k","state":"CAPTURING"},{"name":"600k","state":"CAPTURING"},{"name":"1000k","state":"CAPTURING"},{"name":"1500k","state":"CAPTURING"},{"name":"2200k","state":"CAPTURING"},{"name":"4000k","state":"CAPTURING"}],"captureEngine":"10.249.35.179"}]}}
BTNHD,"CAPTURING","resourceMpd":"http://cep.mos.hcvlny.cv.net/live/BTNHD/MPD","streams":[{"name":"450k","state":"CAPTURING"},{"name":"600k","state":"CAPTURING"},{"name":"1000k","state":"CAPTURING"},{"name":"1500k","state":"CAPTURING"},{"name":"2200k","state":"CAPTURING"},{"name":"4000k","state":"CAPTURING"}],"captureEngine":"10.249.35.201"}]}}
BETHD,"CAPTURING","resourceMpd":"http://cep.mos.hcvlny.cv.net/live/BETHD/MPD","streams":[{"name":"450k","state":"CAPTURING"},{"name":"600k","state":"CAPTURING"},{"name":"1000k","state":"CAPTURING"},{"name":"1500k","state":"CAPTURING"},{"name":"2200k","state":"CAPTURING"},{"name":"4000k","state":"CAPTURING"}],"captureEngine":"10.249.35.167"}]}}
BLZHD,"FAILED","reason":"IngestFailure:IOM_DATA_TIMEOUT","streams":[{"name":"450k","state":"FAILED","reason":"IngestFailure:IOM_DATA_TIMEOUT"},{"name":"600k","state":"CANCELED"},{"name":"1000k","state":"CANCELED"},{"name":"1500k","state":"CANCELED"},{"name":"2200k","state":"CANCELED"},{"name":"4000k","state":"CANCELED"}],"captureEngine":"10.249.35.198"}]}}
ANPHD,"CAPTURING","resourceMpd":"http://cep.mos.hcvlny.cv.net/live/ANPHD/MPD","streams":[{"name":"450k","state":"CAPTURING"},{"name":"600k","state":"CAPTURING"},{"name":"1000k","state":"CAPTURING"},{"name":"1500k","state":"CAPTURING"},{"name":"2200k","state":"CAPTURING"},{"name":"4000k","state":"CAPTURING"}],"captureEngine":"10.249.35.168"}]}}
AMAXH,"CAPTURING","resourceMpd":"http://cep.mos.hcvlny.cv.net/live/AMAXH/MPD","streams":[{"name":"1500k","state":"CAPTURING"},{"name":"450k","state":"CAPTURING"},{"name":"600k","state":"CAPTURING"},{"name":"1000k","state":"CAPTURING"},{"name":"2200k","state":"CAPTURING"},{"name":"4000k","state":"CAPTURING"}],"captureEngine":"10.249.35.157"}]}}
BBCAH,"FAILED","reason":"IngestFailure:IOM_DATA_TIMEOUT","streams":[{"name":"450k","state":"FAILED","reason":"IngestFailure:IOM_DATA_TIMEOUT"},{"name":"600k","state":"CANCELED"},{"name":"1000k","state":"CANCELED"},{"name":"1500k","state":"CANCELED"},{"name":"2200k","state":"CANCELED"},{"name":"4000k","state":"CANCELED"}],"captureEngine":"10.249.35.175"}]}}
AMCHD,"CAPTURING","resourceMpd":"http://cep.mos.hcvlny.cv.net/live/AMCHD/MPD","streams":[{"name":"450k","state":"CAPTURING"},{"name":"600k","state":"CAPTURING"},{"name":"1000k","state":"CAPTURING"},{"name":"1500k","state":"CAPTURING"},{"name":"2200k","state":"CAPTURING"},{"name":"4000k","state":"CAPTURING"}],"captureEngine":"10.249.35.168"}]}}
ABCHD-RAW,"CAPTURING","resourceMpd":"http://cep.mos.hcvlny.cv.net/live/ABCHD-RAW/MPD","streams":[{"name":"450k","state":"CAPTURING"},{"name":"600k","state":"CAPTURING"},{"name":"1000k","state":"CAPTURING"},{"name":"1500k","state":"CAPTURING"},{"name":"2200k","state":"CAPTURING"},{"name":"4000k","state":"CAPTURING"}],"captureEngine":"10.249.35.185"}]}}
21NYH,"CAPTURING","resourceMpd":"http://cep.mos.hcvlny.cv.net/live/21NYH/MPD","streams":[{"name":"450k","state":"CAPTURING"},{"name":"600k","state":"CAPTURING"},{"name":"1000k","state":"CAPTURING"},{"name":"1500k","state":"CAPTURING"},{"name":"2200k","state":"CAPTURING"},{"name":"4000k","state":"CAPTURING"}],"captureEngine":"10.249.35.178"}]}}
A-AND-EHD,"FAILED","resourceMpd":"http://cep.mos.hcvlny.cv.net/live/A-AND-EHD/MPD","streams":[{"name":"450k","state":"CANCELED"},{"name":"600k","state":"CANCELED"},{"name":"1000k","state":"CANCELED"},{"name":"1500k","state":"CANCELED"},{"name":"2200k","state":"CANCELED"},{"name":"4000k","state":"FAILED"}],"captureEngine":"10.249.35.190"}]}}
21NYH-RAW,"CAPTURING","resourceMpd":"http://cep.mos.hcvlny.cv.net/live/21NYH-RAW/MPD","streams":[{"name":"600k","state":"CAPTURING"},{"name":"450k","state":"CAPTURING"},{"name":"1000k","state":"CAPTURING"},{"name":"2200k","state":"CAPTURING"},{"name":"4000k","state":"CAPTURING"},{"name":"1500k","state":"CAPTURING"}],"captureEngine":"10.249.35.178"}]}}
ABCHD,"CAPTURING","resourceMpd":"http://cep.mos.hcvlny.cv.net/live/ABCHD/MPD","streams":[{"name":"450k","state":"CAPTURING"},{"name":"600k","state":"CAPTURING"},{"name":"1000k","state":"CAPTURING"},{"name":"1500k","state":"CAPTURING"},{"name":"2200k","state":"CAPTURING"},{"name":"4000k","state":"CAPTURING"}],"captureEngine":"10.249.35.173"}]}}
13HD,"CAPTURING","resourceMpd":"http://cep.mos.hcvlny.cv.net/live/13HD/MPD","streams":[{"name":"450k","state":"CAPTURING"},{"name":"600k","state":"CAPTURING"},{"name":"1000k","state":"CAPTURING"},{"name":"1500k","state":"CAPTURING"},{"name":"2200k","state":"CAPTURING"},{"name":"4000k","state":"CAPTURING"}],"captureEngine":"10.249.35.159"}]}}
BUZZR-WWOR-CAR,"CAPTURING","resourceMpd":"http://cep.mos.hcvlny.cv.net/live/BUZZR-WWOR-CAR/MPD","streams":[{"name":"300k","state":"CAPTURING"},{"name":"625k","state":"CAPTURING"},{"name":"925k","state":"CAPTURING"},{"name":"1200k","state":"CAPTURING"}],"captureEngine":"10.249.35.192"}]}}
BUZZR-NY,"CAPTURING","resourceMpd":"http://cep.mos.hcvlny.cv.net/live/BUZZR-NY/MPD","streams":[{"name":"300k","state":"CAPTURING"},{"name":"625k","state":"CAPTURING"},{"name":"925k","state":"CAPTURING"},{"name":"1200k","state":"CAPTURING"}],"captureEngine":"10.249.35.197"}]}}
BUZZR-PHILLY,"CAPTURING","resourceMpd":"http://cep.mos.hcvlny.cv.net/live/BUZZR-PHILLY/MPD","streams":[{"name":"300k","state":"CAPTURING"},{"name":"625k","state":"CAPTURING"},{"name":"925k","state":"CAPTURING"},{"name":"1200k","state":"CAPTURING"}],"captureEngine":"10.249.35.176"}]}}
BVISI,"CAPTURING","resourceMpd":"http://cep.mos.hcvlny.cv.net/live/BVISI/MPD","streams":[{"name":"300k","state":"CAPTURING"},{"name":"925k","state":"CAPTURING"},{"name":"625k","state":"CAPTURING"},{"name":"1200k","state":"CAPTURING"}],"captureEngine":"10.249.35.189"}]}}
CANS,"CAPTURING","resourceMpd":"http://cep.mos.hcvlny.cv.net/live/CANS/MPD","streams":[{"name":"300k","state":"CAPTURING"},{"name":"625k","state":"CAPTURING"},{"name":"925k","state":"CAPTURING"},{"name":"1200k","state":"CAPTURING"}],"captureEngine":"10.249.35.185"}]}}
CAS,"CAPTURING","resourceMpd":"http://cep.mos.hcvlny.cv.net/live/CAS/MPD","streams":[{"name":"300k","state":"CAPTURING"},{"name":"625k","state":"CAPTURING"},{"name":"925k","state":"CAPTURING"},{"name":"1200k","state":"CAPTURING"}],"captureEngine":"10.249.35.200"}]}}
C1R,"CAPTURING","resourceMpd":"http://cep.mos.hcvlny.cv.net/live/C1R/MPD","streams":[{"name":"300k","state":"CAPTURING"},{"name":"625k","state":"CAPTURING"},{"name":"925k","state":"CAPTURING"},{"name":"1200k","state":"CAPTURING"}],"captureEngine":"10.249.35.190"}]}}
Carib,"CAPTURING","resourceMpd":"http://cep.mos.hcvlny.cv.net/live/Carib/MPD","streams":[{"name":"300k","state":"CAPTURING"},{"name":"925k","state":"CAPTURING"},{"name":"625k","state":"CAPTURING"},{"name":"1200k","state":"CAPTURING"}],"captureEngine":"10.249.35.161"}]}}
CARAC,"CAPTURING","resourceMpd":"http://cep.mos.hcvlny.cv.net/live/CARAC/MPD","streams":[{"name":"300k","state":"CAPTURING"},{"name":"625k","state":"CAPTURING"},{"name":"925k","state":"CAPTURING"},{"name":"1200k","state":"CAPTURING"}],"captureEngine":"10.249.35.168"}]}}
CCTV4,"CAPTURING","resourceMpd":"http://cep.mos.hcvlny.cv.net/live/CCTV4/MPD","streams":[{"name":"300k","state":"CAPTURING"},{"name":"625k","state":"CAPTURING"},{"name":"925k","state":"CAPTURING"},{"name":"1200k","state":"CAPTURING"}],"captureEngine":"10.249.35.186"}]}}
CEEN,"CAPTURING","resourceMpd":"http://cep.mos.hcvlny.cv.net/live/CEEN/MPD","streams":[{"name":"300k","state":"CAPTURING"},{"name":"625k","state":"CAPTURING"},{"name":"925k","state":"CAPTURING"},{"name":"1200k","state":"CAPTURING"}],"captureEngine":"10.249.35.167"}]}}
centr,"FAILED","reason":"IngestFailure:IOM_DATA_TIMEOUT","streams":[{"name":"300k","state":"FAILED","reason":"IngestFailure:IOM_DATA_TIMEOUT"},{"name":"625k","state":"FAILED","reason":"Capture IPC Error"},{"name":"925k","state":"FAILED","reason":"Capture IPC Error"},{"name":"1200k","state":"FAILED","reason":"Capture IPC Error"}],"captureEngine":"10.249.35.191"}]}}
Ceeb,"CAPTURING","resourceMpd":"http://cep.mos.hcvlny.cv.net/live/Ceeb/MPD","streams":[{"name":"300k","state":"CAPTURING"},{"name":"625k","state":"CAPTURING"},{"name":"925k","state":"CAPTURING"},{"name":"1200k","state":"CAPTURING"}],"captureEngine":"10.249.35.195"}]}}
CHILL,"CAPTURING","resourceMpd":"http://cep.mos.hcvlny.cv.net/live/CHILL/MPD","streams":[{"name":"300k","state":"CAPTURING"},{"name":"625k","state":"CAPTURING"},{"name":"925k","state":"CAPTURING"},{"name":"1200k","state":"CAPTURING"}],"captureEngine":"10.249.35.175"}]}}
cloo,"CAPTURING","resourceMpd":"http://cep.mos.hcvlny.cv.net/live/cloo/MPD","streams":[{"name":"300k","state":"CAPTURING"},{"name":"625k","state":"CAPTURING"},{"name":"925k","state":"CAPTURING"},{"name":"1200k","state":"CAPTURING"}],"captureEngine":"10.249.35.160"}]}}
COMC,"CAPTURING","resourceMpd":"http://cep.mos.hcvlny.cv.net/live/COMC/MPD","streams":[{"name":"300k","state":"CAPTURING"},{"name":"625k","state":"CAPTURING"},{"name":"925k","state":"CAPTURING"},{"name":"1200k","state":"CAPTURING"}],"captureEngine":"10.249.35.188"}]}}
Cine,"CAPTURING","resourceMpd":"http://cep.mos.hcvlny.cv.net/live/Cine/MPD","streams":[{"name":"300k","state":"CAPTURING"},{"name":"625k","state":"CAPTURING"},{"name":"925k","state":"CAPTURING"},{"name":"1200k","state":"CAPTURING"}],"captureEngine":"10.249.35.156"}]}}
CNNE,"CAPTURING","resourceMpd":"http://cep.mos.hcvlny.cv.net/live/CNNE/MPD","streams":[{"name":"300k","state":"CAPTURING"},{"name":"625k","state":"CAPTURING"},{"name":"925k","state":"CAPTURING"},{"name":"1200k","state":"CAPTURING"}],"captureEngine":"10.249.35.180"}]}}
CMEXI,"CAPTURING","resourceMpd":"http://cep.mos.hcvlny.cv.net/live/CMEXI/MPD","streams":[{"name":"300k","state":"CAPTURING"},{"name":"625k","state":"CAPTURING"},{"name":"925k","state":"CAPTURING"},{"name":"1200k","state":"CAPTURING"}],"captureEngine":"10.249.35.162"}]}}
COZI-HAMILTON,"CAPTURING","resourceMpd":"http://cep.mos.hcvlny.cv.net/live/COZI-HAMILTON/MPD","streams":[{"name":"300k","state":"CAPTURING"},{"name":"625k","state":"CAPTURING"},{"name":"925k","state":"CAPTURING"},{"name":"1200k","state":"CAPTURING"}],"captureEngine":"10.249.35.172"}]}}
CPTV4,"CAPTURING","resourceMpd":"http://cep.mos.hcvlny.cv.net/live/CPTV4/MPD","streams":[{"name":"300k","state":"CAPTURING"},{"name":"625k","state":"CAPTURING"},{"name":"925k","state":"CAPTURING"},{"name":"1200k","state":"CAPTURING"}],"captureEngine":"10.249.35.182"}]}}
CPTVS-NORWALK,"CAPTURING","resourceMpd":"http://cep.mos.hcvlny.cv.net/live/CPTVS-NORWALK/MPD","streams":[{"name":"300k","state":"CAPTURING"},{"name":"625k","state":"CAPTURING"},{"name":"925k","state":"CAPTURING"},{"name":"1200k","state":"CAPTURING"}],"captureEngine":"10.249.35.157"}]}}
COZI-16X9,"CAPTURING","resourceMpd":"http://cep.mos.hcvlny.cv.net/live/COZI-16X9/MPD","streams":[{"name":"300k","state":"CAPTURING"},{"name":"625k","state":"CAPTURING"},{"name":"925k","state":"CAPTURING"},{"name":"1200k","state":"CAPTURING"}],"captureEngine":"10.249.35.166"}]}}
CPTVS-LITCH,"CAPTURING","resourceMpd":"http://cep.mos.hcvlny.cv.net/live/CPTVS-LITCH/MPD","streams":[{"name":"300k","state":"CAPTURING"},{"name":"625k","state":"CAPTURING"},{"name":"925k","state":"CAPTURING"},{"name":"1200k","state":"CAPTURING"}],"captureEngine":"10.249.35.199"}]}}
CSPN,"CAPTURING","resourceMpd":"http://cep.mos.hcvlny.cv.net/live/CSPN/MPD","streams":[{"name":"300k","state":"CAPTURING"},{"name":"625k","state":"CAPTURING"},{"name":"925k","state":"CAPTURING"},{"name":"1200k","state":"CAPTURING"}],"captureEngine":"10.249.35.171"}]}}
CSP2,"CAPTURING","resourceMpd":"http://cep.mos.hcvlny.cv.net/live/CSP2/MPD","streams":[{"name":"300k","state":"CAPTURING"},{"name":"625k","state":"CAPTURING"},{"name":"925k","state":"CAPTURING"},{"name":"1200k","state":"CAPTURING"}],"captureEngine":"10.249.35.193"}]}}
CTRLA,"CAPTURING","resourceMpd":"http://cep.mos.hcvlny.cv.net/live/CTRLA/MPD","streams":[{"name":"300k","state":"CAPTURING"},{"name":"625k","state":"CAPTURING"},{"name":"925k","state":"CAPTURING"},{"name":"1200k","state":"CAPTURING"}],"captureEngine":"10.249.35.170"}]}}
CT-N,"CAPTURING","resourceMpd":"http://cep.mos.hcvlny.cv.net/live/CT-N/MPD","streams":[{"name":"300k","state":"CAPTURING"},{"name":"625k","state":"CAPTURING"},{"name":"925k","state":"CAPTURING"},{"name":"1200k","state":"CAPTURING"}],"captureEngine":"10.249.35.164"}]}}
CTC,"CAPTURING","resourceMpd":"http://cep.mos.hcvlny.cv.net/live/CTC/MPD","streams":[{"name":"300k","state":"CAPTURING"},{"name":"625k","state":"CAPTURING"},{"name":"925k","state":"CAPTURING"},{"name":"1200k","state":"CAPTURING"}],"captureEngine":"10.249.35.169"}]}}
CTSAM,"FAILED","reason":"IngestFailure:IOM_DATA_TIMEOUT","streams":[{"name":"300k","state":"FAILED","reason":"IngestFailure:IOM_DATA_TIMEOUT"},{"name":"925k","state":"CANCELED"},{"name":"625k","state":"CANCELED"},{"name":"1200k","state":"CANCELED"}],"captureEngine":"10.249.35.159"}]}}
Cuba,"CAPTURING","resourceMpd":"http://cep.mos.hcvlny.cv.net/live/Cuba/MPD","streams":[{"name":"300k","state":"CAPTURING"},{"name":"625k","state":"CAPTURING"},{"name":"925k","state":"CAPTURING"},{"name":"1200k","state":"CAPTURING"}],"captureEngine":"10.249.35.165"}]}}
CW20,"CAPTURING","resourceMpd":"http://cep.mos.hcvlny.cv.net/live/CW20/MPD","streams":[{"name":"625k","state":"CAPTURING"},{"name":"300k","state":"CAPTURING"},{"name":"925k","state":"CAPTURING"},{"name":"1200k","state":"CAPTURING"}],"captureEngine":"10.249.35.191"}]}}
CW57,"CAPTURING","resourceMpd":"http://cep.mos.hcvlny.cv.net/live/CW57/MPD","streams":[{"name":"300k","state":"CAPTURING"},{"name":"625k","state":"CAPTURING"},{"name":"925k","state":"CAPTURING"},{"name":"1200k","state":"CAPTURING"}],"captureEngine":"10.249.35.165"}]}}
N12JH,"CAPTURING","resourceMpd":"http://cep.mos.hcvlny.cv.net/live/N12JH/MPD","streams":[{"name":"450k","state":"CAPTURING"},{"name":"600k","state":"CAPTURING"},{"name":"1000k","state":"CAPTURING"},{"name":"1500k","state":"CAPTURING"},{"name":"2200k","state":"CAPTURING"},{"name":"4000k","state":"CAPTURING"}],"captureEngine":"10.249.35.192"}]}}
N12JH-2,"CAPTURING","resourceMpd":"http://cep.mos.hcvlny.cv.net/live/N12JH-2/MPD","streams":[{"name":"450k","state":"CAPTURING"},{"name":"600k","state":"CAPTURING"},{"name":"1000k","state":"CAPTURING"},{"name":"1500k","state":"CAPTURING"},{"name":"2200k","state":"CAPTURING"},{"name":"4000k","state":"CAPTURING"}],"captureEngine":"10.249.35.159"}]}}
N12JH-3,"CAPTURING","resourceMpd":"http://cep.mos.hcvlny.cv.net/live/N12JH-3/MPD","streams":[{"name":"450k","state":"CAPTURING"},{"name":"600k","state":"CAPTURING"},{"name":"1000k","state":"CAPTURING"},{"name":"1500k","state":"CAPTURING"},{"name":"2200k","state":"CAPTURING"},{"name":"4000k","state":"CAPTURING"}],"captureEngine":"10.249.35.156"}]}}
DECAD-PHILLY,"CAPTURING","resourceMpd":"http://cep.mos.hcvlny.cv.net/live/DECAD-PHILLY/MPD","streams":[{"name":"300k","state":"CAPTURING"},{"name":"625k","state":"CAPTURING"},{"name":"925k","state":"CAPTURING"},{"name":"1200k","state":"CAPTURING"}],"captureEngine":"10.249.35.158"}]}}
N12HH,"CAPTURING","resourceMpd":"http://cep.mos.hcvlny.cv.net/live/N12HH/MPD","streams":[{"name":"1000k","state":"CAPTURING"},{"name":"450k","state":"CAPTURING"},{"name":"600k","state":"CAPTURING"},{"name":"1500k","state":"CAPTURING"},{"name":"2200k","state":"CAPTURING"},{"name":"4000k","state":"CAPTURING"}],"captureEngine":"10.249.35.179"}]}}
DISCL,"FAILED","reason":"IngestFailure:IOM_DATA_TIMEOUT","streams":[{"name":"300k","state":"FAILED","reason":"IngestFailure:IOM_DATA_TIMEOUT"},{"name":"625k","state":"FAILED","reason":"Capture IPC Error"},{"name":"925k","state":"FAILED","reason":"Capture IPC Error"},{"name":"1200k","state":"FAILED","reason":"IngestFailure:IOM_DATA_TIMEOUT"}],"captureEngine":"10.249.35.174"}]}}
DISE,"CAPTURING","resourceMpd":"http://cep.mos.hcvlny.cv.net/live/DISE/MPD","streams":[{"name":"300k","state":"CAPTURING"},{"name":"625k","state":"CAPTURING"},{"name":"925k","state":"CAPTURING"},{"name":"1200k","state":"CAPTURING"}],"captureEngine":"10.249.35.194"}]}}
DISF,"CAPTURING","resourceMpd":"http://cep.mos.hcvlny.cv.net/live/DISF/MPD","streams":[{"name":"300k","state":"CAPTURING"},{"name":"625k","state":"CAPTURING"},{"name":"925k","state":"CAPTURING"},{"name":"1200k","state":"CAPTURING"}],"captureEngine":"10.249.35.179"}]}}
DOMV,"CAPTURING","resourceMpd":"http://cep.mos.hcvlny.cv.net/live/DOMV/MPD","streams":[{"name":"300k","state":"CAPTURING"},{"name":"625k","state":"CAPTURING"},{"name":"925k","state":"CAPTURING"},{"name":"1200k","state":"CAPTURING"}],"captureEngine":"10.249.35.174"}]}}
DOPP,"CAPTURING","resourceMpd":"http://cep.mos.hcvlny.cv.net/live/DOPP/MPD","streams":[{"name":"300k","state":"CAPTURING"},{"name":"625k","state":"CAPTURING"},{"name":"925k","state":"CAPTURING"},{"name":"1200k","state":"CAPTURING"}],"captureEngine":"10.249.35.198"}]}}
DWTV,"CAPTURING","resourceMpd":"http://cep.mos.hcvlny.cv.net/live/DWTV/MPD","streams":[{"name":"300k","state":"CAPTURING"},{"name":"625k","state":"CAPTURING"},{"name":"925k","state":"CAPTURING"},{"name":"1200k","state":"CAPTURING"}],"captureEngine":"10.249.35.171"}]}}
EJTV,"CAPTURING","resourceMpd":"http://cep.mos.hcvlny.cv.net/live/EJTV/MPD","streams":[{"name":"300k","state":"CAPTURING"},{"name":"625k","state":"CAPTURING"},{"name":"925k","state":"CAPTURING"},{"name":"1200k","state":"CAPTURING"}],"captureEngine":"10.249.35.178"}]}}
ECUVI,"CAPTURING","resourceMpd":"http://cep.mos.hcvlny.cv.net/live/ECUVI/MPD","streams":[{"name":"300k","state":"CAPTURING"},{"name":"625k","state":"CAPTURING"},{"name":"925k","state":"CAPTURING"},{"name":"1200k","state":"CAPTURING"}],"captureEngine":"10.249.35.163"}]}}
ELGAR,"CAPTURING","resourceMpd":"http://cep.mos.hcvlny.cv.net/live/ELGAR/MPD","streams":[{"name":"300k","state":"CAPTURING"},{"name":"625k","state":"CAPTURING"},{"name":"925k","state":"CAPTURING"},{"name":"1200k","state":"CAPTURING"}],"captureEngine":"10.249.35.163"}]}}
ELGMT,"CAPTURING","resourceMpd":"http://cep.mos.hcvlny.cv.net/live/ELGMT/MPD","streams":[{"name":"300k","state":"CAPTURING"},{"name":"625k","state":"CAPTURING"},{"name":"925k","state":"CAPTURING"},{"name":"1200k","state":"CAPTURING"}],"captureEngine":"10.249.35.183"}]}}
ENCA,"CAPTURING","resourceMpd":"http://cep.mos.hcvlny.cv.net/live/ENCA/MPD","streams":[{"name":"300k","state":"CAPTURING"},{"name":"625k","state":"CAPTURING"},{"name":"925k","state":"CAPTURING"},{"name":"1200k","state":"CAPTURING"}],"captureEngine":"10.249.35.169"}]}}
ENCF,"CAPTURING","resourceMpd":"http://cep.mos.hcvlny.cv.net/live/ENCF/MPD","streams":[{"name":"300k","state":"CAPTURING"},{"name":"625k","state":"CAPTURING"},{"name":"925k","state":"CAPTURING"},{"name":"1200k","state":"CAPTURING"}],"captureEngine":"10.249.35.169"}]}}
ENCS,"CAPTURING","resourceMpd":"http://cep.mos.hcvlny.cv.net/live/ENCS/MPD","streams":[{"name":"300k","state":"CAPTURING"},{"name":"625k","state":"CAPTURING"},{"name":"925k","state":"CAPTURING"},{"name":"1200k","state":"CAPTURING"}],"captureEngine":"10.249.35.183"}]}}
ENCWS,"CAPTURING","resourceMpd":"http://cep.mos.hcvlny.cv.net/live/ENCWS/MPD","streams":[{"name":"300k","state":"CAPTURING"},{"name":"625k","state":"CAPTURING"},{"name":"925k","state":"CAPTURING"},{"name":"1200k","state":"CAPTURING"}],"captureEngine":"10.249.35.183"}]}}
ENCw,"CAPTURING","resourceMpd":"http://cep.mos.hcvlny.cv.net/live/ENCw/MPD","streams":[{"name":"300k","state":"CAPTURING"},{"name":"625k","state":"CAPTURING"},{"name":"925k","state":"CAPTURING"},{"name":"1200k","state":"CAPTURING"}],"captureEngine":"10.249.35.194"}]}}
ENLA,"CAPTURING","resourceMpd":"http://cep.mos.hcvlny.cv.net/live/ENLA/MPD","streams":[{"name":"300k","state":"CAPTURING"},{"name":"625k","state":"CAPTURING"},{"name":"925k","state":"CAPTURING"},{"name":"1200k","state":"CAPTURING"}],"captureEngine":"10.249.35.178"}]}}
EPL1,"FAILED","reason":"IngestFailure:IOM_DATA_TIMEOUT","streams":[{"name":"625k","state":"CANCELED"},{"name":"300k","state":"CANCELED"},{"name":"925k","state":"FAILED","reason":"IngestFailure:IOM_DATA_TIMEOUT"},{"name":"1200k","state":"CANCELED"}],"captureEngine":"10.249.35.199"}]}}
EPL2,"FAILED","reason":"IngestFailure:IOM_DATA_TIMEOUT","streams":[{"name":"300k","state":"FAILED","reason":"IngestFailure:IOM_DATA_TIMEOUT"},{"name":"625k","state":"FAILED","reason":"Capture IPC Error"},{"name":"925k","state":"FAILED","reason":"Capture IPC Error"},{"name":"1200k","state":"CANCELED"}],"captureEngine":"10.249.35.170"}]}}
EPL4,"FAILED","reason":"IngestFailure:IOM_DATA_TIMEOUT","streams":[{"name":"300k","state":"FAILED","reason":"IngestFailure:IOM_DATA_TIMEOUT"},{"name":"625k","state":"FAILED","reason":"Capture IPC Error"},{"name":"925k","state":"CANCELED"},{"name":"1200k","state":"CANCELED"}],"captureEngine":"10.249.35.175"}]}}
EPL5,"FAILED","reason":"IngestFailure:IOM_DATA_TIMEOUT","streams":[{"name":"300k","state":"FAILED","reason":"IngestFailure:IOM_DATA_TIMEOUT"},{"name":"625k","state":"FAILED","reason":"Capture IPC Error"},{"name":"925k","state":"FAILED","reason":"Capture IPC Error"},{"name":"1200k","state":"FAILED","reason":"Capture IPC Error"}],"captureEngine":"10.249.35.170"}]}}
EPL3,"FAILED","reason":"IngestFailure:IOM_DATA_TIMEOUT","streams":[{"name":"300k","state":"FAILED","reason":"Capture IPC Error"},{"name":"625k","state":"FAILED","reason":"IngestFailure:IOM_DATA_TIMEOUT"},{"name":"925k","state":"FAILED","reason":"Capture IPC Error"},{"name":"1200k","state":"FAILED","reason":"Capture IPC Error"}],"captureEngine":"10.249.35.196"}]}}
EPL6,"FAILED","reason":"Capture IPC Error","streams":[{"name":"300k","state":"FAILED","reason":"Capture IPC Error"},{"name":"625k","state":"FAILED","reason":"Capture IPC Error"},{"name":"925k","state":"FAILED","reason":"IngestFailure:IOM_DATA_TIMEOUT"},{"name":"1200k","state":"FAILED","reason":"Capture IPC Error"}],"captureEngine":"10.249.35.173"}]}}
EPL7,"FAILED","reason":"IngestFailure:IOM_DATA_TIMEOUT","streams":[{"name":"300k","state":"FAILED","reason":"IngestFailure:IOM_DATA_TIMEOUT"},{"name":"625k","state":"FAILED","reason":"Capture IPC Error"},{"name":"925k","state":"FAILED","reason":"Capture IPC Error"},{"name":"1200k","state":"FAILED","reason":"Capture IPC Error"}],"captureEngine":"10.249.35.158"}]}}
ESCTV,"CAPTURING","resourceMpd":"http://cep.mos.hcvlny.cv.net/live/ESCTV/MPD","streams":[{"name":"300k","state":"CAPTURING"},{"name":"625k","state":"CAPTURING"},{"name":"925k","state":"CAPTURING"},{"name":"1200k","state":"CAPTURING"}],"captureEngine":"10.249.35.186"}]}}
estre,"CAPTURING","resourceMpd":"http://cep.mos.hcvlny.cv.net/live/estre/MPD","streams":[{"name":"300k","state":"CAPTURING"},{"name":"625k","state":"CAPTURING"},{"name":"925k","state":"CAPTURING"},{"name":"1200k","state":"CAPTURING"}],"captureEngine":"10.249.35.182"}]}}
ESPND,"CAPTURING","resourceMpd":"http://cep.mos.hcvlny.cv.net/live/ESPND/MPD","streams":[{"name":"300k","state":"CAPTURING"},{"name":"625k","state":"CAPTURING"},{"name":"925k","state":"CAPTURING"},{"name":"1200k","state":"CAPTURING"}],"captureEngine":"10.249.35.191"}]}}
ESPC,"CAPTURING","resourceMpd":"http://cep.mos.hcvlny.cv.net/live/ESPC/MPD","streams":[{"name":"300k","state":"CAPTURING"},{"name":"1200k","state":"CAPTURING"},{"name":"625k","state":"CAPTURING"},{"name":"925k","state":"CAPTURING"}],"captureEngine":"10.249.35.168"}]}}
ETTV,"CAPTURING","resourceMpd":"http://cep.mos.hcvlny.cv.net/live/ETTV/MPD","streams":[{"name":"300k","state":"CAPTURING"},{"name":"625k","state":"CAPTURING"},{"name":"925k","state":"CAPTURING"},{"name":"1200k","state":"CAPTURING"}],"captureEngine":"10.249.35.157"}]}}
EURO,"FAILED","resourceMpd":"http://cep.mos.hcvlny.cv.net/live/EURO/MPD","reason":"Capture IPC Error","streams":[{"name":"625k","state":"FAILED","reason":"Capture IPC Error"},{"name":"300k","state":"FAILED"},{"name":"925k","state":"FAILED","reason":"Capture IPC Error"},{"name":"1200k","state":"FAILED"}],"captureEngine":"10.249.35.169"}]}}
EWTN,"CAPTURING","resourceMpd":"http://cep.mos.hcvlny.cv.net/live/EWTN/MPD","streams":[{"name":"300k","state":"CAPTURING"},{"name":"625k","state":"CAPTURING"},{"name":"925k","state":"CAPTURING"},{"name":"1200k","state":"CAPTURING"}],"captureEngine":"10.249.35.193"}]}}
EXITV,"CAPTURING","resourceMpd":"http://cep.mos.hcvlny.cv.net/live/EXITV/MPD","streams":[{"name":"300k","state":"CAPTURING"},{"name":"625k","state":"CAPTURING"},{"name":"925k","state":"CAPTURING"},{"name":"1200k","state":"CAPTURING"}],"captureEngine":"10.249.35.199"}]}}
EWTNe,"CAPTURING","resourceMpd":"http://cep.mos.hcvlny.cv.net/live/EWTNe/MPD","streams":[{"name":"300k","state":"CAPTURING"},{"name":"625k","state":"CAPTURING"},{"name":"925k","state":"CAPTURING"},{"name":"1200k","state":"CAPTURING"}],"captureEngine":"10.249.35.197"}]}}
FAMZ,"CAPTURING","resourceMpd":"http://cep.mos.hcvlny.cv.net/live/FAMZ/MPD","streams":[{"name":"300k","state":"CAPTURING"},{"name":"625k","state":"CAPTURING"},{"name":"925k","state":"CAPTURING"},{"name":"1200k","state":"CAPTURING"}],"captureEngine":"10.249.35.198"}]}}
FCSA,"CAPTURING","resourceMpd":"http://cep.mos.hcvlny.cv.net/live/FCSA/MPD","streams":[{"name":"300k","state":"CAPTURING"},{"name":"925k","state":"CAPTURING"},{"name":"625k","state":"CAPTURING"},{"name":"1200k","state":"CAPTURING"}],"captureEngine":"10.249.35.171"}]}}
FCSP,"CAPTURING","resourceMpd":"http://cep.mos.hcvlny.cv.net/live/FCSP/MPD","streams":[{"name":"300k","state":"CAPTURING"},{"name":"625k","state":"CAPTURING"},{"name":"925k","state":"CAPTURING"},{"name":"1200k","state":"CAPTURING"}],"captureEngine":"10.249.35.176"}]}}
FCSC,"CAPTURING","resourceMpd":"http://cep.mos.hcvlny.cv.net/live/FCSC/MPD","streams":[{"name":"300k","state":"CAPTURING"},{"name":"625k","state":"CAPTURING"},{"name":"925k","state":"CAPTURING"},{"name":"1200k","state":"CAPTURING"}],"captureEngine":"10.249.35.201"}]}}
FIGHT,"FAILED","reason":"IngestFailure:IOM_DATA_TIMEOUT","streams":[{"name":"300k","state":"FAILED","reason":"IngestFailure:IOM_DATA_TIMEOUT"},{"name":"625k","state":"FAILED","reason":"Capture IPC Error"},{"name":"925k","state":"CANCELED"},{"name":"1200k","state":"CANCELED"}],"captureEngine":"10.249.35.194"}]}}
FORO,"CAPTURING","resourceMpd":"http://cep.mos.hcvlny.cv.net/live/FORO/MPD","streams":[{"name":"300k","state":"CAPTURING"},{"name":"625k","state":"CAPTURING"},{"name":"925k","state":"CAPTURING"},{"name":"1200k","state":"CAPTURING"}],"captureEngine":"10.249.35.158"}]}}
FLIX,"CAPTURING","resourceMpd":"http://cep.mos.hcvlny.cv.net/live/FLIX/MPD","streams":[{"name":"300k","state":"CAPTURING"},{"name":"625k","state":"CAPTURING"},{"name":"925k","state":"CAPTURING"},{"name":"1200k","state":"CAPTURING"}],"captureEngine":"10.249.35.169"}]}}
Fr24,"CAPTURING","resourceMpd":"http://cep.mos.hcvlny.cv.net/live/Fr24/MPD","streams":[{"name":"300k","state":"CAPTURING"},{"name":"625k","state":"CAPTURING"},{"name":"925k","state":"CAPTURING"},{"name":"1200k","state":"CAPTURING"}],"captureEngine":"10.249.35.192"}]}}
FNTSY,"CAPTURING","resourceMpd":"http://cep.mos.hcvlny.cv.net/live/FNTSY/MPD","streams":[{"name":"300k","state":"CAPTURING"},{"name":"625k","state":"CAPTURING"},{"name":"925k","state":"CAPTURING"},{"name":"1200k","state":"CAPTURING"}],"captureEngine":"10.249.35.189"}]}}
FOXDe,"CAPTURING","resourceMpd":"http://cep.mos.hcvlny.cv.net/live/FOXDe/MPD","streams":[{"name":"300k","state":"CAPTURING"},{"name":"625k","state":"CAPTURING"},{"name":"925k","state":"CAPTURING"},{"name":"1200k","state":"CAPTURING"}],"captureEngine":"10.249.35.171"}]}}
FS2,"CAPTURING","resourceMpd":"http://cep.mos.hcvlny.cv.net/live/FS2/MPD","streams":[{"name":"300k","state":"CAPTURING"},{"name":"625k","state":"CAPTURING"},{"name":"925k","state":"CAPTURING"},{"name":"1200k","state":"CAPTURING"}],"captureEngine":"10.249.35.172"}]}}
GACTV,"CAPTURING","resourceMpd":"http://cep.mos.hcvlny.cv.net/live/GACTV/MPD","streams":[{"name":"300k","state":"CAPTURING"},{"name":"625k","state":"CAPTURING"},{"name":"925k","state":"CAPTURING"},{"name":"1200k","state":"CAPTURING"}],"captureEngine":"10.249.35.158"}]}}
GLOBO,"CAPTURING","resourceMpd":"http://cep.mos.hcvlny.cv.net/live/GLOBO/MPD","streams":[{"name":"300k","state":"CAPTURING"},{"name":"625k","state":"CAPTURING"},{"name":"925k","state":"CAPTURING"},{"name":"1200k","state":"CAPTURING"}],"captureEngine":"10.249.35.188"}]}}
FXM,"FAILED","reason":"Capture IPC Error","streams":[{"name":"300k","state":"FAILED","reason":"Capture IPC Error"},{"name":"625k","state":"FAILED","reason":"IngestFailure:IOM_DATA_TIMEOUT"},{"name":"925k","state":"CANCELED"},{"name":"1200k","state":"CANCELED"}],"captureEngine":"10.249.35.194"}]}}
GMATV,"CAPTURING","resourceMpd":"http://cep.mos.hcvlny.cv.net/live/GMATV/MPD","streams":[{"name":"300k","state":"CAPTURING"},{"name":"625k","state":"CAPTURING"},{"name":"925k","state":"CAPTURING"},{"name":"1200k","state":"CAPTURING"}],"captureEngine":"10.249.35.195"}]}}
GOL,"CAPTURING","resourceMpd":"http://cep.mos.hcvlny.cv.net/live/GOL/MPD","streams":[{"name":"300k","state":"CAPTURING"},{"name":"625k","state":"CAPTURING"},{"name":"925k","state":"CAPTURING"},{"name":"1200k","state":"CAPTURING"}],"captureEngine":"10.249.35.166"}]}}
HISTE,"CAPTURING","resourceMpd":"http://cep.mos.hcvlny.cv.net/live/HISTE/MPD","streams":[{"name":"300k","state":"CAPTURING"},{"name":"625k","state":"CAPTURING"},{"name":"925k","state":"CAPTURING"},{"name":"1200k","state":"CAPTURING"}],"captureEngine":"10.249.35.162"}]}}
GSN,"CAPTURING","resourceMpd":"http://cep.mos.hcvlny.cv.net/live/GSN/MPD","streams":[{"name":"300k","state":"CAPTURING"},{"name":"625k","state":"CAPTURING"},{"name":"925k","state":"CAPTURING"},{"name":"1200k","state":"CAPTURING"}],"captureEngine":"10.249.35.196"}]}}
HBOL,"CAPTURING","resourceMpd":"http://cep.mos.hcvlny.cv.net/live/HBOL/MPD","streams":[{"name":"300k","state":"CAPTURING"},{"name":"625k","state":"CAPTURING"},{"name":"925k","state":"CAPTURING"},{"name":"1200k","state":"CAPTURING"}],"captureEngine":"10.249.35.177"}]}}
GolTV,"FAILED","reason":"IngestFailure:IOM_DATA_TIMEOUT","streams":[{"name":"300k","state":"CANCELED"},{"name":"625k","state":"FAILED","reason":"IngestFailure:IOM_DATA_TIMEOUT"},{"name":"925k","state":"CANCELED"},{"name":"1200k","state":"CANCELED"}],"captureEngine":"10.249.35.180"}]}}
HITN,"CAPTURING","resourceMpd":"http://cep.mos.hcvlny.cv.net/live/HITN/MPD","streams":[{"name":"300k","state":"CAPTURING"},{"name":"625k","state":"CAPTURING"},{"name":"925k","state":"CAPTURING"},{"name":"1200k","state":"CAPTURING"}],"captureEngine":"10.249.35.159"}]}}
HLN,"FAILED","reason":"IngestFailure:IOM_DATA_TIMEOUT","streams":[{"name":"300k","state":"CANCELED"},{"name":"625k","state":"FAILED","reason":"IngestFailure:IOM_DATA_TIMEOUT"},{"name":"925k","state":"CANCELED"},{"name":"1200k","state":"CANCELED"}],"captureEngine":"10.249.35.195"}]}}
HSNET,"CAPTURING","resourceMpd":"http://cep.mos.hcvlny.cv.net/live/HSNET/MPD","streams":[{"name":"300k","state":"CAPTURING"},{"name":"625k","state":"CAPTURING"},{"name":"925k","state":"CAPTURING"},{"name":"1200k","state":"CAPTURING"}],"captureEngine":"10.249.35.184"}]}}
HSN,"CAPTURING","resourceMpd":"http://cep.mos.hcvlny.cv.net/live/HSN/MPD","streams":[{"name":"300k","state":"CAPTURING"},{"name":"625k","state":"CAPTURING"},{"name":"925k","state":"CAPTURING"},{"name":"1200k","state":"CAPTURING"}],"captureEngine":"10.249.35.181"}]}}
HTV,"CAPTURING","resourceMpd":"http://cep.mos.hcvlny.cv.net/live/HTV/MPD","streams":[{"name":"300k","state":"CAPTURING"},{"name":"625k","state":"CAPTURING"},{"name":"925k","state":"CAPTURING"},{"name":"1200k","state":"CAPTURING"}],"captureEngine":"10.249.35.190"}]}}
ITVG,"CAPTURING","resourceMpd":"http://cep.mos.hcvlny.cv.net/live/ITVG/MPD","streams":[{"name":"300k","state":"CAPTURING"},{"name":"625k","state":"CAPTURING"},{"name":"925k","state":"CAPTURING"},{"name":"1200k","state":"CAPTURING"}],"captureEngine":"10.249.35.161"}]}}
HUB,"CAPTURING","resourceMpd":"http://cep.mos.hcvlny.cv.net/live/HUB/MPD","streams":[{"name":"300k","state":"CAPTURING"},{"name":"625k","state":"CAPTURING"},{"name":"925k","state":"CAPTURING"},{"name":"1200k","state":"CAPTURING"}],"captureEngine":"10.249.35.180"}]}}
JUSTV,"CAPTURING","resourceMpd":"http://cep.mos.hcvlny.cv.net/live/JUSTV/MPD","streams":[{"name":"300k","state":"CAPTURING"},{"name":"925k","state":"CAPTURING"},{"name":"625k","state":"CAPTURING"},{"name":"1200k","state":"CAPTURING"}],"captureEngine":"10.249.35.187"}]}}
INFI,"CAPTURING","resourceMpd":"http://cep.mos.hcvlny.cv.net/live/INFI/MPD","streams":[{"name":"300k","state":"CAPTURING"},{"name":"625k","state":"CAPTURING"},{"name":"925k","state":"CAPTURING"},{"name":"1200k","state":"CAPTURING"}],"captureEngine":"10.249.35.194"}]}}
iTVN,"CAPTURING","resourceMpd":"http://cep.mos.hcvlny.cv.net/live/iTVN/MPD","streams":[{"name":"300k","state":"CAPTURING"},{"name":"625k","state":"CAPTURING"},{"name":"925k","state":"CAPTURING"},{"name":"1200k","state":"CAPTURING"}],"captureEngine":"10.249.35.187"}]}}
KBSAM,"CAPTURING","resourceMpd":"http://cep.mos.hcvlny.cv.net/live/KBSAM/MPD","streams":[{"name":"300k","state":"CAPTURING"},{"name":"625k","state":"CAPTURING"},{"name":"925k","state":"CAPTURING"},{"name":"1200k","state":"CAPTURING"}],"captureEngine":"10.249.35.161"}]}}
LAFF-NY,"CAPTURING","resourceMpd":"http://cep.mos.hcvlny.cv.net/live/LAFF-NY/MPD","streams":[{"name":"300k","state":"CAPTURING"},{"name":"625k","state":"CAPTURING"},{"name":"925k","state":"CAPTURING"},{"name":"1200k","state":"CAPTURING"}],"captureEngine":"10.249.35.185"}]}}
LIFEK,"CAPTURING","resourceMpd":"http://cep.mos.hcvlny.cv.net/live/LIFEK/MPD","streams":[{"name":"300k","state":"CAPTURING"},{"name":"625k","state":"CAPTURING"},{"name":"925k","state":"CAPTURING"},{"name":"1200k","state":"CAPTURING"}],"captureEngine":"10.249.35.195"}]}}
LAFF-PHILLY,"CAPTURING","resourceMpd":"http://cep.mos.hcvlny.cv.net/live/LAFF-PHILLY/MPD","streams":[{"name":"300k","state":"CAPTURING"},{"name":"625k","state":"CAPTURING"},{"name":"925k","state":"CAPTURING"},{"name":"1200k","state":"CAPTURING"}],"captureEngine":"10.249.35.185"}]}}
LMN,"FAILED","reason":"IngestFailure:IOM_DATA_TIMEOUT","streams":[{"name":"300k","state":"FAILED","reason":"IngestFailure:IOM_DATA_TIMEOUT"},{"name":"625k","state":"FAILED","reason":"Capture IPC Error"},{"name":"925k","state":"FAILED","reason":"IngestFailure:IOM_DATA_TIMEOUT"},{"name":"1200k","state":"CANCELED"}],"captureEngine":"10.249.35.200"}]}}
MAVTV,"CAPTURING","resourceMpd":"http://cep.mos.hcvlny.cv.net/live/MAVTV/MPD","streams":[{"name":"300k","state":"CAPTURING"},{"name":"625k","state":"CAPTURING"},{"name":"925k","state":"CAPTURING"},{"name":"1200k","state":"CAPTURING"}],"captureEngine":"10.249.35.176"}]}}
MCHIC,"FAILED","reason":"IngestFailure:IOM_DATA_TIMEOUT","streams":[{"name":"300k","state":"FAILED","reason":"IngestFailure:IOM_DATA_TIMEOUT"},{"name":"625k","state":"CANCELED"},{"name":"925k","state":"CANCELED"},{"name":"1200k","state":"CANCELED"}],"captureEngine":"10.249.35.171"}]}}
LOGO,"CAPTURING","resourceMpd":"http://cep.mos.hcvlny.cv.net/live/LOGO/MPD","streams":[{"name":"300k","state":"CAPTURING"},{"name":"625k","state":"CAPTURING"},{"name":"925k","state":"CAPTURING"},{"name":"1200k","state":"CAPTURING"}],"captureEngine":"10.249.35.174"}]}}
MBC,"FAILED","reason":"IngestFailure:IOM_DATA_TIMEOUT","streams":[{"name":"300k","state":"FAILED","reason":"Capture IPC Error"},{"name":"625k","state":"FAILED","reason":"IngestFailure:IOM_DATA_TIMEOUT"},{"name":"925k","state":"FAILED","reason":"Capture IPC Error"},{"name":"1200k","state":"FAILED","reason":"Capture IPC Error"}],"captureEngine":"10.249.35.170"}]}}
MAX5,"CAPTURING","resourceMpd":"http://cep.mos.hcvlny.cv.net/live/MAX5/MPD","streams":[{"name":"300k","state":"CAPTURING"},{"name":"625k","state":"CAPTURING"},{"name":"925k","state":"CAPTURING"},{"name":"1200k","state":"CAPTURING"}],"captureEngine":"10.249.35.181"}]}}
MEGA,"CAPTURING","resourceMpd":"http://cep.mos.hcvlny.cv.net/live/MEGA/MPD","streams":[{"name":"300k","state":"CAPTURING"},{"name":"625k","state":"CAPTURING"},{"name":"925k","state":"CAPTURING"},{"name":"1200k","state":"CAPTURING"}],"captureEngine":"10.249.35.162"}]}}
MILI,"CAPTURING","resourceMpd":"http://cep.mos.hcvlny.cv.net/live/MILI/MPD","streams":[{"name":"300k","state":"CAPTURING"},{"name":"625k","state":"CAPTURING"},{"name":"925k","state":"CAPTURING"},{"name":"1200k","state":"CAPTURING"}],"captureEngine":"10.249.35.201"}]}}
MOMN,"CAPTURING","resourceMpd":"http://cep.mos.hcvlny.cv.net/live/MOMN/MPD","streams":[{"name":"300k","state":"CAPTURING"},{"name":"625k","state":"CAPTURING"},{"name":"925k","state":"CAPTURING"},{"name":"1200k","state":"CAPTURING"}],"captureEngine":"10.249.35.201"}]}}
MEXIC,"CAPTURING","resourceMpd":"http://cep.mos.hcvlny.cv.net/live/MEXIC/MPD","streams":[{"name":"300k","state":"CAPTURING"},{"name":"625k","state":"CAPTURING"},{"name":"925k","state":"CAPTURING"},{"name":"1200k","state":"CAPTURING"}],"captureEngine":"10.249.35.175"}]}}
MSET,"CAPTURING","resourceMpd":"http://cep.mos.hcvlny.cv.net/live/MSET/MPD","streams":[{"name":"300k","state":"CAPTURING"},{"name":"625k","state":"CAPTURING"},{"name":"925k","state":"CAPTURING"},{"name":"1200k","state":"CAPTURING"}],"captureEngine":"10.249.35.199"}]}}
STZBK,"FAILED","reason":"IngestFailure:IOM_DATA_TIMEOUT","streams":[{"name":"300k","state":"FAILED","reason":"Capture IPC Error"},{"name":"625k","state":"FAILED","reason":"IngestFailure:IOM_DATA_TIMEOUT"},{"name":"925k","state":"FAILED","reason":"Capture IPC Error"},{"name":"1200k","state":"FAILED","reason":"Capture IPC Error"}],"captureEngine":"10.249.35.162"}]}}
Mundo,"CAPTURING","resourceMpd":"http://cep.mos.hcvlny.cv.net/live/Mundo/MPD","streams":[{"name":"300k","state":"CAPTURING"},{"name":"625k","state":"CAPTURING"},{"name":"925k","state":"CAPTURING"},{"name":"1200k","state":"CAPTURING"}],"captureEngine":"10.249.35.184"}]}}
MTV3s,"CAPTURING","resourceMpd":"http://cep.mos.hcvlny.cv.net/live/MTV3s/MPD","streams":[{"name":"300k","state":"CAPTURING"},{"name":"625k","state":"CAPTURING"},{"name":"925k","state":"CAPTURING"},{"name":"1200k","state":"CAPTURING"}],"captureEngine":"10.249.35.159"}]}}
MUN2,"CAPTURING","resourceMpd":"http://cep.mos.hcvlny.cv.net/live/MUN2/MPD","streams":[{"name":"300k","state":"CAPTURING"},{"name":"625k","state":"CAPTURING"},{"name":"925k","state":"CAPTURING"},{"name":"1200k","state":"CAPTURING"}],"captureEngine":"10.249.35.163"}]}}
MUMR,"CAPTURING","resourceMpd":"http://cep.mos.hcvlny.cv.net/live/MUMR/MPD","streams":[{"name":"300k","state":"CAPTURING"},{"name":"625k","state":"CAPTURING"},{"name":"925k","state":"CAPTURING"},{"name":"1200k","state":"CAPTURING"}],"captureEngine":"10.249.35.198"}]}}
My17,"CAPTURING","resourceMpd":"http://cep.mos.hcvlny.cv.net/live/My17/MPD","streams":[{"name":"625k","state":"CAPTURING"},{"name":"300k","state":"CAPTURING"},{"name":"925k","state":"CAPTURING"},{"name":"1200k","state":"CAPTURING"}],"captureEngine":"10.249.35.176"}]}}
MVIES,"CAPTURING","resourceMpd":"http://cep.mos.hcvlny.cv.net/live/MVIES/MPD","streams":[{"name":"300k","state":"CAPTURING"},{"name":"625k","state":"CAPTURING"},{"name":"925k","state":"CAPTURING"},{"name":"1200k","state":"CAPTURING"}],"captureEngine":"10.249.35.163"}]}}
N12WC,"FAILED","reason":"IngestFailure:IOM_DATA_TIMEOUT","streams":[{"name":"300k","state":"FAILED","reason":"Capture IPC Error"},{"name":"625k","state":"FAILED","reason":"IngestFailure:IOM_DATA_TIMEOUT"},{"name":"925k","state":"CANCELED"},{"name":"1200k","state":"FAILED","reason":"Capture IPC Error"}],"captureEngine":"10.249.35.164"}]}}
NEXT,"FAILED","reason":"IngestFailure:IOM_DATA_TIMEOUT","streams":[{"name":"300k","state":"FAILED","reason":"IngestFailure:IOM_DATA_TIMEOUT"},{"name":"625k","state":"FAILED","reason":"Capture IPC Error"},{"name":"925k","state":"CANCELED"},{"name":"1200k","state":"FAILED","reason":"Capture IPC Error"}],"captureEngine":"10.249.35.170"}]}}
NECN,"CAPTURING","resourceMpd":"http://cep.mos.hcvlny.cv.net/live/NECN/MPD","streams":[{"name":"300k","state":"CAPTURING"},{"name":"625k","state":"CAPTURING"},{"name":"925k","state":"CAPTURING"},{"name":"1200k","state":"CAPTURING"}],"captureEngine":"10.249.35.192"}]}}
NFLN-NJ,"CAPTURING","resourceMpd":"http://cep.mos.hcvlny.cv.net/live/NFLN-NJ/MPD","streams":[{"name":"300k","state":"CAPTURING"},{"name":"625k","state":"CAPTURING"},{"name":"925k","state":"CAPTURING"},{"name":"1200k","state":"CAPTURING"}],"captureEngine":"10.249.35.172"}]}}
NFLN-CT,"CAPTURING","resourceMpd":"http://cep.mos.hcvlny.cv.net/live/NFLN-CT/MPD","streams":[{"name":"300k","state":"CAPTURING"},{"name":"625k","state":"CAPTURING"},{"name":"925k","state":"CAPTURING"},{"name":"1200k","state":"CAPTURING"}],"captureEngine":"10.249.35.166"}]}}
NFLN,"FAILED","reason":"IngestFailure:IOM_DATA_TIMEOUT","streams":[{"name":"300k","state":"CANCELED"},{"name":"625k","state":"CANCELED"},{"name":"925k","state":"CANCELED"},{"name":"1200k","state":"FAILED","reason":"IngestFailure:IOM_DATA_TIMEOUT"}],"captureEngine":"10.249.35.198"}]}}
NHK,"CAPTURING","resourceMpd":"http://cep.mos.hcvlny.cv.net/live/NHK/MPD","streams":[{"name":"300k","state":"CAPTURING"},{"name":"625k","state":"CAPTURING"},{"name":"925k","state":"CAPTURING"},{"name":"1200k","state":"CAPTURING"}],"captureEngine":"10.249.35.156"}]}}
NKTN,"CAPTURING","resourceMpd":"http://cep.mos.hcvlny.cv.net/live/NKTN/MPD","streams":[{"name":"300k","state":"CAPTURING"},{"name":"625k","state":"CAPTURING"},{"name":"925k","state":"CAPTURING"},{"name":"1200k","state":"CAPTURING"}],"captureEngine":"10.249.35.190"}]}}
NoirA,"CAPTURING","resourceMpd":"http://cep.mos.hcvlny.cv.net/live/NoirA/MPD","streams":[{"name":"300k","state":"CAPTURING"},{"name":"625k","state":"CAPTURING"},{"name":"925k","state":"CAPTURING"},{"name":"1200k","state":"CAPTURING"}],"captureEngine":"10.249.35.178"}]}}
NTDTV,"CAPTURING","resourceMpd":"http://cep.mos.hcvlny.cv.net/live/NTDTV/MPD","streams":[{"name":"300k","state":"CAPTURING"},{"name":"625k","state":"CAPTURING"},{"name":"925k","state":"CAPTURING"},{"name":"1200k","state":"CAPTURING"}],"captureEngine":"10.249.35.183"}]}}
NTVA,"CAPTURING","resourceMpd":"http://cep.mos.hcvlny.cv.net/live/NTVA/MPD","streams":[{"name":"300k","state":"CAPTURING"},{"name":"625k","state":"CAPTURING"},{"name":"925k","state":"CAPTURING"},{"name":"1200k","state":"CAPTURING"}],"captureEngine":"10.249.35.163"}]}}
NTN24,"CAPTURING","resourceMpd":"http://cep.mos.hcvlny.cv.net/live/NTN24/MPD","streams":[{"name":"300k","state":"CAPTURING"},{"name":"625k","state":"CAPTURING"},{"name":"925k","state":"CAPTURING"},{"name":"1200k","state":"CAPTURING"}],"captureEngine":"10.249.35.199"}]}}
NY1,"FAILED","reason":"IngestFailure:IOM_DATA_TIMEOUT","streams":[{"name":"300k","state":"FAILED","reason":"IngestFailure:IOM_DATA_TIMEOUT"},{"name":"625k","state":"FAILED","reason":"Capture IPC Error"},{"name":"925k","state":"FAILED","reason":"Capture IPC Error"},{"name":"1200k","state":"FAILED","reason":"Capture IPC Error"}],"captureEngine":"10.249.35.191"}]}}
NY1N,"FAILED","reason":"IngestFailure:IOM_DATA_TIMEOUT","streams":[{"name":"300k","state":"FAILED","reason":"IngestFailure:IOM_DATA_TIMEOUT"},{"name":"625k","state":"FAILED","reason":"Capture IPC Error"},{"name":"925k","state":"FAILED","reason":"Capture IPC Error"},{"name":"1200k","state":"CANCELED"}],"captureEngine":"10.249.35.193"}]}}
PASN,"FAILED","reason":"IngestFailure:IOM_DATA_TIMEOUT","streams":[{"name":"300k","state":"FAILED","reason":"IngestFailure:IOM_DATA_TIMEOUT"},{"name":"925k","state":"CANCELED"},{"name":"625k","state":"CANCELED"},{"name":"1200k","state":"CANCELED"}],"captureEngine":"10.249.35.156"}]}}
OWSPN,"CAPTURING","resourceMpd":"http://cep.mos.hcvlny.cv.net/live/OWSPN/MPD","streams":[{"name":"300k","state":"CAPTURING"},{"name":"625k","state":"CAPTURING"},{"name":"925k","state":"CAPTURING"},{"name":"1200k","state":"CAPTURING"}],"captureEngine":"10.249.35.173"}]}}
NYS,"FAILED","reason":"Capture IPC Error","streams":[{"name":"925k","state":"FAILED","reason":"Capture IPC Error"},{"name":"300k","state":"FAILED","reason":"Capture IPC Error"},{"name":"625k","state":"FAILED","reason":"IngestFailure:IOM_DATA_TIMEOUT"},{"name":"1200k","state":"FAILED","reason":"Capture IPC Error"}],"captureEngine":"10.249.35.160"}]}}
PERU,"CAPTURING","resourceMpd":"http://cep.mos.hcvlny.cv.net/live/PERU/MPD","streams":[{"name":"300k","state":"CAPTURING"},{"name":"625k","state":"CAPTURING"},{"name":"925k","state":"CAPTURING"},{"name":"1200k","state":"CAPTURING"}],"captureEngine":"10.249.35.167"}]}}
PLBY,"CAPTURING","resourceMpd":"http://cep.mos.hcvlny.cv.net/live/PLBY/MPD","streams":[{"name":"300k","state":"CAPTURING"},{"name":"625k","state":"CAPTURING"},{"name":"925k","state":"CAPTURING"},{"name":"1200k","state":"CAPTURING"}],"captureEngine":"10.249.35.168"}]}}
PLBYE,"CAPTURING","resourceMpd":"http://cep.mos.hcvlny.cv.net/live/PLBYE/MPD","streams":[{"name":"300k","state":"CAPTURING"},{"name":"625k","state":"CAPTURING"},{"name":"925k","state":"CAPTURING"},{"name":"1200k","state":"CAPTURING"}],"captureEngine":"10.249.35.170"}]}}
POP,"FAILED","reason":"Capture IPC Error","streams":[{"name":"300k","state":"FAILED","reason":"Capture IPC Error"},{"name":"625k","state":"FAILED","reason":"IngestFailure:IOM_DATA_TIMEOUT"},{"name":"925k","state":"FAILED","reason":"Capture IPC Error"},{"name":"1200k","state":"FAILED","reason":"Capture IPC Error"}],"captureEngine":"10.249.35.156"}]}}
PPV1,"CAPTURING","resourceMpd":"http://cep.mos.hcvlny.cv.net/live/PPV1/MPD","streams":[{"name":"300k","state":"CAPTURING"},{"name":"625k","state":"CAPTURING"},{"name":"925k","state":"CAPTURING"},{"name":"1200k","state":"CAPTURING"}],"captureEngine":"10.249.35.161"}]}}
PPV2,"CAPTURING","resourceMpd":"http://cep.mos.hcvlny.cv.net/live/PPV2/MPD","streams":[{"name":"300k","state":"CAPTURING"},{"name":"625k","state":"CAPTURING"},{"name":"925k","state":"CAPTURING"},{"name":"1200k","state":"CAPTURING"}],"captureEngine":"10.249.35.172"}]}}
PPV3,"CAPTURING","resourceMpd":"http://cep.mos.hcvlny.cv.net/live/PPV3/MPD","streams":[{"name":"300k","state":"CAPTURING"},{"name":"625k","state":"CAPTURING"},{"name":"925k","state":"CAPTURING"},{"name":"1200k","state":"CAPTURING"}],"captureEngine":"10.249.35.162"}]}}
PTVN,"CAPTURING","resourceMpd":"http://cep.mos.hcvlny.cv.net/live/PTVN/MPD","streams":[{"name":"300k","state":"CAPTURING"},{"name":"625k","state":"CAPTURING"},{"name":"925k","state":"CAPTURING"},{"name":"1200k","state":"CAPTURING"}],"captureEngine":"10.249.35.177"}]}}
PSTV,"CAPTURING","resourceMpd":"http://cep.mos.hcvlny.cv.net/live/PSTV/MPD","streams":[{"name":"300k","state":"CAPTURING"},{"name":"625k","state":"CAPTURING"},{"name":"925k","state":"CAPTURING"},{"name":"1200k","state":"CAPTURING"}],"captureEngine":"10.249.35.191"}]}}
QVC-PLUS,"FAILED","reason":"IngestFailure:IOM_DATA_TIMEOUT","streams":[{"name":"300k","state":"FAILED","reason":"IngestFailure:IOM_DATA_TIMEOUT"},{"name":"625k","state":"FAILED","reason":"Capture IPC Error"},{"name":"925k","state":"FAILED","reason":"Capture IPC Error"},{"name":"1200k","state":"FAILED","reason":"Capture IPC Error"}],"captureEngine":"10.249.35.160"}]}}
QVC-PLUS-2,"FAILED","reason":"IngestFailure:IOM_DATA_TIMEOUT","streams":[{"name":"300k","state":"CANCELED"},{"name":"625k","state":"CANCELED"},{"name":"925k","state":"CANCELED"},{"name":"1200k","state":"FAILED","reason":"IngestFailure:IOM_DATA_TIMEOUT"}],"captureEngine":"10.249.35.200"}]}}
REDZN,"CAPTURING","resourceMpd":"http://cep.mos.hcvlny.cv.net/live/REDZN/MPD","streams":[{"name":"300k","state":"CAPTURING"},{"name":"625k","state":"CAPTURING"},{"name":"925k","state":"CAPTURING"},{"name":"1200k","state":"CAPTURING"}],"captureEngine":"10.249.35.189"}]}}
RTN,"CAPTURING","resourceMpd":"http://cep.mos.hcvlny.cv.net/live/RTN/MPD","streams":[{"name":"300k","state":"CAPTURING"},{"name":"925k","state":"CAPTURING"},{"name":"625k","state":"CAPTURING"},{"name":"1200k","state":"CAPTURING"}],"captureEngine":"10.249.35.201"}]}}
RAI,"CAPTURING","resourceMpd":"http://cep.mos.hcvlny.cv.net/live/RAI/MPD","streams":[{"name":"300k","state":"CAPTURING"},{"name":"625k","state":"CAPTURING"},{"name":"925k","state":"CAPTURING"},{"name":"1200k","state":"CAPTURING"}],"captureEngine":"10.249.35.193"}]}}
RTPI,"CAPTURING","resourceMpd":"http://cep.mos.hcvlny.cv.net/live/RTPI/MPD","streams":[{"name":"300k","state":"CAPTURING"},{"name":"625k","state":"CAPTURING"},{"name":"925k","state":"CAPTURING"},{"name":"1200k","state":"CAPTURING"}],"captureEngine":"10.249.35.189"}]}}
RTVi,"CAPTURING","resourceMpd":"http://cep.mos.hcvlny.cv.net/live/RTVi/MPD","streams":[{"name":"300k","state":"CAPTURING"},{"name":"625k","state":"CAPTURING"},{"name":"925k","state":"CAPTURING"},{"name":"1200k","state":"CAPTURING"}],"captureEngine":"10.249.35.163"}]}}
SCCB,"CAPTURING","resourceMpd":"http://cep.mos.hcvlny.cv.net/live/SCCB/MPD","streams":[{"name":"625k","state":"CAPTURING"},{"name":"300k","state":"CAPTURING"},{"name":"925k","state":"CAPTURING"},{"name":"1200k","state":"CAPTURING"}],"captureEngine":"10.249.35.195"}]}}
RTR,"CAPTURING","resourceMpd":"http://cep.mos.hcvlny.cv.net/live/RTR/MPD","streams":[{"name":"300k","state":"CAPTURING"},{"name":"925k","state":"CAPTURING"},{"name":"625k","state":"CAPTURING"},{"name":"1200k","state":"CAPTURING"}],"captureEngine":"10.249.35.175"}]}}
Sem,"CAPTURING","resourceMpd":"http://cep.mos.hcvlny.cv.net/live/Sem/MPD","streams":[{"name":"625k","state":"CAPTURING"},{"name":"300k","state":"CAPTURING"},{"name":"925k","state":"CAPTURING"},{"name":"1200k","state":"CAPTURING"}],"captureEngine":"10.249.35.176"}]}}
SETA,"CAPTURING","resourceMpd":"http://cep.mos.hcvlny.cv.net/live/SETA/MPD","streams":[{"name":"300k","state":"CAPTURING"},{"name":"925k","state":"CAPTURING"},{"name":"625k","state":"CAPTURING"},{"name":"1200k","state":"CAPTURING"}],"captureEngine":"10.249.35.165"}]}}
SGOLD,"CAPTURING","resourceMpd":"http://cep.mos.hcvlny.cv.net/live/SGOLD/MPD","streams":[{"name":"300k","state":"CAPTURING"},{"name":"625k","state":"CAPTURING"},{"name":"925k","state":"CAPTURING"},{"name":"1200k","state":"CAPTURING"}],"captureEngine":"10.249.35.182"}]}}
Sino,"FAILED","reason":"IngestFailure:IOM_DATA_TIMEOUT","streams":[{"name":"300k","state":"FAILED","reason":"IngestFailure:IOM_DATA_TIMEOUT"},{"name":"625k","state":"CANCELED"},{"name":"925k","state":"FAILED","reason":"IngestFailure:IOM_DATA_TIMEOUT"},{"name":"1200k","state":"CANCELED"}],"captureEngine":"10.249.35.193"}]}}
SHALM,"CAPTURING","resourceMpd":"http://cep.mos.hcvlny.cv.net/live/SHALM/MPD","streams":[{"name":"300k","state":"CAPTURING"},{"name":"625k","state":"CAPTURING"},{"name":"925k","state":"CAPTURING"},{"name":"1200k","state":"CAPTURING"}],"captureEngine":"10.249.35.200"}]}}
SHOB,"CAPTURING","resourceMpd":"http://cep.mos.hcvlny.cv.net/live/SHOB/MPD","streams":[{"name":"300k","state":"CAPTURING"},{"name":"625k","state":"CAPTURING"},{"name":"925k","state":"CAPTURING"},{"name":"1200k","state":"CAPTURING"}],"captureEngine":"10.249.35.192"}]}}
SLATE,"FAILED","reason":"IngestFailure:IOM_DATA_TIMEOUT","streams":[{"name":"300k","state":"FAILED","reason":"IngestFailure:IOM_DATA_TIMEOUT"},{"name":"625k","state":"FAILED","reason":"Capture IPC Error"},{"name":"925k","state":"FAILED","reason":"Capture IPC Error"},{"name":"1200k","state":"FAILED","reason":"Capture IPC Error"}],"captureEngine":"10.249.35.198"}]}}
SNBC,"CAPTURING","resourceMpd":"http://cep.mos.hcvlny.cv.net/live/SNBC/MPD","streams":[{"name":"300k","state":"CAPTURING"},{"name":"625k","state":"CAPTURING"},{"name":"925k","state":"CAPTURING"},{"name":"1200k","state":"CAPTURING"}],"captureEngine":"10.249.35.188"}]}}
SP1,"FAILED","reason":"IngestFailure:IOM_DATA_TIMEOUT","streams":[{"name":"300k","state":"FAILED","reason":"IngestFailure:IOM_DATA_TIMEOUT"},{"name":"625k","state":"FAILED","reason":"Capture IPC Error"},{"name":"925k","state":"FAILED","reason":"Capture IPC Error"},{"name":"1200k","state":"FAILED","reason":"Capture IPC Error"}],"captureEngine":"10.249.35.182"}]}}
SP11,"CAPTURING","resourceMpd":"http://cep.mos.hcvlny.cv.net/live/SP11/MPD","streams":[{"name":"300k","state":"CAPTURING"},{"name":"625k","state":"CAPTURING"},{"name":"925k","state":"CAPTURING"},{"name":"1200k","state":"CAPTURING"}],"captureEngine":"10.249.35.196"}]}}
SORP,"FAILED","reason":"IngestFailure:IOM_DATA_TIMEOUT","streams":[{"name":"300k","state":"FAILED","reason":"IngestFailure:IOM_DATA_TIMEOUT"},{"name":"625k","state":"FAILED","reason":"Capture IPC Error"},{"name":"925k","state":"FAILED","reason":"Capture IPC Error"},{"name":"1200k","state":"FAILED","reason":"IngestFailure:IOM_DATA_TIMEOUT"}],"captureEngine":"10.249.35.194"}]}}
SP12,"CAPTURING","resourceMpd":"http://cep.mos.hcvlny.cv.net/live/SP12/MPD","streams":[{"name":"300k","state":"CAPTURING"},{"name":"625k","state":"CAPTURING"},{"name":"925k","state":"CAPTURING"},{"name":"1200k","state":"CAPTURING"}],"captureEngine":"10.249.35.197"}]}}
SP10,":[]}}
SP13,"CAPTURING","resourceMpd":"http://cep.mos.hcvlny.cv.net/live/SP13/MPD","streams":[{"name":"300k","state":"CAPTURING"},{"name":"625k","state":"CAPTURING"},{"name":"925k","state":"CAPTURING"},{"name":"1200k","state":"CAPTURING"}],"captureEngine":"10.249.35.166"}]}}
SP14,"CAPTURING","resourceMpd":"http://cep.mos.hcvlny.cv.net/live/SP14/MPD","streams":[{"name":"300k","state":"CAPTURING"},{"name":"625k","state":"CAPTURING"},{"name":"925k","state":"CAPTURING"},{"name":"1200k","state":"CAPTURING"}],"captureEngine":"10.249.35.179"}]}}
SP3,"FAILED","resourceMpd":"http://cep.mos.hcvlny.cv.net/live/SP3/MPD","reason":"IngestFailure:IOM_DATA_TIMEOUT","streams":[{"name":"300k","state":"FAILED","reason":"IngestFailure:IOM_DATA_TIMEOUT"},{"name":"625k","state":"FAILED","reason":"Capture IPC Error"},{"name":"925k","state":"FAILED","reason":"Capture IPC Error"},{"name":"1200k","state":"FAILED","reason":"Capture IPC Error"}],"captureEngine":"10.249.35.175"}]}}
SP2,"FAILED","resourceMpd":"http://cep.mos.hcvlny.cv.net/live/SP2/MPD","reason":"IngestFailure:IOM_DATA_TIMEOUT","streams":[{"name":"300k","state":"FAILED","reason":"IngestFailure:IOM_DATA_TIMEOUT"},{"name":"625k","state":"FAILED","reason":"Capture IPC Error"},{"name":"925k","state":"FAILED","reason":"Capture IPC Error"},{"name":"1200k","state":"FAILED","reason":"Capture IPC Error"}],"captureEngine":"10.249.35.180"}]}}
SP4,"FAILED","resourceMpd":"http://cep.mos.hcvlny.cv.net/live/SP4/MPD","reason":"IngestFailure:IOM_DATA_TIMEOUT","streams":[{"name":"925k","state":"FAILED","reason":"Capture IPC Error"},{"name":"300k","state":"FAILED","reason":"IngestFailure:IOM_DATA_TIMEOUT"},{"name":"625k","state":"FAILED","reason":"Capture IPC Error"},{"name":"1200k","state":"FAILED","reason":"IngestFailure:IOM_DATA_TIMEOUT"}],"captureEngine":"10.249.35.196"}]}}
SP7,"FAILED","resourceMpd":"http://cep.mos.hcvlny.cv.net/live/SP7/MPD","reason":"IngestFailure:IOM_DATA_TIMEOUT","streams":[{"name":"300k","state":"FAILED","reason":"IngestFailure:IOM_DATA_TIMEOUT"},{"name":"625k","state":"FAILED","reason":"Capture IPC Error"},{"name":"925k","state":"FAILED","reason":"Capture IPC Error"},{"name":"1200k","state":"CANCELED"}],"captureEngine":"10.249.35.199"}]}}
SP5,"FAILED","resourceMpd":"http://cep.mos.hcvlny.cv.net/live/SP5/MPD","reason":"IngestFailure:IOM_DATA_TIMEOUT","streams":[{"name":"300k","state":"FAILED","reason":"IngestFailure:IOM_DATA_TIMEOUT"},{"name":"625k","state":"FAILED","reason":"Capture IPC Error"},{"name":"925k","state":"FAILED","reason":"Capture IPC Error"},{"name":"1200k","state":"FAILED","reason":"Capture IPC Error"}],"captureEngine":"10.249.35.173"}]}}
SP9,"FAILED","resourceMpd":"http://cep.mos.hcvlny.cv.net/live/SP9/MPD","reason":"IngestFailure:IOM_DATA_TIMEOUT","streams":[{"name":"300k","state":"FAILED","reason":"IngestFailure:IOM_DATA_TIMEOUT"},{"name":"625k","state":"FAILED","reason":"Capture IPC Error"},{"name":"925k","state":"FAILED","reason":"Capture IPC Error"},{"name":"1200k","state":"CANCELED"}],"captureEngine":"10.249.35.158"}]}}
SP6,"FAILED","resourceMpd":"http://cep.mos.hcvlny.cv.net/live/SP6/MPD","reason":"IngestFailure:IOM_DATA_TIMEOUT","streams":[{"name":"300k","state":"FAILED","reason":"IngestFailure:IOM_DATA_TIMEOUT"},{"name":"625k","state":"FAILED","reason":"Capture IPC Error"},{"name":"925k","state":"FAILED","reason":"Capture IPC Error"},{"name":"1200k","state":"FAILED","reason":"IngestFailure:IOM_DATA_TIMEOUT"}],"captureEngine":"10.249.35.165"}]}}
SP8,"FAILED","resourceMpd":"http://cep.mos.hcvlny.cv.net/live/SP8/MPD","reason":"IngestFailure:IOM_DATA_TIMEOUT","streams":[{"name":"300k","state":"FAILED","reason":"IngestFailure:IOM_DATA_TIMEOUT"},{"name":"625k","state":"FAILED","reason":"Capture IPC Error"},{"name":"925k","state":"FAILED","reason":"Capture IPC Error"},{"name":"1200k","state":"FAILED","reason":"Capture IPC Error"}],"captureEngine":"10.249.35.190"}]}}
SPLUS,"CAPTURING","resourceMpd":"http://cep.mos.hcvlny.cv.net/live/SPLUS/MPD","streams":[{"name":"300k","state":"CAPTURING"},{"name":"625k","state":"CAPTURING"},{"name":"925k","state":"CAPTURING"},{"name":"1200k","state":"CAPTURING"}],"captureEngine":"10.249.35.168"}]}}
SPMN,"CAPTURING","resourceMpd":"http://cep.mos.hcvlny.cv.net/live/SPMN/MPD","streams":[{"name":"300k","state":"CAPTURING"},{"name":"625k","state":"CAPTURING"},{"name":"925k","state":"CAPTURING"},{"name":"1200k","state":"CAPTURING"}],"captureEngine":"10.249.35.169"}]}}
SPT,"CAPTURING","resourceMpd":"http://cep.mos.hcvlny.cv.net/live/SPT/MPD","streams":[{"name":"300k","state":"CAPTURING"},{"name":"625k","state":"CAPTURING"},{"name":"925k","state":"CAPTURING"},{"name":"1200k","state":"CAPTURING"}],"captureEngine":"10.249.35.192"}]}}
SPTS1,"FAILED","reason":"Capture IPC Error","streams":[{"name":"300k","state":"FAILED","reason":"Capture IPC Error"},{"name":"925k","state":"FAILED","reason":"IngestFailure:IOM_DATA_TIMEOUT"},{"name":"625k","state":"FAILED","reason":"IngestFailure:IOM_DATA_TIMEOUT"},{"name":"1200k","state":"FAILED","reason":"IngestFailure:IOM_DATA_TIMEOUT"}],"captureEngine":"10.249.35.187"}]}}
SPRT,"CAPTURING","resourceMpd":"http://cep.mos.hcvlny.cv.net/live/SPRT/MPD","streams":[{"name":"300k","state":"CAPTURING"},{"name":"625k","state":"CAPTURING"},{"name":"925k","state":"CAPTURING"},{"name":"1200k","state":"CAPTURING"}],"captureEngine":"10.249.35.159"}]}}
SPTS2,"FAILED","reason":"IngestFailure:IOM_DATA_TIMEOUT","streams":[{"name":"300k","state":"FAILED","reason":"IngestFailure:IOM_DATA_TIMEOUT"},{"name":"625k","state":"FAILED","reason":"Capture IPC Error"},{"name":"925k","state":"FAILED","reason":"Capture IPC Error"},{"name":"1200k","state":"FAILED","reason":"Capture IPC Error"}],"captureEngine":"10.249.35.158"}]}}
SPTS2-HAMIL,"FAILED","reason":"IngestFailure:IOM_DATA_TIMEOUT","streams":[{"name":"300k","state":"FAILED","reason":"IngestFailure:IOM_DATA_TIMEOUT"},{"name":"625k","state":"FAILED","reason":"Capture IPC Error"},{"name":"925k","state":"FAILED","reason":"Capture IPC Error"},{"name":"1200k","state":"FAILED","reason":"Capture IPC Error"}],"captureEngine":"10.249.35.191"}]}}
STARZ,"CAPTURING","resourceMpd":"http://cep.mos.hcvlny.cv.net/live/STARZ/MPD","streams":[{"name":"300k","state":"CAPTURING"},{"name":"925k","state":"CAPTURING"},{"name":"625k","state":"CAPTURING"},{"name":"1200k","state":"CAPTURING"}],"captureEngine":"10.249.35.177"}]}}
SPTS1-LITCH,"FAILED","reason":"IngestFailure:IOM_DATA_TIMEOUT","streams":[{"name":"300k","state":"FAILED","reason":"IngestFailure:IOM_DATA_TIMEOUT"},{"name":"625k","state":"FAILED","reason":"IngestFailure:IOM_DATA_TIMEOUT"},{"name":"925k","state":"CANCELED"},{"name":"1200k","state":"CANCELED"}],"captureEngine":"10.249.35.168"}]}}
STZB,"CAPTURING","resourceMpd":"http://cep.mos.hcvlny.cv.net/live/STZB/MPD","streams":[{"name":"300k","state":"CAPTURING"},{"name":"625k","state":"CAPTURING"},{"name":"925k","state":"CAPTURING"},{"name":"1200k","state":"CAPTURING"}],"captureEngine":"10.249.35.194"}]}}
STZCL,"CAPTURING","resourceMpd":"http://cep.mos.hcvlny.cv.net/live/STZCL/MPD","streams":[{"name":"300k","state":"CAPTURING"},{"name":"625k","state":"CAPTURING"},{"name":"925k","state":"CAPTURING"},{"name":"1200k","state":"CAPTURING"}],"captureEngine":"10.249.35.168"}]}}
STZK,"CAPTURING","resourceMpd":"http://cep.mos.hcvlny.cv.net/live/STZK/MPD","streams":[{"name":"300k","state":"CAPTURING"},{"name":"625k","state":"CAPTURING"},{"name":"925k","state":"CAPTURING"},{"name":"1200k","state":"CAPTURING"}],"captureEngine":"10.249.35.157"}]}}
TBN,"CAPTURING","resourceMpd":"http://cep.mos.hcvlny.cv.net/live/TBN/MPD","streams":[{"name":"300k","state":"CAPTURING"},{"name":"625k","state":"CAPTURING"},{"name":"925k","state":"CAPTURING"},{"name":"1200k","state":"CAPTURING"}],"captureEngine":"10.249.35.160"}]}}
STZCO,"CAPTURING","resourceMpd":"http://cep.mos.hcvlny.cv.net/live/STZCO/MPD","streams":[{"name":"300k","state":"CAPTURING"},{"name":"625k","state":"CAPTURING"},{"name":"925k","state":"CAPTURING"},{"name":"1200k","state":"CAPTURING"}],"captureEngine":"10.249.35.193"}]}}
TCAR,"CAPTURING","resourceMpd":"http://cep.mos.hcvlny.cv.net/live/TCAR/MPD","streams":[{"name":"625k","state":"CAPTURING"},{"name":"300k","state":"CAPTURING"},{"name":"925k","state":"CAPTURING"},{"name":"1200k","state":"CAPTURING"}],"captureEngine":"10.249.35.183"}]}}
TELE,"CAPTURING","resourceMpd":"http://cep.mos.hcvlny.cv.net/live/TELE/MPD","streams":[{"name":"625k","state":"CAPTURING"},{"name":"300k","state":"CAPTURING"},{"name":"1200k","state":"CAPTURING"},{"name":"925k","state":"CAPTURING"}],"captureEngine":"10.249.35.183"}]}}
Tempo,"CAPTURING","resourceMpd":"http://cep.mos.hcvlny.cv.net/live/Tempo/MPD","streams":[{"name":"300k","state":"CAPTURING"},{"name":"625k","state":"CAPTURING"},{"name":"1200k","state":"CAPTURING"},{"name":"925k","state":"CAPTURING"}],"captureEngine":"10.249.35.178"}]}}
TDSE,"CAPTURING","resourceMpd":"http://cep.mos.hcvlny.cv.net/live/TDSE/MPD","streams":[{"name":"300k","state":"CAPTURING"},{"name":"625k","state":"CAPTURING"},{"name":"925k","state":"CAPTURING"},{"name":"1200k","state":"CAPTURING"}],"captureEngine":"10.249.35.200"}]}}
TELEM,"CAPTURING","resourceMpd":"http://cep.mos.hcvlny.cv.net/live/TELEM/MPD","streams":[{"name":"300k","state":"CAPTURING"},{"name":"625k","state":"CAPTURING"},{"name":"925k","state":"CAPTURING"},{"name":"1200k","state":"CAPTURING"}],"captureEngine":"10.249.35.187"}]}}
TELEF,"CAPTURING","resourceMpd":"http://cep.mos.hcvlny.cv.net/live/TELEF/MPD","streams":[{"name":"300k","state":"CAPTURING"},{"name":"625k","state":"CAPTURING"},{"name":"925k","state":"CAPTURING"},{"name":"1200k","state":"CAPTURING"}],"captureEngine":"10.249.35.160"}]}}
TFC,"CAPTURING","resourceMpd":"http://cep.mos.hcvlny.cv.net/live/TFC/MPD","streams":[{"name":"300k","state":"CAPTURING"},{"name":"625k","state":"CAPTURING"},{"name":"925k","state":"CAPTURING"},{"name":"1200k","state":"CAPTURING"}],"captureEngine":"10.249.35.163"}]}}
THSTV-WPIX,"CAPTURING","resourceMpd":"http://cep.mos.hcvlny.cv.net/live/THSTV-WPIX/MPD","streams":[{"name":"300k","state":"CAPTURING"},{"name":"625k","state":"CAPTURING"},{"name":"925k","state":"CAPTURING"},{"name":"1200k","state":"CAPTURING"}],"captureEngine":"10.249.35.192"}]}}
TIN,"CAPTURING","resourceMpd":"http://cep.mos.hcvlny.cv.net/live/TIN/MPD","streams":[{"name":"300k","state":"CAPTURING"},{"name":"625k","state":"CAPTURING"},{"name":"925k","state":"CAPTURING"},{"name":"1200k","state":"CAPTURING"}],"captureEngine":"10.249.35.164"}]}}
THSTV-WCCT,"CAPTURING","resourceMpd":"http://cep.mos.hcvlny.cv.net/live/THSTV-WCCT/MPD","streams":[{"name":"300k","state":"CAPTURING"},{"name":"625k","state":"CAPTURING"},{"name":"925k","state":"CAPTURING"},{"name":"1200k","state":"CAPTURING"}],"captureEngine":"10.249.35.157"}]}}
THSTV-WPHL,"CAPTURING","resourceMpd":"http://cep.mos.hcvlny.cv.net/live/THSTV-WPHL/MPD","streams":[{"name":"925k","state":"CAPTURING"},{"name":"300k","state":"CAPTURING"},{"name":"625k","state":"CAPTURING"},{"name":"1200k","state":"CAPTURING"}],"captureEngine":"10.249.35.165"}]}}
TKCTV,"CAPTURING","resourceMpd":"http://cep.mos.hcvlny.cv.net/live/TKCTV/MPD","streams":[{"name":"300k","state":"CAPTURING"},{"name":"625k","state":"CAPTURING"},{"name":"925k","state":"CAPTURING"},{"name":"1200k","state":"CAPTURING"}],"captureEngine":"10.249.35.186"}]}}
TKLUB,"CAPTURING","resourceMpd":"http://cep.mos.hcvlny.cv.net/live/TKLUB/MPD","streams":[{"name":"300k","state":"CAPTURING"},{"name":"625k","state":"CAPTURING"},{"name":"925k","state":"CAPTURING"},{"name":"1200k","state":"CAPTURING"}],"captureEngine":"10.249.35.156"}]}}
TLNOV,"CAPTURING","resourceMpd":"http://cep.mos.hcvlny.cv.net/live/TLNOV/MPD","streams":[{"name":"300k","state":"CAPTURING"},{"name":"625k","state":"CAPTURING"},{"name":"925k","state":"CAPTURING"},{"name":"1200k","state":"CAPTURING"}],"captureEngine":"10.249.35.199"}]}}
TNICK,"CAPTURING","resourceMpd":"http://cep.mos.hcvlny.cv.net/live/TNICK/MPD","streams":[{"name":"625k","state":"CAPTURING"},{"name":"300k","state":"CAPTURING"},{"name":"925k","state":"CAPTURING"},{"name":"1200k","state":"CAPTURING"}],"captureEngine":"10.249.35.191"}]}}
TV5,"CAPTURING","resourceMpd":"http://cep.mos.hcvlny.cv.net/live/TV5/MPD","streams":[{"name":"300k","state":"CAPTURING"},{"name":"625k","state":"CAPTURING"},{"name":"925k","state":"CAPTURING"},{"name":"1200k","state":"CAPTURING"}],"captureEngine":"10.249.35.172"}]}}
TVCO,"FAILED","reason":"IngestFailure:IOM_DATA_TIMEOUT","streams":[{"name":"300k","state":"FAILED","reason":"IngestFailure:IOM_DATA_TIMEOUT"},{"name":"625k","state":"FAILED","reason":"Capture IPC Error"},{"name":"925k","state":"FAILED","reason":"Capture IPC Error"},{"name":"1200k","state":"FAILED","reason":"Capture IPC Error"}],"captureEngine":"10.249.35.167"}]}}
TOONe,"CAPTURING","resourceMpd":"http://cep.mos.hcvlny.cv.net/live/TOONe/MPD","streams":[{"name":"300k","state":"CAPTURING"},{"name":"625k","state":"CAPTURING"},{"name":"925k","state":"CAPTURING"},{"name":"1200k","state":"CAPTURING"}],"captureEngine":"10.249.35.189"}]}}
TVCH,"CAPTURING","resourceMpd":"http://cep.mos.hcvlny.cv.net/live/TVCH/MPD","streams":[{"name":"300k","state":"CAPTURING"},{"name":"625k","state":"CAPTURING"},{"name":"925k","state":"CAPTURING"},{"name":"1200k","state":"CAPTURING"}],"captureEngine":"10.249.35.194"}]}}
TVAS,"FAILED","reason":"IngestFailure:IOM_DATA_TIMEOUT","streams":[{"name":"300k","state":"FAILED","reason":"IngestFailure:IOM_DATA_TIMEOUT"},{"name":"625k","state":"FAILED","reason":"Capture IPC Error"},{"name":"925k","state":"FAILED","reason":"Capture IPC Error"},{"name":"1200k","state":"CANCELED"}],"captureEngine":"10.249.35.165"}]}}
TVDOM,"CAPTURING","resourceMpd":"http://cep.mos.hcvlny.cv.net/live/TVDOM/MPD","streams":[{"name":"300k","state":"CAPTURING"},{"name":"625k","state":"CAPTURING"},{"name":"925k","state":"CAPTURING"},{"name":"1200k","state":"CAPTURING"}],"captureEngine":"10.249.35.159"}]}}
TVG,"CAPTURING","resourceMpd":"http://cep.mos.hcvlny.cv.net/live/TVG/MPD","streams":[{"name":"300k","state":"CAPTURING"},{"name":"625k","state":"CAPTURING"},{"name":"925k","state":"CAPTURING"},{"name":"1200k","state":"CAPTURING"}],"captureEngine":"10.249.35.201"}]}}
TVJA,"CAPTURING","resourceMpd":"http://cep.mos.hcvlny.cv.net/live/TVJA/MPD","streams":[{"name":"300k","state":"CAPTURING"},{"name":"625k","state":"CAPTURING"},{"name":"925k","state":"CAPTURING"},{"name":"1200k","state":"CAPTURING"}],"captureEngine":"10.249.35.180"}]}}
TVLD,"CAPTURING","resourceMpd":"http://cep.mos.hcvlny.cv.net/live/TVLD/MPD","streams":[{"name":"300k","state":"CAPTURING"},{"name":"925k","state":"CAPTURING"},{"name":"625k","state":"CAPTURING"},{"name":"1200k","state":"CAPTURING"}],"captureEngine":"10.249.35.188"}]}}
TVEI,"CAPTURING","resourceMpd":"http://cep.mos.hcvlny.cv.net/live/TVEI/MPD","streams":[{"name":"300k","state":"CAPTURING"},{"name":"625k","state":"CAPTURING"},{"name":"925k","state":"CAPTURING"},{"name":"1200k","state":"CAPTURING"}],"captureEngine":"10.249.35.167"}]}}
TVN,"CAPTURING","resourceMpd":"http://cep.mos.hcvlny.cv.net/live/TVN/MPD","streams":[{"name":"300k","state":"CAPTURING"},{"name":"625k","state":"CAPTURING"},{"name":"925k","state":"CAPTURING"},{"name":"1200k","state":"CAPTURING"}],"captureEngine":"10.249.35.197"}]}}
TVONE,"CAPTURING","resourceMpd":"http://cep.mos.hcvlny.cv.net/live/TVONE/MPD","streams":[{"name":"300k","state":"CAPTURING"},{"name":"625k","state":"CAPTURING"},{"name":"925k","state":"CAPTURING"},{"name":"1200k","state":"CAPTURING"}],"captureEngine":"10.249.35.190"}]}}
TVPO,"CAPTURING","resourceMpd":"http://cep.mos.hcvlny.cv.net/live/TVPO/MPD","streams":[{"name":"300k","state":"CAPTURING"},{"name":"625k","state":"CAPTURING"},{"name":"925k","state":"CAPTURING"},{"name":"1200k","state":"CAPTURING"}],"captureEngine":"10.249.35.158"}]}}
TVREC,"CAPTURING","resourceMpd":"http://cep.mos.hcvlny.cv.net/live/TVREC/MPD","streams":[{"name":"300k","state":"CAPTURING"},{"name":"925k","state":"CAPTURING"},{"name":"625k","state":"CAPTURING"},{"name":"1200k","state":"CAPTURING"}],"captureEngine":"10.249.35.197"}]}}
UP,"CAPTURING","resourceMpd":"http://cep.mos.hcvlny.cv.net/live/UP/MPD","streams":[{"name":"300k","state":"CAPTURING"},{"name":"625k","state":"CAPTURING"},{"name":"925k","state":"CAPTURING"},{"name":"1200k","state":"CAPTURING"}],"captureEngine":"10.249.35.168"}]}}
VERIA,"CAPTURING","resourceMpd":"http://cep.mos.hcvlny.cv.net/live/VERIA/MPD","streams":[{"name":"300k","state":"CAPTURING"},{"name":"625k","state":"CAPTURING"},{"name":"925k","state":"CAPTURING"},{"name":"1200k","state":"CAPTURING"}],"captureEngine":"10.249.35.166"}]}}
VH1C,"CAPTURING","resourceMpd":"http://cep.mos.hcvlny.cv.net/live/VH1C/MPD","streams":[{"name":"300k","state":"CAPTURING"},{"name":"625k","state":"CAPTURING"},{"name":"925k","state":"CAPTURING"},{"name":"1200k","state":"CAPTURING"}],"captureEngine":"10.249.35.162"}]}}
ViMov,"CAPTURING","resourceMpd":"http://cep.mos.hcvlny.cv.net/live/ViMov/MPD","streams":[{"name":"300k","state":"CAPTURING"},{"name":"625k","state":"CAPTURING"},{"name":"925k","state":"CAPTURING"},{"name":"1200k","state":"CAPTURING"}],"captureEngine":"10.249.35.198"}]}}
V-me,"CAPTURING","resourceMpd":"http://cep.mos.hcvlny.cv.net/live/V-me/MPD","streams":[{"name":"300k","state":"CAPTURING"},{"name":"625k","state":"CAPTURING"},{"name":"925k","state":"CAPTURING"},{"name":"1200k","state":"CAPTURING"}],"captureEngine":"10.249.35.174"}]}}
VmeK,"CAPTURING","resourceMpd":"http://cep.mos.hcvlny.cv.net/live/VmeK/MPD","streams":[{"name":"300k","state":"CAPTURING"},{"name":"625k","state":"CAPTURING"},{"name":"925k","state":"CAPTURING"},{"name":"1200k","state":"CAPTURING"}],"captureEngine":"10.249.35.170"}]}}
WACP,"CAPTURING","resourceMpd":"http://cep.mos.hcvlny.cv.net/live/WACP/MPD","streams":[{"name":"925k","state":"CAPTURING"},{"name":"625k","state":"CAPTURING"},{"name":"1200k","state":"CAPTURING"},{"name":"300k","state":"CAPTURING"}],"captureEngine":"10.249.35.175"}]}}
WEDW,"CAPTURING","resourceMpd":"http://cep.mos.hcvlny.cv.net/live/WEDW/MPD","streams":[{"name":"300k","state":"CAPTURING"},{"name":"625k","state":"CAPTURING"},{"name":"925k","state":"CAPTURING"},{"name":"1200k","state":"CAPTURING"}],"captureEngine":"10.249.35.166"}]}}
WAPA,"CAPTURING","resourceMpd":"http://cep.mos.hcvlny.cv.net/live/WAPA/MPD","streams":[{"name":"300k","state":"CAPTURING"},{"name":"625k","state":"CAPTURING"},{"name":"925k","state":"CAPTURING"},{"name":"1200k","state":"CAPTURING"}],"captureEngine":"10.249.35.184"}]}}
WHYY,"CAPTURING","resourceMpd":"http://cep.mos.hcvlny.cv.net/live/WHYY/MPD","streams":[{"name":"300k","state":"CAPTURING"},{"name":"625k","state":"CAPTURING"},{"name":"925k","state":"CAPTURING"},{"name":"1200k","state":"CAPTURING"}],"captureEngine":"10.249.35.177"}]}}
WGTW,"CAPTURING","resourceMpd":"http://cep.mos.hcvlny.cv.net/live/WGTW/MPD","streams":[{"name":"300k","state":"CAPTURING"},{"name":"625k","state":"CAPTURING"},{"name":"925k","state":"CAPTURING"},{"name":"1200k","state":"CAPTURING"}],"captureEngine":"10.249.35.176"}]}}
WFN,"CAPTURING","resourceMpd":"http://cep.mos.hcvlny.cv.net/live/WFN/MPD","streams":[{"name":"300k","state":"CAPTURING"},{"name":"625k","state":"CAPTURING"},{"name":"1200k","state":"CAPTURING"},{"name":"925k","state":"CAPTURING"}],"captureEngine":"10.249.35.176"}]}}
WILL-PLUS,"CAPTURING","resourceMpd":"http://cep.mos.hcvlny.cv.net/live/WILL-PLUS/MPD","streams":[{"name":"300k","state":"CAPTURING"},{"name":"625k","state":"CAPTURING"},{"name":"925k","state":"CAPTURING"},{"name":"1200k","state":"CAPTURING"}],"captureEngine":"10.249.35.195"}]}}
WLNY-DIST-B,"CAPTURING","resourceMpd":"http://cep.mos.hcvlny.cv.net/live/WLNY-DIST-B/MPD","streams":[{"name":"300k","state":"CAPTURING"},{"name":"625k","state":"CAPTURING"},{"name":"925k","state":"CAPTURING"},{"name":"1200k","state":"CAPTURING"}],"captureEngine":"10.249.35.179"}]}}
WLNY-LOCAL-A,"CAPTURING","resourceMpd":"http://cep.mos.hcvlny.cv.net/live/WLNY-LOCAL-A/MPD","streams":[{"name":"300k","state":"CAPTURING"},{"name":"625k","state":"CAPTURING"},{"name":"925k","state":"CAPTURING"},{"name":"1200k","state":"CAPTURING"}],"captureEngine":"10.249.35.185"}]}}
WMBC,"CAPTURING","resourceMpd":"http://cep.mos.hcvlny.cv.net/live/WMBC/MPD","streams":[{"name":"300k","state":"CAPTURING"},{"name":"625k","state":"CAPTURING"},{"name":"925k","state":"CAPTURING"},{"name":"1200k","state":"CAPTURING"}],"captureEngine":"10.249.35.185"}]}}
WNET,"CAPTURING","resourceMpd":"http://cep.mos.hcvlny.cv.net/live/WNET/MPD","streams":[{"name":"300k","state":"CAPTURING"},{"name":"625k","state":"CAPTURING"},{"name":"925k","state":"CAPTURING"},{"name":"1200k","state":"CAPTURING"}],"captureEngine":"10.249.35.161"}]}}
WOMN,"CAPTURING","resourceMpd":"http://cep.mos.hcvlny.cv.net/live/WOMN/MPD","streams":[{"name":"300k","state":"CAPTURING"},{"name":"625k","state":"CAPTURING"},{"name":"925k","state":"CAPTURING"},{"name":"1200k","state":"CAPTURING"}],"captureEngine":"10.249.35.193"}]}}
WPVI,"CAPTURING","resourceMpd":"http://cep.mos.hcvlny.cv.net/live/WPVI/MPD","streams":[{"name":"925k","state":"CAPTURING"},{"name":"300k","state":"CAPTURING"},{"name":"625k","state":"CAPTURING"},{"name":"1200k","state":"CAPTURING"}],"captureEngine":"10.249.35.177"}]}}
WORD,"CAPTURING","resourceMpd":"http://cep.mos.hcvlny.cv.net/live/WORD/MPD","streams":[{"name":"300k","state":"CAPTURING"},{"name":"925k","state":"CAPTURING"},{"name":"625k","state":"CAPTURING"},{"name":"1200k","state":"CAPTURING"}],"captureEngine":"10.249.35.173"}]}}
WPVI-ENN,"CAPTURING","resourceMpd":"http://cep.mos.hcvlny.cv.net/live/WPVI-ENN/MPD","streams":[{"name":"300k","state":"CAPTURING"},{"name":"625k","state":"CAPTURING"},{"name":"925k","state":"CAPTURING"},{"name":"1200k","state":"CAPTURING"}],"captureEngine":"10.249.35.163"}]}}
WRDM,"CAPTURING","resourceMpd":"http://cep.mos.hcvlny.cv.net/live/WRDM/MPD","streams":[{"name":"300k","state":"CAPTURING"},{"name":"625k","state":"CAPTURING"},{"name":"925k","state":"CAPTURING"},{"name":"1200k","state":"CAPTURING"}],"captureEngine":"10.249.35.193"}]}}
WRNN,"CAPTURING","resourceMpd":"http://cep.mos.hcvlny.cv.net/live/WRNN/MPD","streams":[{"name":"300k","state":"CAPTURING"},{"name":"625k","state":"CAPTURING"},{"name":"925k","state":"CAPTURING"},{"name":"1200k","state":"CAPTURING"}],"captureEngine":"10.249.35.201"}]}}
WTIC,"CAPTURING","resourceMpd":"http://cep.mos.hcvlny.cv.net/live/WTIC/MPD","streams":[{"name":"300k","state":"CAPTURING"},{"name":"625k","state":"CAPTURING"},{"name":"925k","state":"CAPTURING"},{"name":"1200k","state":"CAPTURING"}],"captureEngine":"10.249.35.190"}]}}
WSAH,"CAPTURING","resourceMpd":"http://cep.mos.hcvlny.cv.net/live/WSAH/MPD","streams":[{"name":"300k","state":"CAPTURING"},{"name":"625k","state":"CAPTURING"},{"name":"925k","state":"CAPTURING"},{"name":"1200k","state":"CAPTURING"}],"captureEngine":"10.249.35.173"}]}}
WTBY,"FAILED","reason":"IngestFailure:IOM_DATA_TIMEOUT","streams":[{"name":"300k","state":"FAILED","reason":"IngestFailure:IOM_DATA_TIMEOUT"},{"name":"625k","state":"FAILED","reason":"Capture IPC Error"},{"name":"925k","state":"CANCELED"},{"name":"1200k","state":"CANCELED"}],"captureEngine":"10.249.35.164"}]}}
WTNH-FFLD,"CAPTURING","resourceMpd":"http://cep.mos.hcvlny.cv.net/live/WTNH-FFLD/MPD","streams":[{"name":"300k","state":"CAPTURING"},{"name":"625k","state":"CAPTURING"},{"name":"925k","state":"CAPTURING"},{"name":"1200k","state":"CAPTURING"}],"captureEngine":"10.249.35.195"}]}}
WTNH-NEWHVN,"FAILED","reason":"IngestFailure:IOM_DATA_TIMEOUT","streams":[{"name":"300k","state":"FAILED","reason":"IngestFailure:IOM_DATA_TIMEOUT"},{"name":"625k","state":"FAILED","reason":"Capture IPC Error"},{"name":"925k","state":"FAILED","reason":"Capture IPC Error"},{"name":"1200k","state":"FAILED","reason":"Capture IPC Error"}],"captureEngine":"10.249.35.190"}]}}
WUVN,"CAPTURING","resourceMpd":"http://cep.mos.hcvlny.cv.net/live/WUVN/MPD","streams":[{"name":"300k","state":"CAPTURING"},{"name":"625k","state":"CAPTURING"},{"name":"925k","state":"CAPTURING"},{"name":"1200k","state":"CAPTURING"}],"captureEngine":"10.249.35.164"}]}}
WVIT,"CAPTURING","resourceMpd":"http://cep.mos.hcvlny.cv.net/live/WVIT/MPD","streams":[{"name":"300k","state":"CAPTURING"},{"name":"625k","state":"CAPTURING"},{"name":"925k","state":"CAPTURING"},{"name":"1200k","state":"CAPTURING"}],"captureEngine":"10.249.35.188"}]}}
WTXF-WALL,"FAILED","reason":"Capture IPC Error","streams":[{"name":"300k","state":"FAILED","reason":"Capture IPC Error"},{"name":"625k","state":"FAILED","reason":"IngestFailure:IOM_DATA_TIMEOUT"},{"name":"925k","state":"FAILED","reason":"Capture IPC Error"},{"name":"1200k","state":"CANCELED"}],"captureEngine":"10.249.35.165"}]}}
WTXF,"CAPTURING","resourceMpd":"http://cep.mos.hcvlny.cv.net/live/WTXF/MPD","streams":[{"name":"300k","state":"CAPTURING"},{"name":"625k","state":"CAPTURING"},{"name":"925k","state":"CAPTURING"},{"name":"1200k","state":"CAPTURING"}],"captureEngine":"10.249.35.166"}]}}
WVVH,"FAILED","reason":"Capture IPC Error","streams":[{"name":"300k","state":"FAILED","reason":"Capture IPC Error"},{"name":"625k","state":"FAILED","reason":"Capture IPC Error"},{"name":"925k","state":"FAILED","reason":"IngestFailure:IOM_DATA_TIMEOUT"},{"name":"1200k","state":"FAILED","reason":"Capture IPC Error"}],"captureEngine":"10.249.35.167"}]}}
WXTV,"CAPTURING","resourceMpd":"http://cep.mos.hcvlny.cv.net/live/WXTV/MPD","streams":[{"name":"300k","state":"CAPTURING"},{"name":"625k","state":"CAPTURING"},{"name":"925k","state":"CAPTURING"},{"name":"1200k","state":"CAPTURING"}],"captureEngine":"10.249.35.168"}]}}
WYBE,"CAPTURING","resourceMpd":"http://cep.mos.hcvlny.cv.net/live/WYBE/MPD","streams":[{"name":"625k","state":"CAPTURING"},{"name":"300k","state":"CAPTURING"},{"name":"925k","state":"CAPTURING"},{"name":"1200k","state":"CAPTURING"}],"captureEngine":"10.249.35.165"}]}}
WYBE-MIND,"CAPTURING","resourceMpd":"http://cep.mos.hcvlny.cv.net/live/WYBE-MIND/MPD","streams":[{"name":"300k","state":"CAPTURING"},{"name":"625k","state":"CAPTURING"},{"name":"925k","state":"CAPTURING"},{"name":"1200k","state":"CAPTURING"}],"captureEngine":"10.249.35.183"}]}}
ZEETV,"CAPTURING","resourceMpd":"http://cep.mos.hcvlny.cv.net/live/ZEETV/MPD","streams":[{"name":"300k","state":"CAPTURING"},{"name":"625k","state":"CAPTURING"},{"name":"925k","state":"CAPTURING"},{"name":"1200k","state":"CAPTURING"}],"captureEngine":"10.249.35.178"}]}}
N12KH,"CAPTURING","resourceMpd":"http://cep.mos.hcvlny.cv.net/live/N12KH/MPD","streams":[{"name":"450k","state":"CAPTURING"},{"name":"600k","state":"CAPTURING"},{"name":"1000k","state":"CAPTURING"},{"name":"1500k","state":"CAPTURING"},{"name":"2200k","state":"CAPTURING"},{"name":"4000k","state":"CAPTURING"}],"captureEngine":"10.249.35.182"}]}}
N12WH,"CAPTURING","resourceMpd":"http://cep.mos.hcvlny.cv.net/live/N12WH/MPD","streams":[{"name":"2200k","state":"CAPTURING"},{"name":"450k","state":"CAPTURING"},{"name":"1000k","state":"CAPTURING"},{"name":"600k","state":"CAPTURING"},{"name":"1500k","state":"CAPTURING"},{"name":"4000k","state":"CAPTURING"}],"captureEngine":"10.249.35.195"}]}}
N12XH,"CAPTURING","resourceMpd":"http://cep.mos.hcvlny.cv.net/live/N12XH/MPD","streams":[{"name":"600k","state":"CAPTURING"},{"name":"450k","state":"CAPTURING"},{"name":"1000k","state":"CAPTURING"},{"name":"2200k","state":"CAPTURING"},{"name":"1500k","state":"CAPTURING"},{"name":"4000k","state":"CAPTURING"}],"captureEngine":"10.249.35.171"}]}}
NTWHD,"CAPTURING","resourceMpd":"http://cep.mos.hcvlny.cv.net/live/NTWHD/MPD","streams":[{"name":"450k","state":"CAPTURING"},{"name":"600k","state":"CAPTURING"},{"name":"1000k","state":"CAPTURING"},{"name":"1500k","state":"CAPTURING"},{"name":"2200k","state":"CAPTURING"},{"name":"4000k","state":"CAPTURING"}],"captureEngine":"10.249.35.200"}]}}
NTWHD-2,"CAPTURING","resourceMpd":"http://cep.mos.hcvlny.cv.net/live/NTWHD-2/MPD","streams":[{"name":"450k","state":"CAPTURING"},{"name":"600k","state":"CAPTURING"},{"name":"1000k","state":"CAPTURING"},{"name":"1500k","state":"CAPTURING"},{"name":"2200k","state":"CAPTURING"},{"name":"4000k","state":"CAPTURING"}],"captureEngine":"10.249.35.195"}]}}
NTWHD-4,"CAPTURING","resourceMpd":"http://cep.mos.hcvlny.cv.net/live/NTWHD-4/MPD","streams":[{"name":"450k","state":"CAPTURING"},{"name":"600k","state":"CAPTURING"},{"name":"1000k","state":"CAPTURING"},{"name":"1500k","state":"CAPTURING"},{"name":"2200k","state":"CAPTURING"},{"name":"4000k","state":"CAPTURING"}],"captureEngine":"10.249.35.188"}]}}
NTWHD-3,"CAPTURING","resourceMpd":"http://cep.mos.hcvlny.cv.net/live/NTWHD-3/MPD","streams":[{"name":"450k","state":"CAPTURING"},{"name":"600k","state":"CAPTURING"},{"name":"1000k","state":"CAPTURING"},{"name":"1500k","state":"CAPTURING"},{"name":"2200k","state":"CAPTURING"},{"name":"4000k","state":"CAPTURING"}],"captureEngine":"10.249.35.187"}]}}
NTWHD-5,"CAPTURING","resourceMpd":"http://cep.mos.hcvlny.cv.net/live/NTWHD-5/MPD","streams":[{"name":"2200k","state":"CAPTURING"},{"name":"450k","state":"CAPTURING"},{"name":"600k","state":"CAPTURING"},{"name":"1000k","state":"CAPTURING"},{"name":"1500k","state":"CAPTURING"},{"name":"4000k","state":"CAPTURING"}],"captureEngine":"10.249.35.188"}]}}
